Name,Street Address,Locality,State,Zip code,Telephone,fax
Medlock Bridge Animal Hospital,5155 S. Old Peachtree Rd.,Norcross,GA,30092, (770) 242-9272, (770) 242-7391
Pharr Road Animal Hospital,553 Pharr Rd NE,Atlanta,GA,30305, (404) 237-4601, (404) 261-0927
Riverview Veterinary Hospital,3288 Cobb Pkwy,Atlanta,GA,30339, (770) 956-8004, (770) 956-7385
mVet Services LLC,1381 Eryn Cir,Suwanee,GA,30024, (770) 623-1311, (770) 569-8366
P & A Animal Medical Center,8020 McGinnis Ferry Rd Suite 107,Suwanee,GA,30024, (404) 551-5200, (770) 450-8573
Old Peachtree Animal Clinic,"1611 Satellite Blvd., ",Duluth,GA,30097, (770) 545-8077, (770) 450-8573
North Roswell Veterinary Clnc,11490 Alpharetta Hwy # 800,Roswell,GA,30076, (770) 442-8733, (770) 740-9623
North Main Animal Hospital,562 North Main Street,Alpharetta,GA,30009, (770) 664-9111, (770) 664-9001
Mill Creek Animal Hospital,10100 Jones Bridge Rd,Alpharetta,GA,30022, (770) 740-0330, (770) 569-8366
Midway Animal Hospital,6785 Atlanta Highway,Alpharetta,GA,30004, (770) 475-2003, (770) 242-7391
Sawnee Animal Clinic,1826 Canton Hwy,Cumming,GA,30040, (770) 887-1900, (770) 208-1901
All Creatures Animal Hospital,2482 Mount Vernon Rd # C,Dunwoody,GA,30338, (770) 393-3400, (770) 395-9500
Hamilton Mill Animal Hospital,3818 Braselton Hwy,Buford,GA,30519, (770) 932-1616, (770) 932-1585
Hoschton Animal Hospital,3434 Highway 53,Hoschton,GA,30548, (706) 654-1111, (706) 654-9150
Hog Mountain Animal Hospital,2885 Hog Mountain Rd,Dacula,GA,30019, (770) 614-9060, (770) 614-9944
Happy Tails Veterinary Care,665 Exchange Circle Suite 300,Bethlehem,GA,30620, (678) 963-5004, (770) 932-1585
Hamilton Ridge Animal Hospital,"3421 Ridge Road, Ste B106",Buford,GA,30519, (770) 614-1919, (770) 932-1585
Hamilton Plaza Animal Hospital,1343 Auburn Road Suite 116,Dacula,GA,30019, (770) 558-8800, (770) 932-1585
Eastside Animal Medical Center,1835 Grayson Hwy,Grayson,GA,30017, (678) 985-5530, (678) 985-2730
BANFIELD THE PET HOSPITAL,128 PERIMETER CTR W,ATLANTA,GA,30346, (770) 393-2293, (770) 393-8459
Social Circle Veterinary Hosp,229 Spring St SE,Social Circle,GA,30025, (770) 464-2955, (770) 464-2961
Banfield Pet Hospital,3335 Cobb Parkway NW Ste 400,Acworth,GA,30101, (770) 529-1781, (770) 529-3317
Animal Hospital of West Woodstock,6687 Bells Ferry Rd,Woodstock,GA,30189, (770) 924-8847, (770) 592-6601
Animal Hospital Of Towne Lake,3105 Parkbrooke Cir,Woodstock,GA,30189, (770) 591-9500, (770) 591-9924
Allatoona Animal Hospital,6733 BELLS FERRY RD,WOODSTOCK,GA,30189, (678) 445-1111, (678) 445-6200
Affordable Vet Center,6422 Bells Ferry Road Suite 148,Woodstock,GA,30189, (678) 503-2009, (404) 902-5290
SUMMIT CHASE ANIMAL HOSPITAL,942 ATHENS HWY,LOGANVILLE,GA,30052, (770) 554-9060, (770) 963-3834
Indian Trail Animal Hospital,1360 Indian Trail Lilburn Rd,Norcross,GA,30093, (770) 925-4884, (770) 925-3658
Mills Animal Hospital,4514 N. Cobb Parkway NW,Acworth,GA,30101, (770) 903-5995, (770) 974-1925
Veterinary Referral Surgical Practice,7800 Highway 92,Woodstock,GA,30189, (678) 214-0300, (678) 494-4701
THRIVE Affordable Vet Care,1428 Towne Lake Pkwy Suite 105,Woodstock,GA,30189, (470) 531-1158, (770) 926-7421
South Cherokee Veterinary,513 Sharp St.,Woodstock,GA,30189, (770) 924-6746, (770) 924-6956
North Georgia Veterinary Specialists,1328 Buford Hwy Bldg 200,Buford,GA,30518, (678) 835-3300, (678) 835-3301
North Forsyth Animal Hospital ,3510 Rowe Ln. Suite B,Cumming,GA,30041, (678) 208-9000, (770) 513-6558
Lanier Animal Clinic,5700 Cumming Hwy NE,Sugar Hill,GA,30518, (770) 831-5965, (770) 831-3043
Norcross Animal Hospital,3075 Medlock Bridge Rd,Norcross,GA,30071, (770) 447-0033, (770) 587-4849
North Springs Animal Clinic,7541 Roswell Rd,Atlanta,GA,30350, (770) 393-9889, (770) 393-1975
Windermere Animal Hospital,"4415 Front Nine Drive, Suite 900",Cumming,GA,30041, (770) 887-0676, (770) 887-0675
Pet-EP,3627 Spring Creek LN.,Sandy Springs,GA,30350, (404) 608-0800, (770) 649-1614
The Cat Clinic of Cummings,"415 Peachtree Parkway, Ste. 235",Cumming,GA,30041, (770) 888-8007, (770) 888-8007
Mt. Paran Animal Hospital,5173 Roswell Rd,Atlanta,GA,30342, (404) 490-2275, (770) 498-3366
Sugar Hill Animal Hospital,5305 Nelson Brogdon Blvd,Sugar Hill,GA,30518, (770) 271-7777, (770) 614-3113
South Forsyth Animal Hospital,2200 Old Alpharetta Rd,Cumming,GA,30041, (770) 889-0737, (678) 407-0700
Sandy Springs Animal Clinic,350 Northridge Rd Ste 3A,Atlanta,GA,30350, (770) 642-7797, (770) 670-7888
Pet Vet,4630 Martin Rd,Cumming,GA,30041, (770) 887-1565, (770) 781-4237
Orr Animal Hospital Inc,1902 Old Atlanta Rd,Cumming,GA,30041, (770) 887-7112, (770) 886-7584
Veterinary Care Ctr LLC,8016 Cumming Hwy,Canton,GA,30115, (770) 345-3063, (770) 345-3099
VCA Roswell Animal Hospital,1112 Alpharetta St,Roswell,GA,30075, (770) 993-9031, (770) 594-1591
Union Hill Animal Hospital,2853 Lower Union Hill Rd,Canton,GA,30115, (770) 664-8380, (770) 664-9830
Town & Country Veterinary - North,4688 Woodstock Road,Roswell,GA,30075, (678) 461-8860, (678) 279-9956
Woods Animal Hospital,11 Thrasher St.,Norcross,GA,30071, (770) 448-6735, (770) 394-2657
Sweet Apple Animal Hospital,13080 Arnold Mill Rd,Roswell,GA,30075, (770) 664-7387, (770) 664-5629
Winters Chapel Animal Hospital,3017 Peeler Rd,Atlanta,GA,30360, (770) 394-0030, (770) 394-2657
WellPet Humane,6225 Peachtree Industrial Blvd.,Chamblee,GA,30360, (770) 455-1011, (770) 455-1017
Village Animal Clinic,1410 Dunwoody Village Pkwy,Atlanta,GA,30338, (770) 393-8936, (770) 393-8700
Wieuca Animal Clinic,4589 Roswell Rd NE,Atlanta,GA,30342, (404) 252-8676, (404) 252-8691
Lake City Animal Hospital,3671 Cobb Pkwy NW,Acworth,GA,30101, (770) 974-3536, (770) 974-1925
Just Pets Veterinary Hospital LLC,1675 Peachtree Pkwy Ste 110,Cumming,GA,30041, (770) 886-2664, (770) 886-2669
Roswell Veterinary Associates,1470 Woodstock Rd,Roswell,GA,30075, (770) 749-7986, (184) 427-04015
Rose Animal Hospital,362 South Atlanta St,Roswell,GA,30075, (770) 594-9731, (184) 427-04015
Dunwoody Animal Medical Center,"2482 Jett Ferry Rd, Suite 600",Dunwoody,GA,30338, (770) 698-9227, (770) 394-6968
Dunwoody Veterinary Center,"1610 Mt. Vernon Rd., Ste 125",Dunwoody,GA,30338, (770) 394-5004, (770) 394-5003
DUNWOODY ANIMAL HOSPITAL,5450 CHAMBLEE DUNWOODY RD,DUNWOODY,GA,30338, (770) 394-4030, (770) 392-0223
Cherokee Emergency Veterinary,7800 Highway 92,Woodstock,GA,30189, (678) 238-0700, (770) 924-3721
Cedarcrest Animal Hospital,2355 Cedarcrest Rd.,Acworth,GA,30101, (770) 544-0580, (740) 544-0585
Bush Veterinary Neurology Service - Atlanta,7800 GA-92,Woodstock,GA,30189, (678) 400-0042, (678) 621-2270
Brookstone Animal Hospital,5410 Brookstone Dr NW,Acworth,GA,30101, (770) 628-0651, (770) 628-0653
Creekside Animal Hospital,2580 Freedom Pkwy,Cumming,GA,30041, (770) 889-4426, (770) 889-6458
Buford Animal Hospital,1190 W Shadburn Ave,Buford,GA,30518, (770) 945-6757, (770) 831-1118
Northbrook Animal Hospital,55 W Crossville Rd,Roswell,GA,30075, (770) 992-3311, (770) 740-9623
North Fulton Veterinary Hosp,775 Marietta Hwy,Roswell,GA,30075, (770) 993-4043, (770) 552-7737
Mountain Park Plaza Animal,4708 Woodstock Rd,Roswell,GA,30075, (770) 587-4800, (770) 587-4849
Cat Doctor,4716 Roswell Rd NE,Atlanta,GA,30342, (404) 257-0048, (404) 255-1156
Belle Isle Animal Clinic,216 E Belle Isle Rd NE,Atlanta,GA,30342, (404) 252-3587, (404) 252-0999
Companion Animal Hospital,5964 S Norcross Tucker Rd,Norcross,GA,30093, (770) 449-9002, (770) 446-9603
Bells Ferry Veterinary Hospital,6410 Highway 92,Acworth,GA,30102, (770) 926-5311, (770) 926-7796
Bells Ferry Veterinary Hosp,6410 Highway 92,Acworth,GA,30102, (770) 926-5311, (770) 592-4845
Banfield The Pet Hospital,142 Woodstock Square Ave,Woodstock,GA,30189, (770) 592-0424, (770) 592-4845
Walton Gwinnett Animal Clinic,4695 Atlanta Hwy,Loganville,GA,30052, (770) 466-9535, (770) 466-9777
Value Vet Lawrenceville,3645 Lawrence Highway,Lawrenceville,GA,30044, (770) 686-3010, (770) 686-3078
Walnut Grove Animal Hospital,1550 Walnut Ave,Loganville,GA,30052, (770) 787-5180, (770) 215-5102
VETERINARY OPHTHALMOLOGY CLINIC,1455 PLEASANT HILL RD STE 201,LAWRENCEVILLE,GA,30044, (770) 638-0880, (770) 215-5102
Veterinary Behavior Consultants,Suite 2201 Cruse Road Professional Office Park,Lawrenceville,GA,30044, (678) 878-4410, (770) 215-5102
VCA Falcon Village Animal Hospital,2030 Lawrenceville Suwanee Rd,Lawrenceville,GA,30043, (770) 962-8326, (770) 215-5102
VCA Animal Emergency Ctr-Gwinnett,1956 Lawrenceville Suwanee Rd,Lawrenceville,GA,30043, (770) 277-3220, (770) 939-3602
Mabry Animal Hospital ,4540 Mabry Rd.,Roswell,GA,30075, (770) 578-2622, (770) 558-4216
Banfield The Pet Hospital,1020 Market Place Blvd,Cumming,GA,30041, (678) 455-5004, (678) 455-5007
Sugarloaf Animal Hospital,3010 Sugarloaf Pkwy,Lawrenceville,GA,30045, (770) 962-5112, (770) 963-3834
Russell Ridge Animal Hospital,738 Ridge Rd,Lawrenceville,GA,30043, (678) 407-0700, (678) 407-0700
Riverside Animal Hospital,1110 Highway 120,Lawrenceville,GA,30043, (770) 339-9080, (770) 339-9351
Paradox Spay & Neuter Clinic,1200 Industrial Pkwy,Loganville,GA,30052, (770) 787-8717, (678) 806-9444
Morningside Animal Care Center,929 Buford Dr,Lawrenceville,GA,30043, (770) 995-5700, (678) 806-9444
Atlanta Animal Hospital,785 Peachtree Parkway,Cumming ,GA,30041, (678) 807-7824, (770) 886-0355
Ark Veterinary Hospital,4977 Friendship Rd # 104,Buford,GA,30518, (770) 271-0270, (770) 886-0355
Animal Medical Ctr,1438 Buford Hwy,Cumming,GA,30041, (770) 886-8555, (770) 886-0355
Animal Hospital-North Gwinnett,2040 Buford Hwy,Buford,GA,30518, (770) 945-9555, (770) 945-3543
Hickory Flat Animal Hospital,2939 E Cherokee Dr,Canton,GA,30115, (770) 345-2816, (770) 704-0365
Harmony Animal Hospital,4280 Hickory Flat Hwy Suite 112,Canton,GA,30115, (770) 213-3551, (770) 213-3586
Monroe Veterinary Clinic Inc,1016 E Spring St,Monroe,GA,30655, (770) 267-3690, (770) 267-0761
ACWORTH ANIMAL HOSPITAL,4310 TOCCOA DR NW,ACWORTH,GA,30101, (770) 974-2221,
Luv My Pet,3664 Club Dr,Lawrenceville,GA,30044, (678) 924-3441, (678) 806-9444
Loganville Veterinary Clinic,4158 Pecan St,Loganville,GA,30052, (770) 466-1513, (770) 466-0900
Lawrenceville-Suwanee Hospital,900 Lawrenceville Suwanee Rd,Lawrenceville,GA,30043, (770) 963-0184, (770) 513-6558
Lawrenceville Animal Care Center,1720 Lawrenceville Hwy,Lawrenceville,GA,30044, (770) 682-0682, (770) 682-0811
Free Home Animal Hospital,11940 Cumming Hwy,Canton,GA,30115, (770) 205-9097, (188) 871-6350
Traditions Animal Hospital,"55 Freedom Parkway, Suite #113",Hoschton,GA,30548, (706) 654-4838, (706) 654-1281
Total Veterinary Care ,"3480 Financial Center Way, Suite #970",Buford,GA,30519, (678) 804-6133, (678) 804-6134
My Pet's Vet,3189 Buford Dr Bldg 1341,Buford,GA,30519, (678) 765-0398, (706) 654-9150
Monroe Animal Care Hospital,210 W Spring St,Monroe,GA,30655, (770) 267-3006, (770) 267-4576
Lassiter Veterinary Svc,3810 Prospect Rd,Rutledge,GA,30663, (706) 342-1476,
Gwinnett Animal Clinic PC,190 Buford Dr,Lawrenceville,GA,30045, (770) 963-6903, (770) 962-6089
Barrow Veterinary Svc,429 E Hightower Trl,Social Circle,GA,30025, (770) 464-0890,
Animal Medical Center of Monroe,218 Martin Luther King Jr. Blvd,Monroe,GA,30655, (770) 267-3776,
Grayson Animal Hospital,2632 Loganville Hwy,Grayson,GA,30017, (770) 339-9923, (770) 339-9084
Eastside Animal Medical Center,1835 Grayson Hwy,Grayson,GA,30017, (678) 985-5530, (678) 985-2730
"Dr. Kimberly Parker, DVM - ACAO",11582 Cumming Hwy,Canton,GA,30115, (470) 695-7560, (770) 781-4195
Dogwood Animal Hospital,2050 Sugarloaf Pkwy,Lawrenceville,GA,30045, (678) 377-0070, (678) 377-0076
Crossville Veterinary Hospital,40 East Crossville Road,Roswell,GA,30075, (678) 682-8805, (678) 682-8807
BluePearl Veterinary Partners - Gwinnett,1956 Lawrenceville-Suwanee Rd,Lawrenceville,GA,30043, (770) 277-8600, (404) 459-6462
Bay Creek Mobile Vet,,Loganville,GA,30052, (678) 863-9408, (770) 822-2196
CHATTAHOOCHEE ANIMAL CLINIC,1176 ALPHARETTA ST,ROSWELL,GA,30075, (770) 993-6329, (770) 552-8855
Cat Clinic Of Roswell,1002 Canton St,Roswell,GA,30075, (770) 552-7877, (770) 552-8855
Snellville Animal Hospital,2387 E Main St,Snellville,GA,30078, (770) 972-3838, (770) 979-3909
Windward Animal Hospital,"11895 Jonesbridge Rd, Ste 210",Alpharetta,GA,30005, (770) 569-7298, (770) 569-2907
WEBB Bridge Animal Hospital,3953 Webb Bridge Rd,Alpharetta,GA,30005, (770) 751-0524, (770) 938-3250
Dacula Animal Hospital,2980 Winder Hwy,Dacula,GA,30019, (770) 963-9949, (770) 339-0785
Equine Medical Ctr,5279 Highway 332,Hoschton,GA,30548, (706) 654-2470, (770) 339-0785
Braselton Animal Hospital,9357 Davis Street,Braselton,GA,30517, (706) 658-0266, (706) 658-0268
Chateau Animal Hospital,2635 Old Winder Hwy,Braselton,GA,30517, (678) 960-4535, (678) 960-4258
Avalon Animal Hospital,2585 Cruse Rd # F,Lawrenceville,GA,30044, (770) 822-5551, (770) 923-3430
Animal Medical Center of Lawrenceville,552 Buford Dr,Lawrenceville,GA,30046, (770) 963-7363, (770) 822-9693
Bethlehem Veterinary Hospital,799 Christmas Avenue,Bethlehem,GA,30620, (770) 867-2977, (770) 868-5734
Best Friend Veterinary Clinic,2189 Highway 211 NW,Braselton,GA,30517, (770) 307-0903, (770) 867-7146
Banfield The Pet Hospital,875 Lawrenceville Suwanee Rd,Lawrenceville,GA,30043, (770) 822-2199, (770) 822-2196
Animal Care Hospital,3411 Lawrenceville Hwy,Lawrenceville,GA,30044, (770) 381-6544, (770) 381-9103
Banfield The Pet Hospital,625 W Crossville Rd,Roswell,GA,30075, (678) 461-5007, (678) 461-0077
Eastlake Veterinary Hospital,86 Claire Ct,Mcdonough,GA,30252, (770) 914-0735, (770) 914-0838
Evans Mill Animal Hospital,7431 Covington Hwy,Lithonia,GA,30058, (770) 482-5100, (770) 484-1304
Lake Dow Animal Hospital,1938 Highway 81 E,McDonough,GA,30252, (770) 957-4040, (770) 957-4586
Little Critters Mobile Vet Svc,6150 Covington Hwy # C,Lithonia,GA,30058, (770) 808-0400, (770) 483-3564
Lithonia Animal Hospital,2015 Rock Chapel Rd,Lithonia,GA,30058, (770) 482-2966, (770) 483-3564
Home Sweet Home Mobile Vet Svc,3630 Wilson Cove Ct,Snellville,GA,30039, (770) 979-8119, (770) 978-0542
Gwinnett Animal Hospital,2184 Mcgee Rd,Snellville,GA,30078, (770) 972-0447, (770) 978-0542
Deshon Animal Hospital,884 S Deshon Rd,Lithonia,GA,30058, (770) 482-7816, (770) 484-7837
VIP Petcare,11877 Jones Bridge Rd,Johns Creek,GA,30005, (800) 572-2144, (678) 691-7573
Vine Animal Hospital,"6320 Atlanta Hwy, Suite 6",Alpharetta,GA,30004, (770) 696-5668, (678) 691-7573
Veterinary Referral Surgical Practice,900 Holcolmb Bridge Rd,Roswell,GA,30076, (770) 594-2603, (770) 992-6629
Vickery Animal Hospital,5063 Post Rd Ste 104,Cumming,GA,30040, (770) 220-7000, (678) 679-7946
Vickery Animal Hospital,5063 Post Rd Ste 104,Cumming,GA,30040, (770) 220-7000, (678) 679-7946
Veterinary Medical Ctr,8750 Nesbit Ferry Rd,Alpharetta,GA,30022, (770) 998-8450, (770) 992-6629
Spring Lake Animal Hospital,1050 Sigman Rd NW,Conyers,GA,30012, (770) 483-7562, (770) 483-7598
Rockdale Animal Hospital,1995 Flat Shoals Rd SE,Conyers,GA,30013, (770) 922-8600, (770) 918-1222
Snipes Mobile Vet PC,1728 Chandler Rd NE,Conyers,GA,30012, (770) 273-1706, (770) 918-1222
Best Friend Veterinary Clinic,1210 Tuscany Dr,Braselton,GA,30517, (770) 307-0903, (770) 867-7146
Banfield The Pet Hospital,1705 Mall Of Georgia Blvd,Buford,GA,30519, (770) 831-5477, (770) 831-5480
Apalachee River Animal Hosp,720 Dacula Rd # 4,Dacula,GA,30019, (678) 376-0503, (678) 376-9061
Auburn Animal Hospital,1454 Atlamta HWY NW,Auburn,GA,30011, (770) 995-0908, (770) 963-1210
Atlanta Equine Clinic,1665 Ward Rd,Hoschton,GA,30548, (706) 654-5740, (678) 376-9061
Apalachee Ridge Animal Hospital,1250 Auburn Rd,Dacula,GA,30019, (770) 962-9660, (770) 962-9660
Atlanta Animal Allergy,280 S Atlanta St # 200,Roswell,GA,30075, (770) 642-9800, (770) 642-4007
Centerville Animal Hospital,3331 Highway 124,Snellville,GA,30039, (770) 979-6015, (770) 979-0249
Wellspring Animal Hospital,55 Crowell Rd,Covington,GA,30014, (770) 385-8181, (770) 385-6600
Brookwood Animal Hospital,922 Dogwood Rd,Snellville,GA,30078, (770) 979-0089, (770) 972-8400
Vet Med Animal Clinic,7263 Turner Lake Rd NW,Covington,GA,30014, (770) 787-4899, (770) 787-8887
Sigman Veterinary Clinic,10257 Hwy 142 N,Covington,GA,30014, (770) 787-1581, (770) 787-1447
"East Metro Animal Emergency Clinic, LLC",6225 Hwy 278 W,Covington,GA,30014, (678) 212-0300, (770) 786-2113
Covington Veterinary Clinic,10406 Highway 278 E,Covington,GA,30014, (770) 786-2193, (770) 786-2113
Countryside Hospital-Animals,3435 Maughon Rd,Covington,GA,30014, (770) 788-7387, (770) 784-0923
VCA Pets Are People Too Roswell Animal Hospital,535 Sun Valley Dr,Roswell,GA,30076, (770) 993-3040, (770) 993-8298
Vann's Ferry Animal Hospital,332 Dahlonega St,Cumming,GA,30040, (678) 456-6237, (678) 550-6296
Tri-County Animal Hospital,4316 Canton Hwy,Cumming,GA,30040, (770) 887-4530, (678) 807-8056
Tiger Tails Animal Hospital,2605 Peachtree Industrial Blvd,Duluth,GA,30097, (770) 817-9565, (770) 454-0157
Tides Mobile Vet,,Alpharetta,GA,30009, (678) 761-4760, (678) 279-9956
The Village Animal Hospital,5075 Abbotts Bridge Road Ste 800,Johns Creek,GA,30005, (770) 754-1234, (770) 754-3999
Tamberly Animal Hospital,980 Birmingham Rd Suite 301,Milton,GA,30004, (678) 459-6001, (678) 459-6005
Oak Hill Animal Hospital,5274 GA-20,Covington,GA,30016, (770) 728-9976, (770) 483-3564
Honey Creek Veterinary Hosp,1026 Honey Creek Rd SE,Conyers,GA,30013, (770) 483-7225, (770) 483-3564
Dennis Veterinary Clinic,2145 Gees Mill Rd NE,Conyers,GA,30013, (770) 761-0120, (770) 483-1954
Conyers Animal Hospital,1425 Klondike Rd SW,Conyers,GA,30012, (770) 483-1551, (770) 483-1954
Budget Vet,3200 Irwin Bridge Rd NW,Conyers,GA,30012, (770) 679-1730, (770) 285-6487
American Heritage Animal Hospital,3475 Highway 78,Snellville,GA,30078, (770) 972-7026, (678) 205-5845
Banfield The Pet Hospital,1370 Dogwood Drive SE,Conyers,GA,30013, (770) 929-1222,
Animal Emergency Care of Braselton,2095 Highway 211 NW Ste 2A,Braselton,GA,30517, (470) 209-7222, (470) 209-7221
Animal Medical Of Covington,7120 Industrial Blvd. NE,Covington,GA,30014, (770) 786-0522, (770) 786-2445
Animal Medical Of Covington,7120 Industrial Blvd NE,Covington,GA,30014, (770) 786-0522, (770) 786-2445
Suwanee Animal Hospital,85 Buford Hwy,Suwanee,GA,30024, (770) 271-8716, (770) 271-1944
Sugar Creek Animal Hospital,6603 Sugarloaf Pkwy,Duluth,GA,30097, (770) 497-8281, (770) 497-8250
Steeplechase Veterinary Hospital,5610 Bethelview Rd,Cumming,GA,30040, (678) 208-2200, (678) 208-2201
Spalding Animal Hospital,105 Technology Pkwy,Peachtree Corners,GA,30092, (770) 558-4347, (770) 208-1901
Sheperd Animal Hospital,3990 Peachtree Industrial Blvd.,Duluth,GA,30096, (678) 580-3001, (770) 208-1901
Animal Medical Clinic,3345 Old Salem Rd SE,Conyers,GA,30013, (770) 922-3209,
Pleasant Hill Animal Hospital,2982 Pleasant Hill Rd,Duluth,GA,30096, (770) 476-9339, (770) 418-9102
Planned PEThood of Georgia Inc,2860 Buford Hwy Bldg F Ste 2,Duluth,GA,30096, (678) 561-3491, (770) 649-1614
PET MED PLUS,2848 HOLCOMB BRIDGE RD,ALPHARETTA,GA,30022, (770) 993-7887, (770) 649-1614
Paw Patch Animal Clinic,1150 Upper Hembree Rd,Roswell,GA,30076, (678) 535-7290, (770) 450-8573
PEACHTREE CORNERS ANIMAL CLINIC,4020 HOLCOMB BRIDGE RD,NORCROSS,GA,30092, (770) 448-0700, (770) 450-8573
Loving Hands Animal Clinic,13775 Highway 9,Alpharetta,GA,30004, (770) 667-9022, (770) 667-1626
Little River Animal Hospital,15710 Birmingham Hwy,Alpharetta,GA,30004, (770) 619-1616, (770) 619-2323
Loving Hands Animal Clinic,13775 Highway 9,Alpharetta,GA,30004, (770) 667-9022, (770) 667-1626
Laurel Springs Animal Hospital,3592 Old Atlanta Rd,Suwanee,GA,30024, (770) 888-9750, (770) 888-9709
Lafferty Animal Clinic,10155 Haynes Bridge Rd,Alpharetta,GA,30022, (770) 754-3004, (770) 410-1856
Jones Bridge Animal Hospital,11450 Jones Bridge Rd,Alpharetta,GA,30022, (770) 410-0044, (770) 410-1856
Johns Creek Veterinary Clinic,10540 Medlock Bridge Rd,Johns Creek,GA,30097, (770) 623-8387, (770) 623-8756
It's A Dog's Life Doggy Daycare & Resort - Veterinary Services,11130 State Bridge Road Suite A101,Alpharetta,GA,30022, (770) 504-4555, (678) 795-1226
Ivy Hill Animal Hospital,10030 Medlock Bridge Rd,Duluth,GA,30097, (770) 418-1122, (770) 418-1175
Hollyberry Animal Hospital,10915 Alpharetta Hwy,Roswell,GA,30076, (678) 795-1116, (678) 795-1226
Hamby Road Animal Hospital,3785 Hamby Rd,Alpharetta,GA,30004, (770) 521-1314, (770) 521-1349
Holcomb Bridge Animal Hospital,1575 Holcomb Bridge Rd,Roswell,GA,30076, (770) 998-8865, (770) 998-1462
Heart of Suwanee Animal Hospital,750 Peachtree Industrial Blvd,Suwanee,GA,30024, (770) 271-8222, (770) 945-7187
Foxdale Equine Veterinary Svc,4779 Castleberry Rd,Cumming,GA,30040, (770) 781-4415, (770) 889-6020
Four Paws Animal Hospital,3571 Peachtree Pkwy,Suwanee,GA,30024, (770) 844-7387, (770) 889-6020
Forsyth Animal Hospital,2619 Atlanta Hwy,Cumming,GA,30040, (770) 887-8099, (770) 887-7831
Feline Wellness Center,"6955 McGinnis Ferry Road, Ste 104",Johns Creek,GA,30097, (678) 786-2287, (678) 786-2286
Feline Wellness Center,6955 McGinnis Ferry Rd. Ste 104,Johns Creek,GA,30097, (678) 786-2287, (770) 645-5690
Family Tree Animal Clinic,13900 Birmingham Hwy,Milton,GA,30004, (770) 450-8880, (770) 645-5690
Faithful Friend Mobile Veterinary Clinic,4581 Kelly Mill Rd.,Cumming,GA,30040, (770) 752-9710, (770) 645-5690
Express Vets,5485 Bethelview Rd Suite 440,Cumming,GA,30040, (470) 239-7672, (770) 645-5690
Crossroads Animal Clinic Inc,1145 Peachtree Industrial Blvd,Suwanee,GA,30024, (770) 614-4000, (770) 614-1373
East Roswell Vet Hospital,1570 Holcomb Bridge Rd Suite 110 ,Roswell,GA,30076, (770) 642-1282, (770) 645-5690
Duluth Animal Hospital,2965 Buford Hwy,Duluth,GA,30096, (770) 476-3317, (770) 476-7759
Dr. Mala Hayes DVM Housecall,,Johns Creek,GA,30005, (678) 592-8215, (770) 781-4195
Cumming Veterinary Clinic,4110 Deputy Bill Cantrell Memorial Road,Cumming,GA,30040, (770) 887-3119, (770) 781-4195
Crestview Animal Hospital,307 Pilgrim Mill Rd,Cumming,GA,30040, (770) 889-2521, (770) 888-3595
COUNTRY PLACE ANIMAL HOSPITAL,2165 OLD MILTON PKWY,ALPHARETTA,GA,30004, (770) 475-4159, (770) 889-6809
Coal Mountain Animal Hospital,3370 Matt Hwy,Cumming,GA,30040, (770) 888-6757, (770) 889-6809
Crabapple Knoll Veterinary,12604 Crabapple Rd,Alpharetta,GA,30004, (770) 475-8272, (770) 667-6492
Crabapple Animal Hospital,12280 Houze Rd,Alpharetta,GA,30004, (770) 751-1031, (770) 716-5659
Camden Village Animal Hospital,3719 Old Alabama Rd,Johns Creek,GA,30022, (678) 710-9031, (678) 218-1878
Bridge Park Animal Hospital,"11105 State Bridge Rd., Ste 100",Alpharetta,GA,30022, (770) 569-5799, (678) 218-1878
Big Creek Animal Hospital,5995 Post Road,Cumming,GA,30040, (470) 839-9700, (678) 804-7902
Berkeley Lake Animal Hospital,2900 Peachtree Ind. Blvd,Duluth,GA,30097, (770) 476-8411, (678) 600-8399
Banfield The Pet Hospital,3630 Peachtree Pkwy,Suwanee,GA,30024, (770) 814-2403, (770) 814-2415
Banfield The Pet Hospital,3803 Venture Dr,Duluth,GA,30096, (770) 813-8600, (770) 813-8852
Banfield Pet Hospital,3455 Peachtree Industrial Blvd,Duluth,GA,30096, (770) 623-2705, (770) 623-2708
Barkfield Animal Hospital,108 Mary Alice Park Rd,Cumming,GA,30040, (678) 208-2275, (678) 600-8399
Banfield Pet Hospital,6050 Peachtree Parkway Ste 43,Norcross,GA,30092, (770) 798-9322, (770) 407-2277
Banfield Pet Hospital,2220 Peachtree Industrial Blvd #100,Duluth,GA,30097, (770) 623-5642, (770) 407-2277
Atlanta Veterinary Specialist,7350 McGinnis Ferry Rd,Johns Creek,GA,30024, (770) 407-3000, (770) 407-2277
Atlanta Veterinary Dental Services,"900 Mansell Road, Suite 19",Roswell,GA,30076, (770) 552-8777, (678) 412-4670
Atlanta Mobile Vets,PO Box 191,Alpharetta,GA,30009, (770) 424-8387, (770) 649-5647
Atlanta Equine,14750 Hopewell Rd,Alpharetta,GA,30004, (678) 867-2577, (770) 649-5647
Atlanta Equine Veterinary Svc,1051 Colony Dr,Alpharetta,GA,30004, (770) 475-9659, (770) 649-5647
Alpharetta Animal Hospital,80 Milton Ave,Alpharetta,GA,30009, (770) 475-7613, (770) 442-3002
Atlanta Animal Rehab & Fitness,900 Holcomb Bridge Rd,Roswell,GA,30076, (770) 594-2688, (770) 649-5647
Animal Wellness Clinic,2790 Bethany Bend,Alpharetta,GA,30004, (678) 587-5171, (470) 514-5667
Animal Hospital of Nesbit Ferry Crossing Inc,9850 Nesbit Ferry Rd Ste 2,Alpharetta,GA,30022, (770) 642-8522, (770) 641-8677
Animal Emergency Center of North Fulton,900 Mansell Rd #19,Roswell,GA,30076, (770) 594-2266, (770) 641-8677
All Species 24 Hour Animal Hospital,4075 Pleasant Hill Rd.,Duluth,GA,30096, (678) 475-1262, (678) 475-1531
All Pets Emergency & Referral,6460 Highway 9 N,Alpharetta,GA,30004, (678) 366-2500, (678) 366-2550
Abbotts Bridge Animal Hospital,6250 Abbotts Bridge Road,Johns Creek,GA,30097, (678) 710-9041,
Westside Veterinary Hospital,1155 Powder Springs St,Marietta,GA,30064, (770) 427-0033, (770) 426-8622
West Marietta Veterinary Clinic,2985 Powder Springs Rd SW,Marietta,GA,30064, (770) 439-1994, (770) 439-2267
Windy Hill Veterinary Hospital,2170 Windy Hill Rd SE # B,Smyrna,GA,30080, (770) 333-9030, (770) 432-9030
Veterinary Clinic West,1100 Old Dallas Rd,Marietta,GA,30064, (770) 424-5484, (770) 514-7820
Veterinary Clinic,533 Roswell St NE,Marietta,GA,30060, (770) 428-3381, (770) 874-9397
VCA Terrell Mill Animal Hospital,1315 Powers Ferry Rd SE,Marietta,GA,30067, (770) 952-9300, (770) 952-1827
Vet Wellcare,3821 S Cobb Dr,Smyma,GA,30080, (770) 435-5135, (770) 952-1827
Riverside Veterinary Clinic,6462 GA Highway 91,Donalsonville,GA,39845, (229) 524-6198, (229) 524-6604
Coliquitt Animal Hospital,250 E Main St,Colquitt,GA,39837, (229) 758-8500, (229) 758-9555
Cuthbert Critter Care,51820 US-27,Cuthbert,GA,39840, (229) 732-2215, (229) 732-6381
Southwest Georgia Vet Hospital,2645 GA Highway 91,Donalsonville,GA,39845, (229) 524-2203, (229) 524-6604
Unleashed by Petco,4480 South Cobb Drive,Smyrna,GA,30080, (770) 803-9481, (770) 701-0324
Old School Veterinary Hospital,165 Bill Whitaker Rd,Dawson,GA,39842, (229) 995-3500,
Town & Country West Veterinary,1770 Powder Springs Rd. SW,Marietta,GA,30064, (770) 528-6363, (770) 701-0324
Animal Medical Center,1510 N. Broad Street,Cairo,GA,39828, (229) 377-2060, (229) 377-3478
Payton Animal Hospital,1450 N Main St,Blakely,GA,39823, (229) 723-3727, (229) 723-5528
Port City Animal Hospital,254 Whigham Dairy Rd,Bainbridge,GA,39818, (229) 246-9443, (229) 246-0414
2nd Avenue Animal Hospital,4025 2nd Ave.,Columbus,GA,31904, (706) 507-7297, (706) 507-7299
Animal Care Clinic Columbus,2540 Wynnton Rd,Columbus,GA,31906, (706) 327-4169, (706) 327-8788
All Cats Clinic,6320 Bradley Park Dr,Columbus,GA,31904, (706) 571-9099, (706) 221-7604
Affordable Veterinary Services,7660 Kayne Blvd,Columbus,GA,31909, (706) 221-7600, (706) 221-7604
Cairo Animal Hospital,1960 US Highway 84 E,Cairo,GA,39828, (229) 377-1803, (229) 377-1884
Animal Health Ctr,7870 Veterans Pkwy.,Columbus,GA,31909, (706) 323-5218, (706) 568-0414
Animal General Hospital Inc,3576 Macon Rd,Columbus,GA,31907, (706) 568-4848, (706) 568-0414
Animal Emergency Ctr,2509 Manchester Expy,Columbus,GA,31904, (706) 324-6659, (706) 324-2727
Caldwell Veterinary Clinic,2405 Sportsman Dr,Phenix City,AL,36867, (334) 297-5000, (334) 297-5940
Midland Animal Hospital,"6720 Flat Rock Court, Suite E",Midland,GA,31820, (706) 323-8316, (706) 565-5955
Fort Benning Veterinary Treatment Facility,"6417 10th Mountain Division Rd, Bldg 265",Fort Benning,GA,31905, (706) 545-4444, (706) 545-5439
Pet Vet Clinic,2012 Highway 280-431 N,Phenix City,AL,36867, (334) 291-2050, (706) 565-0041
Phenix Animal Hospital,1700 Crawford Rd,Opelika,AL,36867, (334) 298-3841, (334) 298-6330
PAWS Humane,4900 Milgen Rd,Columbus,GA,31907, (706) 565-0035, (706) 565-0041
Northside Animal Hospital,5360 Veterans Pkwy,Columbus,GA,31904, (706) 324-0333, (706) 324-7666
Northridge Veterinary Center,3081 Williams Road Unit C,Columbus,GA,31909, (706) 507-5105, (706) 565-5955
Summerville Animal Hospital,5011 Summerville Rd,Phenix City,AL,36867, (334) 297-1995, (706) 327-3410
Weems Road Small Animal Hospital,3701 Weems Rd,Columbus,GA,31909, (706) 563-8570, (706) 563-8644
University Avenue Veterinary,3800 University Ave,Columbus,GA,31907, (706) 563-7387, (706) 563-7360
Chattahoochee Regional Vet,502 Broad St,Cusseta,GA,31805, (706) 989-3931, (706) 989-3911
Rivertown Veterinary Emergency,4015 Veterans Ct,Columbus,GA,31909, (706) 507-1707, (706) 327-3410
River Road Animal Clinic,4242 River Rd,Columbus,GA,31904, (706) 327-8329, (706) 327-3410
Macon Road Veterinary Clinic,4398 Macon Rd,Columbus,GA,31907, (706) 563-6101, (706) 565-5955
Gateway Veterinary Hospital,6051 Gateway Rd,Columbus,GA,31909, (706) 561-5522, (706) 561-1757
Companion Animal Hospital,3720 Highway 431 N,Phenix City,AL,36867, (334) 297-2316, (706) 563-8984
Cooper Creek Petcare Hospital,4343 Milgen Rd,Columbus,GA,31907, (706) 569-8999, (706) 563-8984
Double Church's Animal Clinic,8365 Whitesville Road,Columbus,GA,31904, (706) 322-3232, (706) 563-8984
Columbus Veterinary Medical Center,6374 Schomburg Rd,Columbus,GA,31909, (706) 561-3341, (706) 563-8984
Brown's Farm Animal Veterinary Services,PO Box 2994,Phenix City,AL,36868, (706) 577-4365, (706) 568-0414
Cataula Veterinary Clinic,2767 US Highway 27,Cataula,GA,31804, (706) 324-0619, (334) 297-5940
Buena Vista Road Animal Hosp,4338 Buena Vista Rd,Columbus,GA,31907, (706) 561-1171, (706) 561-3366
Salter's Veterinary Hospital,183 Johnson St SE,Dawson,GA,39842, (229) 995-2051, (229) 995-2051
BENNING ANIMAL HOSPITAL,2047 Fort Benning Rd,Columbus,GA,31903, (706) 689-6240, (706) 568-0414
Bryan-Hight Vet Hospital of Bainbridge,1801 E Shotwell St,Bainbridge,GA,39819, (229) 246-8600, (229) 246-8625
Town & Country Veterinary Clinic South,1753 Spring St,Smyrna,GA,30080, (678) 309-1170, (678) 389-9483
Town & Country South Vet Clnc,2150 Austell Rd SW,Marietta,GA,30008, (770) 435-2854, (678) 389-9483
Suburban Veterinary Clinic,4290 Bells Ferry Rd NW # 140,Kennesaw,GA,30144, (770) 926-5003, (770) 926-7421
Total Veterinary Care Hospital ,1619 Collins Rd NW #600,Kennesaw,GA,30152, (678) 389-9981, (678) 389-9483
Smyrna Animal Hospital,2445 S Cobb Dr SE,Smyrna,GA,30080, (770) 436-2431, (770) 436-0649
Santa Marietta Animal Hospital,463 Atlanta St SE,Marietta,GA,30060, (678) 581-4055, (678) 581-4066
Shiloh Veterinary Hospital,3725 Cherokee St NW,Kennesaw,GA,30144, (770) 426-6900, (770) 424-2782
Smiths Station Animal Hospital,2778 Lee Road 430,Smiths Station,AL,36877, (334) 297-1050, (706) 327-3410
Crawford Road Animal Hospital,3106 US Highway 80 W,Phenix City,AL,36870, (334) 298-3489, (334) 298-3710
Hendricks Animal Clinic Inc,PO Box 385,Shiloh,GA,31826, (706) 846-3193, (706) 846-4453
Powers Ferry Animal Hospital,5565 New Northside Dr.,Atlanta,GA,30339, (770) 955-1291, (770) 952-6965
Branch's Veterinary Clinic,205 Belmont Ave,Tifton,GA,31794, (229) 382-6055, (229) 382-3544
Quailwood Animal Hospital,4024 Tift Ave N,Tifton,GA,31794, (229) 386-8794, (229) 386-4826
Young's Veterinary Clinic Inc,803 W Jackson St,Thomasville,GA,31792, (229) 226-6802, (229) 225-1741
Thomasville Animal Hospital,1103 Smith Ave,Thomasville,GA,31792, (229) 226-4561, (229) 226-1067
Red Hills Equine Svc,81 Fox Meadow Ln,Thomasville,GA,31799, (229) 225-1999, (229) 227-1757
Clanton-Malphus Veterinary,2134 E Pinetree Blvd,Thomasville,GA,31792, (229) 226-1914, (229) 227-1757
Southside Veterinary Center,3283 Veterans Pkwy S,Moultrie,GA,31788, (229) 985-7377, (229) 890-1736
Valley Veterinary Assoc,647 Butts Mill Rd,Pine Mountain,GA,31822, (706) 663-2128, (706) 663-7493
Dwain L Smith DVM,326 Benjamin Hill Dr. W,Fitzgerald,GA,31750, (229) 423-5544, (229) 423-8668
Country One Vet,647 Butts Mill Rd,Pine Mountain,GA,31822, (706) 663-8814, (706) 663-0686
Sylvester Animal Hospital,106 S Isabella St,Sylvester,GA,31791, (229) 776-3923,
Tifton Highway Veterinary Clinic,1306 1st St NE,Moultrie,GA,31776, (229) 985-1770, (229) 890-1001
Irwin Animal Clinic,367 Sly Hill Rd,Ocilla,GA,31774, (229) 468-7343, (229) 468-4157
Mitchell County Animal Clinic,4888 US Highway 19,Camilla,GA,31730, (229) 336-0396, (229) 336-1535
Curles Veterinary Clinic,2386 Cumberland Rd,Pelham,GA,31779, (229) 294-9761,
Matthews Veterinary Hospital,4121 South Main,Moultrie,GA,31768, (229) 985-9744,
Countryside Animal Clinic,2519 US Highway 82 W,Sylvester,GA,31791, (229) 776-3380,
Powder Springs Animal Clinic,4082 Macedonia Rd,Powder Springs,GA,30127, (770) 943-1811, (770) 439-6748
PACES FERRY VETERINARY CLINIC,9 Mountain St SE,ATLANTA,GA,30339, (770) 436-9822, (770) 818-5436
Philema Animal Clinic,1491 Philema Rd S,Leesburg,GA,31763, (229) 439-2266, (229) 439-2227
Leesburg Animal Hospital,246 Walnut Ave S,Leesburg,GA,31763, (229) 759-8384,
North Georgia Veterinary Referral Practice,302 Old Clay Street SE,Marietta,GA,30060, (770) 426-2260, (770) 426-2262
North Cobb Animal Clinic,2680 Cobb Pkwy NW # A,Kennesaw,GA,30152, (770) 422-0112, (770) 421-9336
Marietta Vet Clinic,3696 Largent Way NW #400,Marietta,GA,30064, (404) 919-5150, (770) 627-3903
Miller Mobile Veterinary Services,758 Fern St,Marietta,GA,30067, (404) 538-5448, (770) 627-3903
My Pet's Vet Kennesaw,840 Ernes Barret Parkway Suite #100,Kennesaw,GA,30144, (770) 869-2255, (770) 627-3903
Macland Animal Hospital,4150 Macland Road,Powder Springs,GA,30127, (770) 439-2640, (770) 499-0879
Lost Mountain Animal Hospital,3703 Largent Way NW,Marietta,GA,30064, (770) 590-1234, (770) 499-0879
Albany Vette & Classic's LLC,1745 Philema Rd S,Albany,GA,31701, (229) 889-1967, (229) 432-7419
Westover Animal Hospital,410 N Westover Blvd,Albany,GA,31707, (229) 883-1618, (229) 883-3334
Gillionville Animal Hospital,3208 Gillionville Road,Albany,GA,31707, (229) 888-5911, (229) 435-4026
Katz Veterinary Services,126 North Gordon St,Ashburn,GA,31714, (229) 567-4793,
Dockery Williams Odom & Deriso,140 N Magnolia St,Albany,GA,31707, (229) 435-1431, (229) 435-4026
Veterinary Treatment Facility - Moody AFB,4997 Burrell St Building 111,Moody AFB,GA,31699, (229) 257-3312, (229) 257-2899
Veterinary Treatment Facility - Moody AFB,4997 Burrell St Building 111,Moody AFB,GA,31699, (229) 257-3312, (229) 257-2899
Bush Animal Clinic,2419 Dawson Rd,Albany,GA,31707, (229) 439-7073, (229) 888-3779
Spelts & Masters Animal Hosp,404 N Cleveland St,Albany,GA,31701, (229) 436-0331, (229) 436-6678
Liberty Animal Hospital,1116 Liberty Expy SE,Albany,GA,31705, (229) 883-3800, (229) 883-2171
Harden Veterinary Clinic,1711 Radium Springs Rd,Albany,GA,31705, (229) 435-0793, (229) 439-7045
Lake Park Veterinary Clinic,3008 W Marion Ave,Lake Park,GA,31636, (229) 559-3000, (229) 559-6291
Branch's Veterinary Clinic,740 S Davis St,Nashville,GA,31639, (229) 686-3661, (229) 686-5162
Bassham Veterinary Hospital,PO Box 471,Quitman,GA,31643, (229) 263-7535,
Jodi Harbin Mobile Veterinary,6534 Empress Rd,Quitman,GA,31643, (229) 245-8387,
Adel Animal Hospital,520 S Elm St,Adel,GA,31620, (229) 896-4517, (229) 896-4654
Gardner & Hydrick Animal Hosp,1803 E Oglethorpe Blvd,Albany,GA,31705, (229) 439-7044, (229) 439-7045
Sport Vet Mobile,9110 Boston-Monticello Rd,Boston,GA,31626, (850) 296-6866, (850) 254-2981
Companion Animal Hospital,810 N Slappery Blvd,Albany,GA,31701, (229) 888-7181, (229) 432-7419
Animal Health Ctr,2905 Bemiss Rd,Valdosta,GA,31602, (229) 242-9818, (229) 242-6866
Animal Hospital Inc,602 W Dame Ave,Homerville,GA,31634, (912) 487-3474,
Albany Pet Partners,1601 E Broad Ave,Albany,GA,31705, (229) 432-0717, (229) 432-7419
Pineywoods Veterinary Hospital,4310 N Valdosta Rd,Valdosta,GA,31602, (229) 219-0777, (229) 244-3021
Whispering Pines Animal Hospital,131 Highway 27 East,Americus,GA,31709, (229) 924-6054, (229) 928-2003
Valdosta Animal Hospital,111 Northside Dr,Valdosta,GA,31602, (229) 247-2133, (229) 247-2134
Northside Animal Hospital,3398 N Valdosta Rd,Valdosta,GA,31602, (229) 244-2983, (229) 244-3021
Hahira Veterinary Clinic,600 Ga Hwy 122 W,Hahira,GA,31632, (229) 794-0040, (229) 794-0017
Azalea City Animal Hospital,2609 Bemiss Rd,Valdosta,GA,31602, (229) 244-2244, (229) 244-2079
Harper's Animal Clinic,509 W Forsyth St,Americus,GA,31709, (229) 928-3300, (229) 928-2003
Crane's Valdosta Veterinary,2520 Bemiss Rd,Valdosta,GA,31602, (229) 242-1454, (229) 244-1456
Baytree Animal Hospital,2004 Baytree Rd,Valdosta,GA,31602, (229) 244-5052, (229) 249-4048
Americus Veterinary Hospital,1037 Fetner Dr,Americus,GA,31709, (229) 924-6146, (229) 924-1245
Americus Animal Clinic,135 E Lamar St,Americus,GA,31709, (229) 924-4005, (229) 924-7255
Kennesaw Pet Center,2139 Cobb Pkwy NW,Kennesaw,GA,30152, (770) 428-5454, (770) 428-6748
Kennesaw Mountain Veterinary Services,2500 Cobb Parkway NW,Kennesaw,GA,30152, (770) 447-3927, (770) 425-5479
Leland Veterinary Clinic,290 Veterans Memorial Hwy SE,Mableton,GA,30126, (770) 944-2322, (770) 948-2579
Koopman Mobile Veterinary Svc,399 Powder Creek Way,Marietta,GA,30061, (770) 439-9592, (770) 428-6748
Kennesaw Mountain Animal Hospital ,1600 Kennesaw Due West Rd. Building 800 ,Kennesaw,GA,30152, (770) 419-0362, (770) 422-5967
Johnson Animal Clinic,555 Manget St SE,Marietta,GA,30060, (770) 422-5964, (770) 422-5967
Veterinary Care,2405 S Patterson St,Valdosta,GA,31601, (229) 242-2792, (229) 249-4069
Good Dog Veterinary Care,3894 Due West Rd NW  Suite 250 ,Marietta,GA,30064, (770) 450-4555, (770) 432-6874
Happy Tails Holistic Veterinary Care,3600 Chattahoochee Summit Drive SE,Atlanta,GA,30339, (678) 360-3002, (770) 432-6874
Fair Oaks Veterinary Clinic,2142 Austell Rd SW,Marietta,GA,30008, (770) 432-7155, (770) 432-6874
Due West Animal Clinic,3801 Due West Rd NW,Marietta,GA,30064, (770) 419-3381, (770) 419-7667
Veterinary Care Center,2411 S Patterson St,Valdosta,GA,31601, (229) 242-2792, (229) 249-4069
Betz Veterinary Services,400 East King Ave. ,Kingsland,GA,31548, (912) 270-3706,
Paws and Claws Veterinary Clinic,501 Kings Bay Rd.,Kingsland,GA,31548, (912) 673-7905, (912) 673-9509
Laurel Oaks Animal Hospital Inc,5775 Laurel Island Parkway,Kingsland,GA,31548, (912) 576-9801, (912) 576-9809
Animal Medical Clinic,4499 Highway 40,St Marys,GA,31558, (912) 882-4732, (912) 882-1385
Holmes Animal Clinic,107 N Railroad Ave,Folkston,GA,31537, (912) 496-7561,
Southern Paws Veterinary Clinic ,"1567 Third St. Folkston, ",Folkston,GA,31537, (912) 496-0040,
Padgett Veterinary Svc,15 E Coffee St,Hazlehurst,GA,31539, (912) 375-3465, (912) 375-3482
Camden Veterinary Clinic,10535 Colerain Rd,St Marys,GA,31558, (912) 882-8886, (912) 882-0954
Integrity Animal Hospital,5200 Hwy 17 North,Kingsland,GA,31548, (912) 729-4077, (912) 729-9677
Carter Veterinary Clinic,147 Bowens Mill Rd SE,Douglas,GA,31533, (912) 383-0418, (912) 383-0418
Brunswick Pet ER,208 Scranton Connector #122,Brunswick,GA,31525, (912) 275-8246,
Daniell Veterinary Clinic,149 Scranton Connector,Brunswick,GA,31525, (912) 264-9500, (912) 437-2661
Coastal Veterinary Svc,300 Highway 251,Darien,GA,31305, (912) 437-2661, (912) 437-2661
Golden Isles Animal Hospital,9 Glynn Ave,Brunswick,GA,31520, (912) 267-6002, (912) 554-3615
Southeast Georgia Vet Clinic,104 Candler Dr,Brunswick,GA,31523, (912) 554-8388, (912) 554-8334
Pet Doctor,1063 Pennick Rd,Brunswick,GA,31525, (912) 222-9519, (912) 437-2661
Coastal Animal Hospital,3607 Community Rd,Brunswick,GA,31520, (912) 554-2050, (912) 554-3615
Darien Animal Hospital,14155 GA Hwy 251,Darien,GA,31305, (912) 437-2112, (912) 437-2661
All Creatures Animal Hospital,1403 4th Ave,Brunswick,GA,31520, (912) 264-2258, (912) 264-5987
TYLER ANIMAL HOSPITAL,132 AIRPORT RD,ST SIMONS IS,GA,31522, (912) 638-7600, (912) 634-5941
Seaside Veterinary Hospital,175 Skylane Road,St Simons Island,GA,31522, (912) 638-7600, (912) 634-5941
Island Animal Hospital,2603 Demere Rd,St Simons Island,GA,31522, (912) 638-2583, (912) 638-7852
Cheek To Cheek Hospital For Animals,3220 Cypress Mill Rd,Brunswick,GA,31525, (912) 262-6851, (912) 265-1918
Coastal Cat Clinic ,280 Redfern Village,Saint Simons Island,GA,31522, (912) 634-2119, (912) 634-2644
Dockery Veterinary Hospital,1207 Peterson Ave N,Douglas,GA,31533, (912) 384-1827, (912) 383-0418
Lindsey & Wills Animal Hosp,1330 Baker Hwy W,Douglas,GA,31534, (912) 384-8160, (912) 383-8729
Integrity Animal Hospital,5200 Highway 17 N,Kingsland,GA,31548, (912) 729-4077, (912) 729-9677
Wolfe Animal Hospital,755 W Cherry St,Jesup,GA,31545, (912) 427-3212, (913) 367-9577
Dallas Highway Animal Hospital,5067 Dallas Hwy,Powder Springs,GA,30127, (770) 419-8086, (770) 419-3453
Cobb West Veterinary Hospital,1770 Powder Springs Rd SW,Marietta,GA,30064, (770) 426-9144, (770) 590-0785
Cumberland Animal Clinic,1860 Spring Rd SE # D,Smyrna,GA,30080, (770) 433-1414, (770) 433-9452
Community Animal Clinic of South Paulding,105 Brownsville Rd,Powder Springs,GA,30127, (678) 401-4588, (678) 398-7049
Cuddle Care Animal Hospital,3878 Austell Rd,Marietta,GA,30008, (770) 434-0311, (678) 398-7049
Cobb Central Animal Hospital,236 Powers Ferry Rd SE,Marietta,GA,30067, (770) 971-0100, (770) 971-2255
Gibson Animal Clinic,108 Riverside Dr,Waycross,GA,31501, (912) 285-7678, (912) 285-0470
Padgett Veterinary Svc,419 Market St,Alma,GA,31510, (912) 632-2711, (912) 632-2731
The Veterinary Clinic,102 Darling Ave,Waycross,GA,31501, (912) 283-0574, (678) 324-5012
Cedar Animal Hospital,150 Cedar St,Richmond Hill,GA,31324, (912) 756-7560, (912) 756-7564
Westside Animal Hospital,1454 US Hwy 80 E,Pooler,GA,31322, (912) 964-7102, (912) 964-7105
Wilmington Island Animal Hospital,7802 US Highway 80 E,Savannah,GA,31410, (912) 897-3300, (912) 898-1697
Whitemarsh Animal Care,4753 US-80 #100,Savannah,GA,31410, (912) 662-8620, (912) 355-4288
Tybee Animal Care LLC,802 1st Ave Ste C,Tybee Island,GA,31328, (912) 786-4006, (912) 786-4098
Savannah Veterinary Medical Center,2014 East Victory Dr,Savannah,GA,31404, (912) 447-8711, (912) 447-8714
Savannah Animal Care,510 W Bryan St,Savannah,GA,31401, (912) 335-1200, (912) 897-2994
Landmark Veterinary Services,408 East Taylor St.,Savannah,GA,31401, (912) 398-4834, (912) 897-2994
Island Veterinary Clinic,416 Johnny Mercer Blvd,Savannah,GA,31410, (912) 897-1121, (912) 897-2994
Forsyth Park Animal Hospital,513 Whitaker St. Ground Floor,Savannah,GA,31401, (912) 349-3953, (912) 777-5989
Eastside Veterinary Hospital,800 Ash St,Savannah,GA,31404, (912) 232-1741, (912) 233-7136
Central Animal Hospital,2417 Bull St,Savannah,GA,31401, (912) 234-4772, (912) 234-4669
Ducey Veterinary Clinic,2319 Bonaventure Rd,Savannah,GA,31404, (912) 232-5875, (912) 927-2002
Banfield Pet Hospital,1821 E. Victory Dr. Bldg B,Savannah,GA,31404, (912) 352-9266, (912) 897-5894
WEBB Animal Clinic,3612 Highway 21 S,Rincon,GA,31326, (912) 826-1830, (912) 826-7236
Pine Harbor Animal Hospital,3399 Fair Hope Rd. NE,Townsend,GA,31331, (912) 832-2315,
All About Pets Veterinary Svc,6707 Johnny Mercer Blvd,Savannah,GA,31410, (912) 507-7947, (912) 897-5894
Port City Animal Hospital ,492 Jimmy DeLoach Parkway Suite106 ,Port Wentworth,GA,31407, (912) 525-0255, (912) 748-8807
Godley Station Animal Hospital,127 Canal St,Pooler,GA,31322, (912) 748-8805, (912) 748-8807
Effingham Animal Hospital,119 S Columbia Ave,Rincon,GA,31326, (912) 826-5251, (912) 826-4834
Animal Hospital at Rice Hope,7512 Hwy 21,Port Wentworth,GA,31407, (912) 965-0330, (912) 544-2985
White Bluff Veterinary Hosp,5709 White Bluff Rd,Savannah,GA,31405, (912) 355-0707, (912) 355-4221
Vet Spec of SE Coastal Empire Vet Surgery,335 Stephenson Ave,Savannah,GA,31405, (912) 354-6681, (912) 355-4221
Southeast Veterinary Oncology and Medicine,335 Stephenson Ace,Savannah,GA,31406, , (904) 355-4221
VCA Greater Savannah Animal Hospital,1350 E DE Renne Ave,Savannah,GA,31406, (912) 355-8898, (912) 355-4288
Southside Hospital For Animals,10515 Abercorn St,Savannah,GA,31419, (912) 925-7925, (912) 925-6602
Savannah Veterinary Internal Medicine & Intensive Care,335 Stephenson Ave,Savannah,GA,31405, (912) 721-6410, (912) 721-6414
Live Oak Veterinary Neurology,335 Stephenson Ave,Savannah,GA,31405, (912) 662-7544, (888) 502-5687
Richmond Hill Animal Hospital,10400 Ford Ave.,Richmond Hill,GA,31324, (912) 756-3999, (912) 756-2076
Savannah Veterinary Emergency,335 Stephenson Ave,Savannah,GA,31405, (912) 355-6113, (912) 355-4221
Pet Fix Savannah,7215 Sallie Mood Dr. ,Savannah,GA,31406, (912) 354-6265, (888) 502-5687
Georgetown Veterinary Hospital,21 Brasseler Blvd,Savannah,GA,31419, (912) 927-3900, (912) 927-2002
Crossroad Animal Hospital,1201 E Montgomery Xrd,Savannah,GA,31406, (912) 927-4343, (912) 927-2002
Innovative Veterinary Medicine,7203 Skidaway Rd.,Savannah,GA,31406, (912) 401-0344, (912) 927-2002
Companion Animal Hospital,1452 Dean Forest Road,Savannah,GA,31405, (912) 239-6450, (912) 354-2131
Coastal Georgia Veterinary Care,100 Timber Trail #104,Richmond Hill,GA,31324, (912) 445-5163, (912) 354-2131
Coastal Animal Care & Bird,2007 Eisenhower Dr,Savannah,GA,31406, (912) 354-3121, (912) 354-2131
Cat Care Clinic,1190 King George Blvd # 13,Savannah,GA,31419, (912) 961-6220, (912) 351-5910
Case Veterinary Hospital,111 Eisenhower Dr,Savannah,GA,31406, (912) 352-3081, (912) 351-5910
Billy C Sanders DVM,1201 Montgomery Cross Rd,Savannah,GA,31406, (912) 927-4343, (912) 927-2002
Banfield The Pet Hospital,11132 Abercorn St,Savannah,GA,31419, (912) 927-0920, (912) 927-0814
Berwick Animal Hospital,5733 Ogeechee Road,Savannah,GA,31405, (912) 232-4249, (912) 232-4259
Animal Eye Clinic,"1 Southern Oaks Ct #400, Savannah, GA 31405",Savannah,GA,31405, (912) 236-2050, (912) 236-2097
Allison Animal Care,715 Mall Blvd,Savannah,GA,31406, (912) 999-6200, (912) 920-1970
Animal Eye Clinic,"1 Southern Oaks Court, Ste. 400",Savannah,GA,31405, (912) 236-2050, (912) 236-2097
Southpaw Animal Clinic,"2731 Memorial Dr., Ste. A",Waycross,GA,31501, (912) 283-5551, (912) 283-5189
204 Animal Hospital,15204 Abercorn St.,Savannah,GA,31419, (912) 920-4204, (912) 920-1970
Four Rivers Veterinary Center,1069 E Parker St,Baxley,GA,31515, (912) 367-7161, (912) 705-0201
Satilla Animal Hospital,511 S City Blvd,Waycross,GA,31501, (912) 283-7760, (912) 283-7962
Kimbrell Veterinary Clinic,3141 US Highway 84,Blackshear,GA,31516, (912) 449-4455, (912) 285-0470
Chastain Animal Clinic,2787 S Cobb Dr SE,Smyrna,GA,30080, (770) 435-7067, (770) 333-0823
Cats at Delk Spectrum,2900 Delk Rd SE,Marietta,GA,30067, (770) 984-2287, (404) 792-0772
Cat Care of Vinings,"4691 S. Atlanta Road SE, Ste. 200",Atlanta,GA,30339, (404) 792-0700, (404) 792-0772
Cat Care Hospital,1106 Powder Springs Rd SW,Marietta,GA,30064, (770) 424-6369, (770) 424-4766
Butler Creek Animal Hospital,3180 Acworth Due West Rd NW,Kennesaw,GA,30152, (770) 529-7277, (770) 529-3397
Bullard Animal Hospital,5700 Powder Springs Rd,Austell,GA,30106, (770) 941-3668, (770) 941-6414
Banfield The Pet Hospital,2540 Cumberland Blvd,Smyrna,GA,30080, (770) 434-7778, (770) 434-7581
Banfield The Pet Hospital,860 Cobb Place Blvd NW,Kennesaw,GA,30144, (770) 499-0908, (770) 424-4653
Banfield Pet Hospital,4155 Austell Rd Ste 200,Austell,GA,30106, (770) 944-9197, (770) 944-5830
Austell Road Veterinary Clinic,3670 Austell Rd SW,Marietta,GA,30008, (770) 434-1002, (770) 434-4863
Averill Animal Hospital,415 Villa Rica Way SW,Marietta,GA,30064, (770) 422-2402, (770) 426-4257
Faulkville Animal Hospital,3036 Us Hwy 80Â ,Bloomingdale,GA,31302, (912) 748-7800, (912) 232-4259
Pooler Vet Hospital,608 E US Hwy 80,Bloomingdale,GA,31302, (912) 748-0709, (888) 502-5687
Fort Stewart Vet Clinic,461 W Bultman Ave,Fort Stewart,GA,31314, (912) 767-4194,
Beatie Animal Clinic,1001 Beatie Blvd,Hinesville,GA,31313, (912) 368-4080,
Liberty Veterinary Clinic,1094 E Oglethorpe Hwy,Hinesville,GA,31313, (912) 876-3357, (912) 876-3358
Flemington Veterinary Hospital,3263 East Oglethorpe Hwy,Hinesville,GA,31313, (912) 368-3226, (912) 368-3239
Griffin's Animal Hospital,4515 Pio Nono Ave,Macon,GA,31206, (478) 788-6334, (478) 788-6006
Banfield Pet Hospital,4551 Billy Williamson Dr,Macon,GA,31206, (478) 471-3701, (478) 745-9767
Northside Wesleyan Animal Hosp,335 Charter Blvd,Macon,GA,31210, (478) 477-6828, (478) 474-0484
AVS Animal Hospital,4634 Presidential Pkwy # Q,Macon,GA,31206, (478) 475-9690, (478) 745-9767
Piedmont Animal Hospital/Svc,4298 Gray Hwy,Gray,GA,31032, (478) 986-9301, (478) 986-2205
Gadd's Animal Doctors-Gray,300 Highway 18 Connector,Gray,GA,31032, (478) 986-3784, (478) 986-4296
Christian Veterinary Hospital,712 S. Houston Lake Rd.,Warner Robins,GA,31088, (478) 953-4622, (478) 328-1393
Westmoreland Animal Hospital,100 Wes Park Dr,Perry,GA,31069, (478) 987-4811, (478) 987-8474
Friendship Animal Hospital,1211 Gray Hwy,Macon,GA,31211, (478) 745-3941, (478) 745-9767
Wesleyan Animal Hospital,335 Charter Blvd,Macon,GA,31210, (478) 474-8476, (478) 474-0484
Cullens Animal Hospital,1182 GA Highway 15 N,Sandersville,GA,31082, (478) 552-9011, (478) 552-9355
Houston Veterinary Clinic,109 Avalon Cir,Warner Robins,GA,31093, (478) 929-0361, (478) 929-8546
Smith Animal Hospital,2032 US Highway 341 N,Perry,GA,31069, (478) 987-1514, (478) 987-8474
Perry Animal Hospital,633 Courtney Hodges Blvd,Perry,GA,31069, (478) 987-2415,
Sandersville Veterinary Clinic,507 Industrial Dr,Sandersville,GA,31082, (478) 552-0016, (478) 552-9922
Critter Fixer Veterinary,202 GA Highway 49 S # B,Byron,GA,31008, (478) 956-2332, (478) 956-0814
Ben B Smith DVM,2032 US Highway 341 N,Perry,GA,31069, (478) 987-1514,
Warner Robins Animal Hospital,2080 Watson Blvd,Warner Robins,GA,31093, (478) 923-3139, (478) 987-5833
Town & Country Animal Clinic,1241 S Houston Lake Rd,Warner Robins,GA,31088, (478) 953-7297, (478) 987-5833
Macon County Veterinary Hospital,3326 Ga Highway 26 E,Montezuma,GA,31063, (478) 472-7063, (478) 472-2217
Lakeside Veterinary Clinic,3048 N Columbia St,Milledgeville,GA,31061, (478) 452-7422, (478) 452-2887
Mc Whorter Animal Hospital,1939 N Jefferson St NE,Milledgeville,GA,31061, (478) 452-6898, (478) 452-2887
Heart of Georgia Animal Care,62 Hwy 22 W,Milledgeville,GA,31061, (478) 452-0200, (478) 452-0255
Terrace Hill Animal Hospital,2505 N Columbia St # D,Milledgeville,GA,31061, (478) 452-8197, (478) 453-3175
Old Capitol Pet Care,290 Lakeside Dr,Milledgeville,GA,31061, (478) 453-9288, (478) 453-3175
Animal Hospital-Milledgeville,2639 N Columbia St,Milledgeville,GA,31059, (478) 452-5531, (478) 956-0814
Monticello Veterinary Services,543 Venture Court,Monticello,GA,31064, (678) 359-3573,
Town & Country Animal Clinic,1241 S. Houston Lake Rd.,Warner Robins,GA,31088, (478) 988-0625, (478) 987-5833
Southwood Animal Hospital,2523 Moody Rd,Warner Robins,GA,31088, (478) 923-0118, (478) 923-2876
Middle Georgia Veterinary Emergency Center,4798 Russell Pkwy,Warner Robins,GA,31088, (478) 997-6677, (478) 997-6678
Houston Lake Animal Hospital,528 S Houston Lake Rd,Warner Robins,GA,31088, (478) 971-4700, (478) 988-4794
Critter Fixer Veterinary Hosp,102 Starlight Dr,Bonaire,GA,31005, (478) 988-0883, (478) 988-4794
Vet Calls,3431 Ridge Ave,Macon,GA,31204, (478) 714-5815, (478) 746-7964
Corker Animal Hospital,1100 Russell Pkwy,Warner Robins,GA,31088, (478) 929-8287, (478) 929-9610
Riverside Animal Hospital,2121 Riverside Dr,Macon,GA,31204, (478) 746-4838, (478) 746-7964
VIP Petcare,265 Tom Hill Sr Blvd,Macon,GA,31210, (478) 475-4194, (478) 746-7964
"S.A.F.E Saving Animals From Euthanasia, Inc",160 Chadwick Dr,Macon,GA,31210, (478) 550-5050, (478) 746-7964
Plantation Centre Animal Hospital,6411 Peake Rd,Macon,GA,31210, (478) 474-3616, (478) 477-7126
Hudspeth Animal Hospital,510 Pio Nono Ave,Macon,GA,31204, (478) 742-8766, (478) 750-0689
Forsyth Road Animal Clinic,4941 Forsyth Rd,Macon,GA,31210, (478) 474-4829, (478) 474-0012
Brantley & Jordan Animal Hospital,5698 Thomaston Rd,Macon,GA,31220, (478) 757-1600, (478) 757-1315
Animal Emergency Care,2009 Mercer University Drive,Macon,GA,31204, (478) 750-0911, (478) 745-9767
ARKLE Vet Care,1020 Concord Rd,Smyrna,GA,30080, (770) 435-6700, (770) 434-4863
Apex Animal Hospital,3875 S. Cobb Dr,Smyrna,GA,30080, (678) 813-1000, (770) 422-8750
Animal Dermatology Clinic,1453 Terrell Mill Rd SE,Marietta,GA,30067, (770) 422-2509, (770) 422-8750
Animal Care Clinic,"4327 Brownsville Rd, Ste H",Powder Springs,GA,30127, (770) 439-1996, (770) 438-0811
WHITEWAY ANIMAL HOSPITAL,3342 N DRUID HILLS RD,DECATUR,GA,30033, (404) 636-6604, (404) 816-8002
Wesley Chapel Animal Hospital,4832 Covington Hwy,Decatur,GA,30035, (404) 289-0900, (404) 816-8002
Animal Care Center,4188 S. Cobb Dr.,Smyrna,GA,30080, (770) 438-2694, (770) 438-0811
Veterinary Center of Buckhead,3615 PIEDMONT RD NE,ATLANTA,GA,30305, (404) 841-9679, (404) 816-8002
Equine Associates LLC,Highway 230,Hawkinsville,GA,31036, (478) 783-3707, (478) 783-3717
Bembry Veterinary Clinic,378 Cochran Hwy,Hawkinsville,GA,31036, (478) 783-3681,
Bembry Veterinary Clinic,378 Cochran Hwy,Hawkinsville,GA,31036, (478) 783-3681, (478) 934-9066
Countryside Veterinary Clinic,307 N 3rd Ave,Mc Rae,GA,31055, (229) 868-2040, (229) 868-2480
VCA Pets Are People Too Veterinary Hospital,4280 N PEACHTREE RD,CHAMBLEE,GA,30341, (770) 452-1001, (770) 457-6243
VCA Pets Are People Too Veterinary Hospital,1510 PIEDMONT AVE NE,ATLANTA,GA,30324, (404) 875-7387, (404) 875-1455
VCA Peachtree Animal Hospital,4839 Peachtree Rd,Chamblee,GA,30341, (770) 457-2591, (770) 455-8009
Smith Animal Hospital,1181 Peach Pkwy,Fort Valley,GA,31030, (478) 825-2700, (478) 825-2700
Magnolia Grove Vet Clinic,310 Pine Forest St,Dublin,GA,31021, (478) 272-4004, (478) 272-4706
Smalley's Animal Hospital,600 E Jackson St,Dublin,GA,31021, (478) 272-2933, (478) 272-2525
Hall Animal Clinic,5550 Old Macon Rd,Danville,GA,31017, (478) 962-3415,
Dublin Animal Hospital PC,2306 US Highway 80 W,Dublin,GA,31021, (478) 272-7777, (478) 452-0255
Crisp County Animal Hospital,104 E 23rd Ave,Cordele,GA,31015, (229) 273-1392, (229) 273-3200
"Peach Veterinary Care, LLC",900 Knoxville St,Fort Valley,GA,31030, (478) 825-1233, (478) 825-7113
Magnolia Animal Hospital,1244 Peach Pkwy,Fort Valley,GA,31030, (478) 825-3929, (478) 825-8319
Cordele Animal Hospital,1101 Greer St,Cordele,GA,31015, (229) 273-8787, (229) 273-3200
Lake Oconee Animal Hospital,613 Old Phoenix Road,Eatonton,GA,31024, (706) 485-5119, (706) 485-0904
Harmony Crossing Animal Hospital,"1013 Lake Oconee Parkway, Ste. 102",Eatonton,GA,31024, (706) 923-1456, (706) 485-0904
Acute Care Veterinary Clinic,411 Vaughn Rd,Martinez,GA,30907, (706) 868-7955, (706) 868-6077
Cedar Hollow Equine LLC,2791 E Houze Rd,Fort Valley,GA,31030, (478) 825-5315,
Eatonton Veterinary Svc Inc,659 Madison Rd,Eatonton,GA,31024, (706) 485-4017, (706) 485-3104
Banfield The Pet Hospital,225 Robert C Daniel Jr Pkwy,Augusta,GA,30909, (706) 738-1682, (706) 738-7858
Westside Animal Hospital,244 Boy Scout Rd,Augusta,GA,30909, (706) 738-4589, (706) 738-7153
Paradise Animal Hospital,3998 BELAIR RD,Augusta,GA,30909, (706) 860-4544, (706) 855-0237
VCA Columbia Animal Hospital,4285 Washington Rd,Evans,GA,30809, (706) 863-0988, (706) 863-5706
Walton Way Animal Clinic,1944 Walton Way Suite L,Augusta,GA,30904, (706) 733-2288, (706) 305-2288
St Francis Animal Hospital,2647 Perimeter Pkwy,Augusta,GA,30909, (706) 860-6617, (706) 860-2237
National Hills Animal Hospital,2633 Washington Rd,Augusta,GA,30904, (706) 733-0860, (706) 738-0332
All Gods Creatures Veterinary Hospital,813 12th Street,Augusta,GA,30901, (706) 250-1861,
Hill Top Animal Hospital,505 Greenbrier Ave,Evans,GA,30809, (706) 303-4571, (706) 736-0735
Outpatient Vet Clinic,3039 Peach Orchard Rd,Augusta,GA,30906, (706) 796-2210, (706) 738-0332
Springwood Veterinary Clinic,3145 Old Waynesboro Rd,Hephzibah,GA,30815, (706) 437-1034, (706) 437-9471
South Augusta Animal Hospital,2436 Peach Orchard Rd,Augusta,GA,30906, (706) 798-5044, (706) 738-0332
Martinez Animal Hospital,3942 Washington Rd,Augusta,GA,30907, (706) 863-1223, (706) 855-7639
South Pointe Animal Hospital,2547 GA Highway 88,Hephzibah,GA,30815, (706) 592-2432, (706) 592-0028
Highland Animal Hospital PC,2124 Highland Ave,Augusta,GA,30904, (706) 736-1443, (706) 736-0735
Hill High Animal Hospital,4120 Wheeler Rd,Augusta,GA,30907, (706) 303-4558, (706) 736-0735
Greenbrier Veterinary Services,"5121 Washington Rd, Suite 1",Evans,GA,30809, (706) 267-5835, (706) 524-7594
Heartsong Spay and Neuter Clinic,"104 S Belair Road, Unit S",Martinez,GA,30907, (706) 860-9300, (706) 863-3528
Grovetown Animal Clinic,587 E Robinson Ave,Grovetown,GA,30813, (706) 863-8830, (706) 863-3528
Evans Animal Hospital,4317 Evans To Locks Rd,Evans,GA,30809, (706) 868-0479, (706) 868-0666
Dogwood Park Animal Clinic,6100 Columbia Road,Grovetown,GA,30813, (706) 541-2911, (706) 541-1184
Columbia Road Veterinary Ctr,4488 Columbia Rd,Martinez,GA,30907, (706) 210-4300, (706) 650-2399
Care More Animal Hospital,211 Old Blackstone Camp Road,Martinez,GA,30907, (706) 650-1839, (706) 650-2399
Blanchard Woods Animal Hosp,864 Blanchard Rd,Evans,GA,30809, (706) 210-0351, (706) 210-8497
Belair West Animal Clinic,102 S Belair Rd,Martinez,GA,30907, (706) 863-8145, (706) 738-7858
Animals After Hours,2647 Perimeter Pkwy,Augusta,GA,30909, (706) 650-7418, (706) 860-2237
Caldwell Veterinary Hospital,951 Hwy 41 South,Forsyth,GA,31029, (478) 994-8228, (478) 992-8260
Augusta Animal Emergency,208 Hudson Trace,Augusta,GA,30907, (706) 733-7458, (706) 737-4399
Aidmore Animal Clinic,1701 N Leg Ct,Augusta,GA,30909, (706) 733-7181, (706) 733-7338
"Gordon Animal Clinic, Inc",2686 Dennard Hardy Road ,Gordon,GA,31031, (478) 628-4376,
Animal Medical Clinic-Forsyth,60 S Jackson St,Forsyth,GA,31029, (478) 994-4986, (478) 994-2658
Mc Daniel Animal Hospital,218 Oak St,Eastman,GA,31023, (478) 374-3150, (478) 374-3150
VCA Buckhead Animal Hospital,1911 Piedmont Cir NE,Atlanta,GA,30324, (404) 873-3771, (404) 873-3718
VCA Briarcliff Animal Hospital,1850 Johnson Rd NE,Atlanta,GA,30306, (404) 874-6393, (404) 885-9704
Value Vet Tucker,4124 Lawrenceville Hwy,Tucker,GA,30084, (770) 686-3010, (770) 934-5417
VCA Dekalb-Gwinnett Animal Emergency Hospital,6430 Lawrenceville Hwy,Tucker,GA,30084, (770) 491-0661, (404) 873-3718
Tucker Animal Hospital,4988 Lavista Rd,Tucker,GA,30085, (770) 934-5411, (770) 934-5417
THRIVE Affordable Vet Care,2718 - 1267 Caroline St. NE ,Atlanta,GA,30307, (404) 253-1504, (404) 689-9270
THRIVE Affordable Vet Care,1605 Church St Ste 670,Decatur,GA,30030, (470) 582-0679, (404) 371-8539
Wester Veterinary Clinic,905 White Oak Rd,Thomson,GA,30824, (706) 597-9200, (706) 597-9205
The Village Vets Decatur,217 N. McDonough St.,Decatur,GA,30030, (404) 371-0111, (404) 371-8539
David L Ruehle DVM,1011 Cobbham Rd,Thomson,GA,30824, (706) 595-5386,
Veterinary Healthcare Associates Inc,1341 West Martintown Rd,North Augusta,SC,29860, (803) 613-9123, (706) 860-2237
North Augusta Animal Hospital,1801 Georgia Ave,North Augusta,SC,29841, (803) 279-5025, (706) 738-0332
Martintown Animal Hospital,1807 Knox Ave,North Augusta,SC,29841, (803) 278-1930, (706) 855-7639
Hammond Hills Animal Hospital,454 W Martintown Rd,North Augusta,SC,29841, (803) 279-4090, (803) 279-4555
Dr Hawk's Animal Hospital,700 E Buena Vista Ave,North Augusta,SC,29841, (803) 279-2066, (706) 650-2399
Veterinary Treatment Facility,Bldg. S-500 Range Rd.,Fort Gordon,GA,30905, (706) 787-3815, (762) 675-6016
Burke County Animal Hospital,132 S Liberty St,Waynesboro,GA,30830, (706) 554-3111, (706) 554-0910
Lincoln County Veterinary Svc,685 Elm St,Lincolnton,GA,30817, (706) 359-2929, (706) 359-4946
Lincolnton Animal Hospital,635 Elm St,Lincolnton,GA,30817, (706) 359-4545, (706) 359-7045
Sanderlin Veterinary Hospital,6482 Stanford Rd ,Harlem,GA,30814, (762) 675-6003, (762) 675-6016
Countryside Equine Veterinary,79 Dream St NE,Armuchee,GA,30105, (706) 233-9990,
Summerville Veterinary Clinic,94 Old Hix St,Summerville,GA,30747, (706) 857-2918, (706) 857-6067
The Village Vets,1227 Rockbridge Rd,Stone Mountain,GA,30087, (770) 717-1650, (770) 717-1675
Stone Mountain Animal Hospital,6053 Memorial Dr,Stone Mountain,GA,30083, (770) 469-6111, (770) 484-1304
Snapfinger Creek Animal Clinic,5548 Flat Shoals Pkwy,Decatur,GA,30034, (770) 981-2361, (770) 981-2369
St. Francis Animal Care Center of Decatur,"625 Dekalb Industrial Way, Suite 500",Decatur,GA,30033, (404) 924-2000, (404) 974-2006
PETS ARE PEOPLE TOO,2015 MONTREAL RD # B,TUCKER,GA,30084, (770) 493-1001, (404) 812-1818
Animal Clinic East,1414 Gunbarrel Rd,Chattanooga,TN,37421, (423) 894-8495, (423) 894-0175
Animal Medical Ctr,1673 Battlefield Parkway,Fort Oglethorpe,GA,30742, (706) 861-0873, (706) 858-1846
Chattanooga Holistic Animal Institute ,918 E. Main St,Chattanooga,TN,37408, (423) 531-8899, (423) 485-3069
Main Street Veterinary Clinic,1202 North Main Street,La Fayette,GA,30728, (706) 639-1988, (706) 638-3585
Villanow Animal Clinic,3148 Highway 201,La Fayette,GA,30728, (706) 397-8226, (706) 397-8229
Regional Institute for Veterinary Emergencies & Referrals (R.I.V.E.R.),2132 Amnicola Hwy,Chattanooga,TN,37406, (423) 698-4612, (423) 622-8145
Vetco,234 Parkway Dr,Fort Oglethorpe,GA,30742, (877) 838-7468, (706) 937-2210
Main St Pet Wellness,1132 East Main Street,Chattanooga,TN,37408, (423) 254-5370, (423) 894-5114
Mountain Hospital For Animals,128 N Watauga Ln,Lookout Mountain,TN,37350, (423) 821-8000, (423) 821-9726
Animal Hospital-Whitfield,1306 N. Thornton Ave.,Dalton,GA,30720, (706) 226-3710, (706) 226-2802
VCA Companion Animal Hospital,6724 E Brainerd Rd,Chattanooga,TN,37421, (423) 892-6851, (706) 937-2210
House Call Vet Clinic,2005 Haig Mill Rd NW,Dalton,GA,30720, (706) 278-2505, (706) 281-4772
Higdon Animal Hospital,1604 Hickory St,Dalton,GA,30720, (706) 272-3400, (706) 281-4772
Dalton Animal Care,2685 Cleveland Hwy,Dalton,GA,30721, (706) 281-4770, (706) 281-4772
Dalton Animal Care,1022 S Hamilton St,Dalton,GA,30720, (706) 278-1113, (706) 279-1933
Adairsville Animal Hospital,7446 Adairsville Hwy,Adairsville,GA,30103, (770) 773-3401, (770) 773-3993
Murray County Veterinary Svc,344 Duvall Rd,Chatsworth,GA,30705, (706) 695-4691, (706) 517-5520
Athens Animal Hospital,1400 N Chase St,Athens,GA,30601, (706) 549-4320, (706) 549-6209
Calhoun Pet Care,202 Williams St SE,Calhoun,GA,30701, (706) 624-3993, (706) 624-3994
Colbert Animal Hospital,6226 Highway 72 W,Colbert,GA,30628, (706) 788-7387, (706) 425-8591
Boulevard Animal Hospital,298 Prince Avenue,Athens,GA,30601, (706) 425-5099, (706) 425-8591
Athens Regional Veterinary Svc,4990 Lexington Rd,Athens,GA,30605, (706) 546-8282, (706) 543-1414
Wilkes County Veterinary Svc,1093 Lexington Rd,Washington,GA,30673, (706) 678-2929, (706) 678-4223
Oglethorpe Animal Clinic,1562 Athens Rd,Crawford,GA,30630, (706) 743-8021, (706) 743-0847
Large Animal Medicine,501 D W Brooks Dr,Athens,GA,30602, (706) 542-6327, (706) 542-8833
South Athens Animal Clinic,2040 S Milledge Ave,Athens,GA,30605, (706) 353-8970, (706) 354-4657
Shoal Creek Animal Clinic,2226 Barnett Shoals Rd,Athens,GA,30605, (706) 369-0962, (706) 369-0950
Hope Animal Medical Ctr,1150 Mitchell Bridge Rd,Athens,GA,30606, (706) 546-7879, (706) 546-1992
Good Hands Veterinary Hospital,2391 Daniels Bridge Rd,Athens,GA,30606, (706) 613-1880, (706) 613-1844
Winterville Animal Clinic,250 Henry Meyer Rd,Winterville,GA,30683, (706) 742-5108, (706) 742-2493
Vet-To-Pet House Calls - Dr. Paula Loniak DVM,855 Wolfskin Rd,Arnoldsville,GA,30619, (706) 870-7111, (706) 546-5098
VCA Companion Animal Hospital,2000 Highway 29 N,Athens,GA,30601, (706) 549-6043, (706) 546-5098
Firehall 4 Animal Hospital,815 Hathorne Ave.,Athens,GA,30606, (706) 583-9191, (706) 613-7809
Vet At Blue Ridge,24 S Barnett Shoals Rd,Watkinsville,GA,30677, (706) 769-7205, (706) 769-0292
Woodlands Veterinary Referral,1020 Woodlands Road,Watkinsville,GA,30677, (706) 310-1231, (706) 310-1323
Oconee Veterinary Hospital,7530 Macon Hwy,Watkinsville,GA,30677, (706) 769-7513, (706) 769-9142
Jacobs Veterinary Consulting,1720 Epps Bridge Pkwy,Athens,GA,30606, (706) 552-3856, (706) 546-1992
UGA College of Veterinary Medicine,501 D.W. Brooks Drive Building 9,Athens,GA,30602, (706) 542-1984, (706) 608-8369
Climbing Rose Veterinary Services,"196 Alps Rd. Suite 2, PMB 153",Athens,GA,30606, (706) 489-0295, (706) 613-7809
Cat and Dog Clinic,530 Hawthorne Ave,Athens,GA,30606, (706) 613-7877, (706) 613-7809
Piedmont Animal Clinic,1870 Hog Mountain Rd,Watkinsville,GA,30677, (706) 769-4624, (706) 769-1966
Best Friends Veterinary Svc,522 Castalia Ave,Athens,GA,30606, (706) 549-1811, (706) 354-4344
ATHENS VETERINARY SURGERY CENTER,2315 PRINCE AVE,ATHENS,GA,30606, (706) 354-4002, (706) 354-4344
Winder Corners Animal Clinic,20 Monroe Hwy,Winder,GA,30680, (770) 867-8387, (770) 307-3629
Winder Animal Hospital,163 W Athens St,Winder,GA,30680, (770) 867-9821, (770) 867-1367
Regional Vetinary Svc,4990 Lexington Rd.,Athens,GA,30605, (706) 714-2447, (706) 743-0847
Athens Area Humane Society Spay Neuter Center,1781 Mars Hill Road,Watkinsville,GA,30677, (706) 769-9155, (706) 769-9151
Animal Wellness Center of Athens,112 Athens W Pkwy F,Athens,GA,30606, (706) 549-1400, (706) 549-1199
Animal Eye Care Clinic,1729 S Lumpkin St,Athens,GA,30606, (706) 548-9102, (706) 548-1052
Animal Emergency Hospital,2575 Atlanta Hwy,Athens,GA,30606, (706) 850-9888, (706) 850-6944
Four Paws Animal Hospital,1869 Atlanta Hwy SE,Statham,GA,30666, (770) 725-7387, (770) 725-7303
Gaines School Animal Hospital,513 Gaines School Rd,Athens,GA,30605, (706) 549-1708, (706) 563-8984
Crossroads Veterinary Hospital,1785 Highway 29 N,Athens,GA,30601, (706) 548-9207, (706) 354-3897
Animal Emergency Hospital,2575 Atlanta Highway,Athens,GA,30606, (706) 769-0229, (706) 850-6944
Barrow Veterinary Hospital,44 N Center St,Winder,GA,30680, (770) 867-6134, (770) 867-8566
Athens Equine Medical Svc,513 Gaines School Rd,Athens,GA,30605, (706) 354-4969, (706) 546-1852
North Georgia 24 Hour Pet Care,455 W. Belmont Dr.,Calhoun,GA,30701, (706) 602-2007, (706) 602-2681
Animal Care Hospital At Bold,4953 Bold Springs Rd NW,Monroe,GA,30656, (770) 267-8021, (770) 267-8041
Best Friends Animal Hospital,2909 Miller Ferry Rd SW,Calhoun,GA,30701, (706) 629-5060, (706) 629-9006
Animal Hospital Of Gordon Cnty,501 Red Bud Rd NE,Calhoun,GA,30701, (706) 625-3300, (706) 625-2977
RTK Veterinary Clinic,1526 Highway 225 N,Chatsworth,GA,30705, (706) 695-3825, (706) 695-2346
Veterinary Care & Specialty Group,3201 Broad Street,Chattanooga,TN,37408, (423) 591-0270, (423) 803-4073
Standifer Gap Pet Hospital,8116 Standifer Gap Rd,Chattanooga,TN,37421, (423) 855-5602, (423) 296-4386
Shallowford Animal Hospital,6200 Shallowford Rd,Chattanooga,TN,37421, (423) 892-6671, (423) 899-2683
Lee Parkway Veterinary Clinic,116 Lee Parkway Dr,Chattanooga,TN,37421, (423) 892-2219, (423) 894-5114
East Ridge Animal Hospital,3702 Ringgold Rd,Chattanooga,TN,37412, (423) 622-2209, (423) 622-7856
Ringgold Animal Hospital,6999 Nashville St,Ringgold,GA,30736, (706) 937-7387, (706) 375-7352
East Brainerd Animal Hospital,8488 E Brainerd Rd,Chattanooga,TN,37421, (423) 894-0028, (423) 892-2125
Chattanooga Veterinary Center,6146 Lee Highway,Chattanooga,TN,37421, (423) 648-9000, (423) 648-9209
Old Mill Pet Inn,3152 Boynton Dr,Ringgold,GA,30736, (706) 937-9971, (706) 375-7352
Fort Oglethorpe Veterinary,2055 Lafayette Rd,Fort Oglethorpe,GA,30742, (706) 866-4785, (706) 375-7352
Cornerstone Veterinary Svc,8231 N Highway 27,Rock Spring,GA,30739, (706) 375-7314, (706) 375-7352
VCA Catoosa Animal Hospital,3150 Boynton Dr,Ringgold,GA,30736, (706) 937-4171, (706) 937-2210
Chattaneuter Spay /Neuter Clinic,5950 Brainerd Rd ,Chattanooga,TN,37421, (423) 531-7729, (423) 892-7387
Brainerd Animal Hospital,5950 Brainerd Rd,Chattanooga,TN,37421, (423) 892-5141, (423) 499-9648
Brainerd Hills Veterinary Hospital,6724 East Brainerd Road,Chattanooga,TN,37421, (423) 894-8554, (423) 892-7387
Banfield The Pet Hospital,2130 Gunbarrel Rd,Chattanooga,TN,37421, (423) 499-9040, (423) 499-9648
Peachtree Hills Animal Hosp,3106 Early St NW,Atlanta,GA,30305, (404) 812-9880, (404) 812-1818
Animal Medical Ctr,1673 Battlefield Pkwy,Fort Oglethorpe,GA,30742, (706) 861-0873, (706) 858-1846
Animal Emergency & Specialty Center of Chattanooga,6393 Lee Highway,Chattanooga,TN,37421, (423) 822-8304, (423) 709-8227
Animal Clinic-Twenty Third St,2223 E 23rd St,Chattanooga,TN,37407, (423) 698-2401, (423) 698-3056
Peachtree Creek Animal Hospital,1085 Lindberg Dr NE Suite 100,Atlanta,GA,30324, (404) 467-8779, (404) 975-4290
Paws Whiskers and Wags,2800 E Ponce de Leon Ave.,Decatur,GA,30030, (404) 370-6000, (404) 370-6095
North Dekalb Veterinary Clinic,2485 Lawrenceville Hwy,Decatur,GA,30033, (404) 321-7756, (404) 321-7757
Northlake Veterinary Spec,935 Montreal Rd,Clarkston,GA,30021, (404) 292-3281, (404) 292-5981
Ormewood Animal Hospital,749 Moreland Ave Ste C104,Atlanta,GA,30316, (404) 963-5885, (404) 254-5853
PAWS Atlanta Low Cost Spay Neuter,5287 Covington Highway,Decatur,GA,30035, (770) 593-1155, (404) 254-5853
North Hills Animal Hospital,3362 Chamblee Tucker Rd # D,Chamblee,GA,30341, (770) 451-6740, (404) 321-7757
North Oconee Animal Hospital,1091 Talus St,Bogart,GA,30622, (770) 725-6624, (770) 725-6680
Shannon Veterinary Services,765 Storey Ln,Jefferson,GA,30549, (706) 367-1198, (770) 725-6680
Mars Hill Animal Hospital,4041 Mars Hill Rd,Bogart,GA,30622, (770) 725-8387, (770) 725-0060
Main Street Veterinary Hosp,795 N Main St,Madison,GA,30650, (706) 342-2955, (706) 342-0823
Madison Veterinary Clinic,1050 Monticello Rd,Madison,GA,30650, (706) 342-1232, (706) 343-8343
Vet To Pet,1111 Hunt Rd,Danielsville,GA,30633, (706) 613-8682, (706) 245-4892
Lake Hartwell Veterinary Clinic,1087 E Franklin St,Hartwell,GA,30643, (706) 377-7297, (706) 337-2851
Animal Hospital Of Hartwell PC,1364 Reed Creek Hwy,Hartwell,GA,30643, (706) 376-3161, (706) 376-5521
Maggie's Menagerie Vet Svc,180 Abbey Rd.,Ila,GA,30647, (706) 789-2232,
Madison Animal Hospital,19 Griffeth Lane ,Danielsville,GA,30633, (706) 795-3790,
Little Creek Veterinary Svc,1270 Hestertown Rd,Madison,GA,30650, (706) 342-4030, (706) 342-8989
Jefferson Animal Hospital,2352 Hwy 129 N,Jefferson,GA,30549, (706) 367-5161, (706) 367-5162
Royston Animal Hospital,2888 W Main St,Royston,GA,30662, (706) 245-6650, (706) 245-4892
Park Place Animal Hospital,1050 Park Ave,Greensboro,GA,30642, (706) 453-2838, (706) 453-7087
Barber Creek Vet Hospital,1471 Epps Bridge Rd,Bogart,GA,30622, (706) 549-7387, (706) 549-4821
Granite Hills Animal Care,423 S Oliver St,Elberton,GA,30635, (706) 213-6155,
Durham Veterinary Clinic,1901 Old Eatonton Rd,Greensboro,GA,30642, (706) 453-7448, (706) 453-7087
Elberton Animal Hospital,597 Elbert St,Elberton,GA,30635, (706) 283-2761,
MIDWAY ANIMAL HOSPITAL,4577 ROCKBRIDGE RD STE C,STONE MTN,GA,30083, (404) 297-5963, (770) 498-3366
Main Street Veterinarians of Stone Mountain,868 Main St,Stone Mountain,GA,30083, (770) 498-4620, (770) 498-3366
Loving Touch Animal Wellness and Fitness Center,1975 Glenn Club Dr,Stone Mountain,GA,30087, (770) 498-5956, (770) 498-3458
Lifeline Dekalb County Animal Services,3180 Presidential Drive,Atlanta,GA,30340, (404) 292-8800, (404) 634-9235
Comer Veterinary Clinic,311 Highway 72 W,Comer,GA,30629, (706) 783-5111, (706) 783-3678
Lawrence Animal Hospital,2962 Buford Hwy NE,Atlanta,GA,30329, (404) 636-9444, (404) 634-9235
LA Vista Animal Hospital,2804 Lavista Rd,Decatur,GA,30033, (404) 325-9924, (404) 634-9235
Lap of Love of Atlanta,2107 North Decatur Road Suite 246,Decatur,GA,30033, (404) 519-0466, (404) 634-9235
Animal Medical Clinic,6300 Jefferson Rd,Athens,GA,30607, (706) 548-4486, (706) 548-2455
Inman Animal Hospital,926 DeKalb Ave,Atlanta,GA,30307, (404) 584-8761, (404) 588-0671
In Town Animal Hospital,1402 N Highland Ave NE # 3,Atlanta,GA,30306, (404) 881-1805, (404) 881-6220
Hidden Hills Animal Hospital,4899 Redan Rd,Stone Mountain,GA,30088, (404) 296-3400, (404) 296-3401
Union County Veterinary Clinic,373 Blue Ridge Hwy,Blairsville,GA,30512, (706) 745-9089, (706) 745-5527
Lake Chatuge Animal Hospital,1619 State Highway 17,Young Harris,GA,30582, (706) 896-1244, (706) 896-1563
Blairsville Animal Hospital,294 Cleveland St,Blairsville,GA,30512, (706) 745-6987, (706) 781-6566
Alternative Veterinaian Svc,36 Highway 515,Blairsville,GA,30512, (706) 781-2033, (706) 781-2072
Toccoa Veterinary Hospital,3771 GA-17,Eastanollee,GA,30538, (706) 886-2169, (706) 282-0103
Currahee Veterinary Clinic Inc,3642 W. Currahee St.,Toccoa,GA,30577, (706) 886-3803,
Cornelia Veterinary Hospital,785 Baldwin Rd,Cornelia,GA,30531, (706) 778-6605, (706) 776-1665
Murrayville Veterinary Clinic,5741 Thompson Bridge Rd,Murrayville,GA,30564, (770) 532-2585, (770) 535-0280
Shelton Mobile Veterinary Svc,6640 Yellow Creek Rd,Murrayville,GA,30564, (770) 538-0743, (770) 535-0280
Clermont Veterinary Hospital,5243 Cleveland Hwy,Clermont,GA,30527, (770) 983-7851, (770) 983-9086
Murrayville Veterinary Clinic,5741 Thompson Bridge Rd,Murrayville,GA,30564, (770) 532-2585, (770) 535-0280
South Hall Veterinary Hosp,3750 Old Flowery Branch Rd,Oakwood,GA,30566, (770) 532-4449, (678) 971-4208
Pet Care Assoc,5250 Hog Mountain Rd,Flowery Branch,GA,30542, (770) 965-3773, (770) 965-3147
Oakwood Animal Hospital,4132 Mcever Rd,Oakwood,GA,30566, (770) 503-9080, (770) 503-1036
Hall County Animal Shelter,1688 Barber Rd,Gainesville,GA,30507, (678) 450-1587, (770) 532-0498
Lance Animal Hospital,2951 Jay Mountain Road,Gainesville,GA,30506, (770) 503-7387, (770) 287-7197
Humane Society Of Northeast Georgia,845 W. Ridge Rd,Gainesville,GA,30501, (770) 532-6617, (770) 532-0498
Copper Basin & Vet Clinic,163 E Tennessee Ave,Mc Caysville,GA,30555, (706) 940-4100, (706) 492-4235
Lavonia Animal Hospital,870 E Main St,Lavonia,GA,30553, (706) 356-8116, (706) 356-7346
Tugaloo Animal Hospital,5648 Vickery St,Lavonia,GA,30553, (706) 356-1467, (706) 356-1835
Rabun Animal Hospital,220 Cathy Rd.,Mountain City,GA,30562, (706) 746-5100, (706) 746-5400
Clayton Veterinary Hospital,205 S Main St,Clayton,GA,30525, (706) 782-4271, (706) 782-7573
Gainesville Veterinary Hosp,1363 Thompson Bridge Rd,Gainesville,GA,30501, (770) 532-0491, (770) 532-0498
NORTHEAST VETERINARY HOSPITAL,120 Pet Care Court,Cornelia,GA,30531, (706) 778-1900, (866) 828-4178
Forever Friends Animal Clinic,148 North Main St,Hiawassee,GA,30546, (706) 896-7387,
Town and Country Animal Hospital,2824 State Hwy 197 S,Mt. Airy,GA,30563, (706) 778-7460, (706) 778-2051
Family Pet Clinic,3824 Old Flowery Branch Rd,Oakwood,GA,30566, (770) 532-2849, (770) 503-0312
Friendship Springs Vet Care,7380 Spout Springs Rd.,Flowey Branch,GA,30542, (770) 967-8387, (770) 967-2267
Hiawassee Animal Hospital,988 GA-75,Hiawassee,GA,30546, (706) 896-4173, (706) 896-9698
Chestnut Mountain Animal Hospital,3776 Winder Highway,Flowery Branch,GA,30542, (678) 971-5550, (678) 971-5552
Browns Bridge Animal Hospital,2305 Browns Bridge Rd,Gainesville,GA,30504, (770) 536-8831, (770) 536-8511
"Banfield, The Pet Hospital",5873 Spout Springs Rd,Flowery Branch,GA,30542, (770) 965-9365, (770) 965-9517
Animal Medical Care,984 Thompson Bridge Rd,Gainesville,GA,30501, (770) 532-1217, (770) 532-0311
Heron's Crossing - In Home Euthanasia,235 Ponce De Leon PL Ste M-246,Decatur,GA,30030, (404) 334-0822, (404) 289-8143
An-Emerge Animal Emergency Ctr,275 Pearl Nix Pkwy,Gainesville,GA,30501, (770) 534-2911, (770) 534-8096
For Pet's Sake,3761 N Druid Hills Rd,Decatur,GA,30033, (404) 248-8977, (404) 248-0426
Glenwood Small Animal Clinic,1739 Candler Rd,Decatur,GA,30032, (404) 289-8141, (404) 289-8143
Ellenwood Animal Hospital,355 Fairview Rd,Ellenwood,GA,30294, (770) 474-6611, (404) 523-3246
Fairview Animal Hospital,2784 E Atlanta Rd,Ellenwood,GA,30294, (770) 389-9757, (770) 507-8606
Edgewood Animal Clinic & Hosp,420 Edgewood Ave SE,Atlanta,GA,30312, (404) 523-0561, (404) 523-3246
East Atlanta Animal Clinic,461 Flat Shoals Ave SE,Atlanta,GA,30316, (404) 523-8765, (404) 523-3246
Dearborn Animal Hospital,235 Dekalb Industrial Way,Decatur,GA,30030, (404) 377-6477, (404) 377-1700
Decatur Village Veterinary Ctr,217 N. McDonough St,Decatur,GA,30030, (404) 371-0111, (404) 371-8539
Deceased Pet Care,4991 Peachtree Road,Atlanta,GA,30341, (770) 457-7659, (303) 688-1362
Dr. House Cat,430 Sterling St.,Atlanta,GA,30307, (404) 522-1001, (303) 688-1362
VCA Appalachian Animal Hospital,125 Mulberry St,East Ellijay,GA,30540, (706) 635-7357, (706) 635-7358
Ellijay Animal Hospital,89 Gudger St,Ellijay,GA,30540, (706) 698-7387, (706) 698-7388
Whitmire Animal Hospital,149 Whitmire Dr.,Dawsonville,GA,30534, (706) 265-1088, (706) 216-7464
Thompson Creek Animal Hospital,8495 Highway 53 E,Dawsonville,GA,30534, (706) 216-8381, (706) 216-7464
VCA Dahlonega Animal Hospital,1284 Dawsonville Hwy,Dahlonega,GA,30533, (706) 864-7191, (706) 867-9301
VCA Chestatee Animal Hospital,16 Westbrook Rd.,Dahlonega,GA,30533, (706) 864-1005, (706) 867-0719
Foothills Veterinary Clinic,375 Auraria Rd,Dawsonville,GA,30534, (706) 216-1356, (706) 216-1358
Commerce Veterinary Hospital,1012 S Broad St,Commerce,GA,30529, (706) 335-5111, (706) 335-3713
Marble Hill Veterinary Clinic,11423 Highway 53,Marble Hill,GA,30148, (770) 893-4865, (706) 216-1358
Dawsonville Veterinary Hospital,2399 Highway 53 E,Dawsonville,GA,30534, (706) 265-8381, (706) 265-1449
Cleveland Veterinary Hospital,1029 S Main St,Cleveland,GA,30528, (706) 865-3188, (706) 865-6281
Mount Yonah Animal Hospital,515 W Kytle St,Cleveland,GA,30528, (706) 219-1212, (706) 865-6281
Petwise,124 Prospect Trail,Cleveland,GA,30528, (706) 969-0933, (706) 865-6281
Animal Clinic At Foothills,280 Whitley Rd S,Marble Hill,GA,30148, (770) 894-4233, (706) 216-0186
All Animals Veterinary Hosp,639 Auraria Rd,Dawsonville,GA,30534, (706) 216-8387, (706) 216-0186
Dawson Forest Animal Hospital,2399 Dawson Forest Rd E,Dawsonville,GA,30534, (706) 216-7387, (706) 216-7837
Red Barn Veterinary Hospital,14 Seven Mile Hill RoadÂ ,Dahlonega,GA,30533, (706) 864-0054,
Coral Sands Animal Hospital,4242 Snapfinger Woods Dr,Decatur,GA,30035, (404) 289-3178, (404) 289-1323
De Kalb Animal Hospital,4070 Lawrenceville Hwy,Tucker,GA,30084, (770) 938-3900, (770) 938-3250
Common Companion Vet Co.,240 North Highland Ave NE Suite B,Atlanta,GA,30307, (770) 741-1581, (770) 741-1084
Columbia Belvedere Animal Hospital,3956 Glenwood Rd,Decatur,GA,30032, (404) 289-5231, (404) 289-5231
Clarkesville Veterinary Clinic,6640E Highway 115,Clarkesville,GA,30523, (706) 839-7387,
Mill Creek Veterinary,277 Madison St,Clarksville,GA,30523, (706) 839-1718, (706) 839-1719
Clairmont Animal Hospital,1226 CLAIRMONT RD,DECATUR,GA,30030, (404) 633-6163, (404) 634-9857
Buckhaven Veterinary Clinic,4226 Peachtree NE,Atlanta,GA,30319, (404) 841-3647, (404) 841-3649
Church Street Animal Hospital,711 Church St,Decatur,GA,30030, (404) 687-0711, (404) 816-8002
Brookhaven Animal Hospital,205 Town Blvd Ste 210,Atlanta,GA,30319, (404) 237-0316, (404) 262-1703
Center For Feline Medicine,5295 Stone Mountain Hwy,Stone Mountain,GA,30087, (770) 469-8240, (770) 469-4216
Chamblee Animal Hospital,5220 Peachtree Industrial Blvd,Chamblee,GA,30341, (770) 457-5245, (770) 469-4216
Cohutta Animal Clinic,83 Dunbarton Farm Rd,Blue Ridge,GA,30513, (706) 946-7387, (706) 946-7388
Ocoee Animal Hospital,88 All Creatures Pl,Blue Ridge,GA,30513, (706) 632-7387, (706) 632-7807
Mountain Emergency Animal Center,1163 Windy Ridge Rd,Blue Ridge,GA,30513, (706) 632-7879, (706) 258-2316
Mason's Animal Care,2808 US Highway 80 E,Twin City,GA,30471, (478) 763-4910,
Vidalia Veterinary Clinic,Highway 292,Vidalia,GA,30474, (912) 537-1069, (912) 537-1113
Vidalia Veterinary Clinic,303 W 1st St,Vidalia,GA,30474, (912) 537-1069, (912) 537-1113
Mc Rae Animal Clinic,656 S State St,Lyons,GA,30436, (912) 526-3433, (912) 537-6211
Altamaha Animal Clinic,300 Commerce Way,Vidalia,GA,30474, (912) 537-3711, (912) 537-6211
Toombs Animal Clinic,991 US Highway 1 S,Lyons,GA,30436, (912) 526-8533, (912) 537-6211
Screven Co Veterinary Svc,715 W Ogeechee St,Sylvania,GA,30467, (912) 564-1121, (912) 564-7792
Reidsville Veterinary Clinic,7061 US Highway 280 E,Reidsville,GA,30453, (912) 557-4993, (912) 557-3077
Briarlake Animal Hospital,2566 Shallowford Rd #109,Atlanta,GA,30345, (404) 963-9901, (404) 892-0219
Statesboro Bulloch Regional Veterinary Hospital,23608 US Hwy 80 East,Statesboro,GA,30461, (912) 764-1001, (912) 489-6559
Westside Veterinary Hospital,201-B Main St,Statesboro,GA,30458, (912) 489-1998, (912) 489-6623
Metter Veterinary Clnic,1020 East Broad St,Metter,GA,30439, (912) 685-5621,
University Animal Hospital,409 South Zetterower Ave,Statesboro,GA,30458, (912) 243-9162, (912) 243-9164
Vca Gateway Animal Hospital,9849 US Highway 301 S,Statesboro,GA,30458, (912) 681-7387, (912) 681-9131
Bulloch Veterinary Clinic,363 Northside Dr W,Statesboro,GA,30458, (912) 764-7579, (912) 489-2398
Best Friends Animal Hospital,605 Brannen Street,Statesboro,GA,30458, (912) 764-7387, (912) 764-3545
Banfield The Pet Hospital,650 Ponce DE Leon Ave NE,Atlanta,GA,30308, (404) 892-7277, (404) 892-0219
Banfield The Pet Hospital,3221 Peachtree Rd NE # 250,Atlanta,GA,30305, (404) 237-7455, (404) 237-7789
BANFIELD THE PET HOSPITAL,4023 LAVISTA RD STE 233,TUCKER,GA,30084, (770) 414-4330, (770) 414-4329
Deal Veterinary Clinic,900 N Downing Musgrove Hwy,Glennville,GA,30427, (912) 654-0404, (912) 654-9094
Glennville Veterinary Clinic,N Downing Musgrove Hwy,Glennville,GA,30427, (912) 654-0455, (912) 654-9094
Ogeechee Veterinary Assoc,1076 GA Highway 24 E,Louisville,GA,30434, (478) 625-3021, (478) 625-3269
Swainsboro Animal Clinic,311 S Main St,Swainsboro,GA,30401, (478) 237-5152, (478) 237-5237
McRae Vet Clinic,219 Lambs Bridge Rd,Swainsboro,GA,30401, (478) 237-4036,
Banfield Pet Hospital,"5001 Peachtree Blvd, Ste 125",Atlanta,GA,30341, (770) 986-7823, (470) 226-3873
Banfield Pet Hospital,251 Blackmon Dr Ste 120,Decatur,GA,30033, (470) 226-3869, (470) 226-3873
Avondale Veterinary Hospital,6 N Avondale Rd,Avondale Estates,GA,30002, (404) 294-4800, (404) 294-7007
Claxton Veterinary Clinic,10045 US Highway 280,Claxton,GA,30417, (912) 739-1076, (912) 739-9872
Animal Emergency Center of Sandy Springs,228 SANDY SPRINGS PL NE,ATLANTA,GA,30328, (404) 252-7881, (404) 252-7919
Animal Hospital-Sandy Springs,6023 Sandy Springs Cir NE,Atlanta,GA,30328, (404) 255-8522, (404) 252-6560
Atlanta Veterinary Dentistry & Oral Surgery,228 Sandy Springs Place NE,Sandy Springs,GA,30328, (877) 771-1107, (800) 553-6014
ATLANTA VETERINARY SKIN & ALLERGY CLINIC,2803 SHALLOWFORD RD NE,ATLANTA,GA,30341, (770) 936-8922, (404) 298-9922
ATLANTA VETERINARY EYE CLINIC,33 N AVONDALE PLZ,AVONDALE EST,GA,30002, (404) 299-0678, (404) 298-9922
Atlanta Pet Care Center,4821 Rockbridge Rd. #1,Stone Mountain,GA,30083, (404) 299-5551, (404) 207-1197
Barrows Veterinary,6300 Mountain Brook Ln NW,Atlanta,GA,30328, (404) 255-2577, (770) 813-8852
ANSLEY ANIMAL CLINIC,593 DUTCH VALLEY RD NE,ATLANTA,GA,30324, (404) 873-1786, (404) 873-1055
Animal Health Assoc Inc,1789 Clairmont Rd,Decatur,GA,30033, (404) 325-5107, (404) 325-5107
West End Animal Wellness Center,1195 Ralph David Abernathy Blvd SW,Atlanta,GA,30310, (404) 588-5001, (678) 705-9676
Banfield The Pet Hospital,1285 Johnson Ferry Road,Marietta,GA,30068, (770) 509-2580, (770) 509-2589
Horse & Hound Pet Clinic,555 Johnson Ferry Rd,Marietta,GA,30068, (770) 973-4133, (770) 565-7684
Johnson Ferry Animal Hospital,555 Johnson Ferry Road,Marietta,GA,30068, (770) 973-1500, (770) 565-7684
Vernon Woods Animal Hospital,270 Vernon Woods Dr NE,Atlanta,GA,30328, (404) 252-1641, (404) 252-7401
Lewis Veterinary Services,896 Fox Hollow Pkwy,Marietta,GA,30068, (770) 336-3880, (770) 973-2803
Happy Tails Animal Hospital,"4970 Lower Roswell Rd, Ste # 12",Marietta,GA,30068, (404) 975-1745, (678) 803-2646
Montrose Animal Hospital,1028 Woodlawn Dr NE,Marietta,GA,30068, (770) 977-9000, (770) 977-9028
VCA North Atlanta Animal Hospital,227 Sandy Springs Place Suite 210,Sandy Springs,GA,30328, (404) 255-9345, (404) 255-9282
GA Veterinaty Rehabilitation Fitness and Pain Management,1230 Johnson Ferry Place bldg 2 Ste J 70,Marietta,GA,30068, (678) 803-2626, (678) 803-2646
East Cobb Veterinary Clinic,1314 E Cobb Dr,Marietta,GA,30068, (770) 973-2286, (770) 394-5003
Atlanta Humane Veterinary Center,981 Howell Mill Road NW,Alpharetta,GA,30318, (404) 875-6420, (404) 875-6723
Atlanta Humane Society - SPCA of Georgia,981 HOWELL MILL RD NW,ATLANTA,GA,30318, (404) 875-6420, (404) 761-6980
Collier Animal Hospital,857 Collier Rd NW Suite 19,Atlanta,GA,30318, (404) 477-0200, (404) 687-0757
Blue Pearl Veterinary Partners,1071 Howell Mill Road,Atlanta,GA,30318, (404) 649-6333, (678) 543-0449
Abbott Animal Hospital,5534 Lawrenceville Hwy NW,Lilburn,GA,30047, (770) 921-2121, (770) 921-2566
"Dr. Mary Patricia Hill, DVM",1351 Paces Forest Dr. NW,Atlanta,GA,30327, (770) 380-1983, (303) 688-1362
Banfield the Pet Hospital,1801 Howell Mill Rd. NW,Atlanta,GA,30318, (404) 351-1919, (404) 351-1979
"Paws, Whiskers & Claws",4719 Lower Roswell Rd #220,Marietta,GA,30068, (770) 579-6001, (770) 579-6013
Animal Eye Specialists,"630 Cobb Pkwy N, Ste E",Marietta,GA,30062, (770) 427-3199, (770) 427-3689
PetWell Veterinary Healthcare,"1456 Northside Drive, Ste B",Atlanta,GA,30318, (404) 856-7500, (404) 856-7505
Animal Doctors,2531 Meadow Grove Way SW,Lilburn,GA,30047, (770) 469-8100, (770) 442-3002
Animal Medical Care Ctr,3851 Roswell Rd,Marietta,GA,30062, (770) 977-4994, (770) 971-3230
Treehouse Animal Clinic,2000 Moores Mill Rd NW,Atlanta,GA,30318, (404) 355-7387, (404) 355-7493
THRIVE Affordable Vet Care,1299 Northside Dr Ste 610,Atlanta,GA,30318, (404) 994-4166, (470) 481-3730
The Ark Animal Hospital,288 14th St. NW,Atlanta,GA,30318, (404) 584-7478, (404) 584-7479
Town & Country East Veterinarian Clinic,1100 Mt Bethel Dr,Marietta,GA,30068, (770) 565-7175, (770) 971-9454
Veterinary Medical Center of Clayton,4798 Jonesboro Rd,Forest Park,GA,30297, (404) 366-4370, (404) 361-3676
Northside Drive Pet Hospital,1634 Northside Dr NW,Atlanta,GA,30318, (404) 350-9827, (404) 350-0963
Ambery Animal Hospital,1400 HOWELL MILL RD NW,ATLANTA,GA,30318, (404) 351-5960, (404) 351-5961
Trusted Friend Animal Clinic,5975 Roswell Rd Suite C-309,Sandy Springs,GA,30328, (404) 907-1404, (678) 279-9956
Banfield The Pet Hospital,2150 Paxton Dr SW,Lilburn,GA,30047, (770) 979-9950, (770) 979-9890
Union City Veterinary Medical Center & ER Clinic,6702 Shannon Parkway,Union City,GA,30291, (770) 964-0700, (770) 964-0767
Tri-City Animal Hospital,2967 Central Ave.,East Point,GA,30344, (404) 766-3661, (770) 471-3432
Three Counties Animal Hospital,427 Highway 138 SW,Riverdale,GA,30274, (770) 471-6046, (770) 471-3432
Beaver Crossing Animal Hosp,4184 Lawrenceville Hwy NW,Lilburn,GA,30047, (770) 921-4981, (770) 921-5421
Southwest Veterinary Clinic,2369 Campbellton Rd SW,Atlanta,GA,30311, (404) 349-9576, (770) 774-2594
South Fulton Pet Care,"5370 Campbellton-Fairburn Rd, Ste 400",Fairburn,GA,30213, (770) 774-1298, (770) 774-2594
Shannon Parkway Animal Hosp,6396 Shannon Pkwy,Union City,GA,30291, (770) 964-1971, (770) 964-0877
The Village Vets,3404 Northside Pkwy NW,Atlanta,GA,30327, (404) 844-4824, (404) 592-6539
Cobb Veterinary Internal Medicine,"630 Cobb Parkway N., Ste. A",Marietta,GA,30062, (678) 354-7126, (678) 355-0114
Cobb Pet Clinic,1050 E Piedmont Rd,Marietta,GA,30062, (770) 321-5593, (770) 321-4537
Cobb Emergency Veterinary Clinic,630 COBB PKWY N,Marietta,GA,30062, (770) 424-9157, (770) 424-8064
East Marietta Animal Hospital,1799 Roswell Rd,Marietta,GA,30062, (770) 973-4830, (770) 973-1012
Riverdale Surgical Specialty,6607 Powers St,Riverdale,GA,30274, (770) 997-9079, (770) 996-9194
Red Oak Animal Hospital,4895 Ben Hill Rd,Atlanta ,GA,30349, (404) 767-8513, (404) 209-9727
Guardian Angel Mobile Veterinary Services,P O Box 741678,Riverdale,GA,30274, (770) 873-9425, (404) 751-0142
Johnson Veterinary Svc,3125 Roswell Rd # H,Marietta,GA,30062, (770) 977-5377, (770) 973-0301
GREENBRIAR ANIMAL HOSPITAL,3600 CAMPBELLTON RD SW,ATLANTA,GA,30331, (404) 344-8079, (404) 344-0559
Fort McPherson Veterinary Treatment Facility,1670 Hardee Ave,Fort Mcpherson,GA,30330, (404) 464-2911, (404) 941-1780
ANIMAL HOSPITAL OF EAST COBB,3770 LOWER ROSWELL RD,MARIETTA,GA,30068, (770) 578-8522, (770) 578-8890
Lassiter Animal Hospital,2960 Johnson Ferry Rd,Marietta,GA,30062, (770) 998-5100, (770) 998-2121
Briarcliff Animal Clinic of College Park,1662 Virginia Ave,College Park,GA,30337, (404) 835-1222, (404) 941-1780
Killian Hill Animal Hospital,1057 Killian Hill Rd SW,Lilburn,GA,30047, (770) 921-8558, (770) 410-1856
Banfield The Pet Hospital,3665 Market Place Blvd,East Point,GA,30344, (404) 349-0705, (404) 349-8320
Banfield The Pet Hospital,1003 Adam Lake Blvd,East Point,GA,30344, (404) 349-0705, (404) 761-6980
Atlanta Area Animal Clinic,2605 Godby Rd,Atlanta,GA,30349, (404) 761-6989, (404) 761-6980
Animal Medical Clinic of Fairburn,8520 Senoia Rd,Fairburn,GA,30213, (770) 692-6034, (770) 692-6037
Allied Animal Healthcare,6709 Powers St,Riverdale,GA,30274, (770) 573-2732,
Mountain Park Animal Hospital,5324 Five Forks Trickum Rd SW,Lilburn,GA,30047, (770) 921-2965, (770) 921-2977
Radiocat,630 N Cobb Pkwy,Marietta,GA,30062, (800) 323-9729, (770) 952-6965
Sprayberry Animal Hospital,2135 Post Oak Tritt Rd,Marietta,GA,30062, (770) 977-8300, (770) 977-1304
Cliftwood Animal Hospital,175 Cliftwood Dr NE,Atlanta,GA,30328, (404) 252-9200, (404) 252-0490
Town & Country Veterinary Clinic,1343 Gresham Rd,Marietta,GA,30062, (770) 971-1556, (770) 971-1292
Blue Pearl Veterinary Partners - SS,455 Abernathy Rd NE,Sandy Springs,GA,30328, (404) 459-0903, (404) 459-4190
Tritt Animal Hospital,4349 Shallowford Rd,Marietta,GA,30062, (770) 992-8787, (770) 518-1930
Centre Court Veterinary Clinic,6080 Sandy Springs Cir NE,Atlanta,GA,30328, (404) 252-9200, (404) 252-0490
River Cliff Animal Hospital,4776 Highway 78,Lilburn,GA,30047, (770) 972-6270, (770) 418-9102
VCA Avalon-Heart of Gwinnett Animal Hospital,470 PLEASANT HILL RD NW,Lilburn,GA,30047, (770) 923-7474, (770) 923-3430
Veterinary Referral Surgical Practice,"630 Cobb Parkway North, Suite B",Marietta,GA,30062, (770) 424-6663, (770) 424-5238
Veterinary Referral Surgical Practice,"630 Cobb Parkway North, Suite B",Marietta,GA,30062, (770) 424-6663, (770) 424-5238
VCA Lilburn Animal Hospital,4985 Lawrenceville Hwy NW,Lilburn,GA,30047, (770) 921-6766, (770) 921-5470
Veterinary Referral Surgical Practice,630 Cobb Pkwy N,Marietta,GA,30062, (770) 424-6663, (770) 424-5238
Animal Fur1st Medical Ctr,468 Boulevard SE,Atlanta,GA,30312, (404) 627-7879, (404) 627-2618
Animal Lovers Veterinary Hospital,1810 Lee Rd,Lithia Springs,GA,30122, (770) 948-3004,
Banfield The Pet Hospital,1986 Mount Zion Rd,Morrow,GA,30260, (770) 472-9900, (770) 472-9111
Westside Animal Emergency Clinic,875 Thornton Rd,Lithia Springs,GA,30122, (770) 819-1090, (678) 838-2828
Forest Park Animal Hospital,5136 Jonesboro Rd,Morrow,GA,30260, (404) 366-1922, (404) 366-1925
MORROW ANIMAL HOSPITAL,6326 S LEE ST,MORROW,GA,30260, (770) 961-5540, (770) 961-2772
Lake Harbin Animal Hospital,2056 Lake Harbin Rd,Morrow,GA,30260, (770) 961-5036, (770) 961-2772
Sweetwater Creek Animal Hospital,2785 Lee Road Ste B-10,Lithia Springs,GA,30122, (678) 838-7387, (678) 838-2828
Thomaston Animal Hospital,1412 Highway 19 N,Thomaston,GA,30286, (706) 648-2146, (706) 647-1970
All My Pets Veterinary Services,P.O. Box 1550,Thomaston,GA,30286, (833) 738-7838,
AVS Animal Hospital,623 Pointe South Pkwy # 105,Jonesboro,GA,30238, (770) 472-1100, (770) 472-8674
Hannahs Mill Animal Hospital,555 Hannahs Mill Rd,Thomaston,GA,30286, (706) 647-4164, (706) 647-1970
Banfield The Pet Hospital,101 Pavilion Pkwy,Fayetteville,GA,30214, (770) 461-0006, (770) 461-5010
East Lake Veterinary Hospital,86 Claire Court,McDonough,GA,30253, (770) 914-0735, (770) 472-9111
Moreland Animal Hospital,2789 Hwy 29 Ssouth ,Moreland,GA,30259, (770) 755-6633, (770) 755-6635
East Coweta Veterinary Hosp,3462 Highway 34 E,Sharpsburg,GA,30277, (770) 304-2600, (770) 304-8030
VCA Braelinn Village Animal Hospital,1130 Crosstown Court,Peachtree City,GA,30269, (770) 486-0077, (770) 486-0052
VCA Braelinn Animal Hospital,1237 Robinson Rd,Peachtree City,GA,30269, (770) 487-1144, (770) 487-2901
West Georgia Mobile Vet / Spay & Neuter Clinic,91 Selt Rd,Newman,GA,30263, (770) 942-4984, (770) 252-6861
Jackson Veterinary Clinic,369 E 2nd St,Jackson,GA,30233, (770) 775-5710, (770) 775-5716
Woodland Animal Hospital,2675 Highway 155 S,Locust Grove,GA,30248, (770) 467-3140, (770) 957-0870
Animal Health Clinic,311 Morgan St,Lagrange,GA,30240, (706) 884-1771, (706) 884-1773
Brookwood Animal Clinic,118 Brookwood Ave,Jackson,GA,30233, (770) 504-0853, (770) 504-9410
Mallards Landing Veterinary Hospital,3590 Georgia 42,Locust Grove,GA,30248, (678) 565-4004, (678) 432-6237
LaGrange Veterinary Hospital,1200 Lafayette Parkway ,LaGrange,GA,30241, (706) 882-1063, (706) 882-8634
Family Pet Care,1300 Hogansville Rd,Lagrange,GA,30241, (706) 883-8387, (706) 883-8313
Greater Atlanta Veterinary Medical Group,1093 Sandy Plains Rd,Marietta,GA,30066, (770) 424-6303, (770) 426-4257
Memorial Drive Vet Clinic,806 Memorial Dr,Griffin,GA,30223, (770) 227-2452, (770) 227-6722
Southside Animal Hospital,929 S Hill St,Griffin,GA,30224, (770) 228-2595, (770) 228-3819
North Griffin Veterinary Clnc,1799 N Expressway,Griffin,GA,30223, (770) 227-4125, (770) 227-4288
Griffin Animal Care,656 N Expressway,Griffin,GA,30223, (770) 228-4321, (770) 228-4324
Fulton Equine Clinic,2424 Rehoboth Rd,Griffin,GA,30224, (770) 227-5484, (770) 227-0621
VIP Petcare,141 Commerce Ave.,LaGrange,GA,30240, (470) 269-4961, (706) 882-8025
Franklin Road Animal Clinic,1462 New Franklin Rd,Lagrange,GA,30240, (706) 882-0054, (706) 882-8025
Four Paws Animal Hospital,101 Parker Pl,Lagrange,GA,30240, (706) 845-9400, (706) 937-2210
THRIVE Affordable Vet Care,3460 Sandy Plains Rd Suite 630,Marietta,GA,30066, (470) 632-8316, (470) 632-8317
Southern Crescent Equine Svc,608 Highway 29 N,Newnan,GA,30263, (770) 252-6860, (770) 252-6861
Shallowford Animal Hospital,2323 Shallowford Rd,Marietta,GA,30066, (770) 926-0926, (770) 591-1318
ETOWAH VETERINARY HOSPITAL,4953 CANTON RD,MARIETTA,GA,30066, (770) 926-8888, (770) 516-8915
Bethlehem Animal Clinic,109 Bethlehem Rd,Locust Grove,GA,30248, (678) 432-7002, (678) 432-7048
Dogwood Veterinary Hospital,24 Hospital Rd,Newnan,GA,30263, (770) 253-3416, (770) 683-3416
South Atlanta Veterinary Internal Medicine,1270 HWY 54E,Fayetteville,GA,30214, (770) 692-3769, (770) 460-7407
Veterinary Internal Medicine Specialty,1093 Sandy Plains Rd,Marietta,GA,30066, (770) 419-1976, (404) 816-8002
HELP Spay Neuter Clinic,12 The Cres,Newnan,GA,30263, (770) 304-7911, (770) 304-7912
Stockbridge Veterinary Hosp,5238 N Henry Blvd,Stockbridge,GA,30281, (770) 474-7242, (770) 474-7205
Coweta Animal Hospital,225 Bullsboro Dr,Newnan,GA,30263, (770) 253-8013, (770) 253-1780
PET EP,3165 Evans Mill Road,Lithonia,GA,30038, (404) 608-0800, (678) 610-5441
Parkway Animal Hospital,205 Mcdonough Pkwy,Mcdonough,GA,30253, (678) 432-6220, (678) 610-5441
Senoia Animal Hospital,7285 Highway 16,Senoia,GA,30276, (770) 599-0222, (770) 599-9998
SAVES Center,1090 Highway 54 East,Fayetteville,GA,30214, (770) 460-8166, (770) 460-7407
Huntington Creek Animal Hosp,1391 Highway 85 N,Fayetteville,GA,30214, (770) 461-1233, (770) 719-1016
Mc Donough Animal Hospital,123 Jonesboro Rd,Mcdonough,GA,30253, (770) 957-3927, (770) 954-9046
Flat Creek Animal Clinic,1963 Highway 54 W,Fayetteville,GA,30214, (770) 487-5354, (770) 631-9904
Jonesboro Animal Hospital,2832 Highway 138 E,Jonesboro,GA,30236, (770) 478-5521, (770) 603-9230
Hudson Bridge Animal Clinic,1795 Hudson Bridge Rd,Stockbridge,GA,30281, (770) 389-3400, (770) 507-1524
Animal Amour Pet Care Ctr,11500 Tara Blvd,Lovejoy,GA,30250, (770) 472-8610,
Family Friend Animal Hospital & Pet Lodge,229 Summerlin Blvd,Newman,GA,30265, (678) 552-1717, (678) 423-8368
Peachtree City Animal Clinic,343 Senoia Rd,Peachtree City,GA,30269, (770) 487-4074, (770) 487-4535
Crossroads Animal Hospital Brd,25 Oak Hill Blvd,Newnan,GA,30265, (770) 253-1020, (770) 253-2777
Fayetteville Animal Hospital,1145 Highway 54 E,Fayetteville,GA,30214, (770) 461-4211, (770) 461-0172
Newnan Animal Hospital,1973 Hwy 34 E,Newnan,GA,30265, (770) 251-8911, (770) 251-7379
Fayette Veterinary Medical Center,565 Glynn St S,Fayetteville,GA,30214, (770) 460-0090, (770) 460-6624
Cat Care Of Fayette,304 Buckeye Rd,Fayetteville,GA,30214, (770) 716-5651, (770) 751-8680
Crescent Veterinary Hospital,51 Market Square Rd,Newnan,GA,30265, (770) 304-8900, (770) 683-8903
Banfield the Pet Hospital,2701 Highway 54,Peachtree City,GA,30269, (678) 364-9121, (678) 364-9199
Banfield The Pet Hospital,1072 Highway 34 E,Newnan,GA,30265, (678) 423-0007, (770) 681-0641
Animal Medical Clinic Pet Care Center & Hotel ,405 HWY 74 N,Peachtree City,GA,30269, (770) 632-0900, (770) 681-0641
Henry County Animal Hospital,151 Hampton St,Mcdonough,GA,30253, (770) 954-1217, (770) 954-9369
"Banfield, The Pet Hospital",1950 Jonesboro Road,McDonough,GA,30253, (770) 914-1280, (770) 472-9111
Eagles Landing Vet Hospital,1635 Highway 42 N,Mcdonough,GA,30253, (770) 954-1414, (770) 472-9111
Berry Hill Pet Hospital,575 Millers Mill Rd,Stockbridge,GA,30281, (770) 474-3255, (770) 472-9111
Animal Medical Clinic,399 Hwy 74 N,Peachtree City,GA,30269, (770) 487-1338, (770) 681-0641
Cat Clinic Of Cobb,2635 Sandy Plains Rd,Marietta,GA,30066, (770) 973-6369, (770) 973-5772
Abundant Animal Care Veterinary Hospital,2675 Ball Ground Hwy,Canton,GA,30114, (770) 479-0048, (770) 704-0820
Barnesville Animal Clinic,204 Burnette Rd,Barnesville,GA,30204, (770) 358-3763, (770) 358-1198
Animal Medical Ctr,9100 Knox Bridge Hwy,Canton,GA,30114, (770) 479-0111, (770) 479-4960
Villa Rica Animal Hospital,1700 Rockmart Rd,Villa Rica,GA,30180, (770) 459-1145, (770) 459-0496
Trickum Ridge Animal Hospital,11990 Highway 92,Woodstock,GA,30188, (770) 516-1111, (770) 516-9665
Animal Care Clinic-Tallapoosa,126 Head Ave,Tallapoosa,GA,30176, (770) 574-8232,
Sweet Dreams In-Home Euthansia,12195 Highway 92 suite 114-216,Woodstock,GA,30188, (770) 880-1596, (770) 926-7421
Bankhead Animal Hospital,4015 Bankhead Hwy,Douglasville,GA,30134, (770) 942-9077, (770) 949-4495
Hiram Animal Hospital,1019 Hiram Douglasville Hwy,Hiram,GA,30141, (770) 439-1117, (770) 439-1296
Kay Animal Hospital,8991 Highway 5,Douglasville,GA,30133, (770) 949-7030, (770) 949-0294
Hwy 5 Animal Hospital,3340 Highway 5,Douglasville,GA,30135, (678) 501-7770, (678) 501-7775
West Mobile Vet - Dr. H Marseli,PO Box 6632 ,Douglasville,GA,30154, (770) 942-4984, (678) 838-2828
Ball Ground Animal Hospital,101 Civic Dr,Ball Ground,GA,30107, (678) 454-1000, (678) 454-1010
Wayside Animal Clinic,99 Cove Rd,Jasper,GA,30143, (706) 692-2210, (706) 692-9512
Paws on Main,371 N Main St,Jasper,GA,30143, (706) 253-2266, (706) 253-2278
Animal Medical Clinic,292 Burton St,Jasper,GA,30143, (706) 253-6284, (706) 253-6283
Equine Medical Assoc,2280 Pine Dr,Douglasville,GA,30135, (770) 928-4400, (770) 942-9982
Douglas Oaks Animal Hospital,3939 Highway 5,Douglasville,GA,30135, (770) 949-6560, (770) 949-2637
King Animal Hospital PC,67 New St,Rockmart,GA,30153, (770) 684-7162, (770) 684-3460
The Ark Animal Hospital,23 Highland Pavilion Ct,Hiram,GA,30141, (770) 943-9820, (770) 943-8311
St. Francis Animal Hospital,"8879 Dallas Acworth Hwy, Ste. 140",Dallas,GA,30132, (770) 975-3341, (770) 975-3314
Paulding Animal Clinic,301 Butler Industrial Dr,Dallas,GA,30132, (770) 445-6185, (770) 505-7366
New Hope Animal Hospital,49 Hosiery Mill Road Ste 135,Dallas,GA,30157, (770) 485-1536, (770) 505-7366
New Georgia Animal Hospital,6101 Villa Rica Hwy,Dallas,GA,30157, (770) 505-7387, (770) 505-7366
BANFIELD THE PET HOSPITAL,2940 CHAPEL HILL RD,DOUGLASVILLE,GA,30135, (770) 577-6607, (770) 577-4482
East Paulding Animal Hospital,3041 Charles Hardy Parkway,Dallas,GA,30157, (770) 445-7300, (770) 469-6102
Douglasville Veterinary Hosp,6220 Fairburn Rd,Douglasville,GA,30134, (770) 942-9974, (770) 942-9982
Woodstock Veterinary Hospital,607 Mauldin Dr,Woodstock,GA,30188, (770) 926-3722, (678) 494-4701
Whatley-Sherman Veterinary Cln,415 Plainville Rd NE,Rome,GA,30161, (706) 291-4587, (706) 291-4759
West Rome Animal Clinic,2012 Shorter Ave NW,Rome,GA,30165, (706) 235-8861, (706) 235-5512
Possum Trot Veterinary Clinic,10 Addington Dr NW,Rome,GA,30165, (706) 290-1920, (706) 290-1920
North Broad Animal Clinic,1818 N Broad St NE,Rome,GA,30161, (706) 295-2344, (706) 295-2353
Mount Berry Animal Hospital,2965 Martha Berry Highway,Rome,GA,30165, (706) 232-0364, (706) 234-2228
Lake View Animal Clinic,3299 Alabama Hwy SW,Rome,GA,30165, (706) 232-0168, (706) 232-8532
EAST ROME ANIMAL CLINIC,9 COMMERCE CT SE,ROME,GA,30161, (706) 235-8211, (706) 234-5920
Culbreth-Carr-Watson Animal Clinic,1223 East 2nd Ave,ROME,GA,30161, (706) 234-9243, (706) 234-5920
Animal Medical Center of Rome,13 John Maddox Dr NW,Rome,GA,30165, (706) 290-9301,
Olde Towne Animal Hospital,121 Mill St,Woodstock,GA,30188, (770) 516-9767, (770) 426-4257
Georgia Animal Project,PO Box 689,Holly Springs,GA,30142, (770) 704-7297, (770) 928-9954
Family Pet Hospital,12910 Highway 92,Woodstock,GA,30188, (770) 928-9094, (770) 928-9954
East Cherokee Veterinary Clinic,7211 Hickory Flat Highway,Woodstock,GA,30188, (770) 213-8481, (678) 802-6724
Crossroads Veterinary Hospital,9500 Main St,Woodstock,GA,30188, (770) 591-5474, (770) 591-8987
Cat Snip,"301 Hickory Ridge Trail, Suite 120",Woodstock,GA,30188, (770) 455-7077, (770) 455-7522
Kare Bears Cuddly Paws Mobile Vet,15 Terry White,Aragon,GA,30104, (770) 634-2885,
Equine Verterinary Svc,1482 Old Alabama Rd,Taylorsville,GA,30178, (770) 382-7475,
Waleska Animal Hospital,6787 Reinhardt College Pkwy,Waleska,GA,30183, (770) 345-1611, (770) 479-7170
Riverstone Animal Hospital,112 Bluffs Pkwy,Canton,GA,30114, (770) 479-7141, (770) 479-7170
Quick Shots,149 Reinhardt College Pkwy #6,Canton,GA,30114, (678) 493-5288, (678) 493-5297
Mirror Lake Animal Hospital,2000 Mirror Lake Blvd,Villa Rica,GA,30180, (770) 783-9231, (770) 783-9379
Atlanta West Veterinary Hospital,102 Thomas Dorsey Dr,Villa Rica,GA,30180, (770) 459-2253, (770) 459-2706
Pets Shots Express,150 Prominence Point Pkwy #200,Canton,GA,30114, (678) 880-3947, (770) 720-0283
Persimmon Creek Animal Hospital,7875 Union Hill Rd.,Canton,GA,30114, (770) 456-5678, (770) 720-0283
Bridge Mill Animal Hospital,9560 Bells Ferry Rd,Canton,GA,30114, (770) 479-2200, (770) 479-2210
Cherokee Animal Hospital,2424 Marietta Hwy,Canton,GA,30114, (770) 479-6505, (770) 720-2715
Animal Medical Center of Holly Springs,"5939 Holly Springs Parkway, STE 101",Woodstock,GA,30188, (770) 924-3587, (770) 924-3592
Allatoona Animal Hospital,6733 Bells Ferry Rd,Woodstock,GA,30188, (678) 445-1111, (678) 445-6200
Acres Mill Veterinary Clinic,2460 Ball Ground Hwy,Canton,GA,30114, (770) 479-1905, (770) 200-1524
Polk Veterinary Care,736 EAST AVE,Cedartown,GA,30125, (770) 748-0173,
Animal Medical Ctr,815 Joe Frank Harris Pkwy SE,Cartersville,GA,30120, (770) 386-4444, (770) 382-5543
All About Animals Veterinary Services,P.O. Box 1044,Carrollton,GA,30112, (770) 830-8387, (770) 834-5006
Westside Animal Hospital,201 Douthit Ferry Rd,Cartersville,GA,30120, (770) 607-3055, (770) 607-3059
Lakeview Animal Hospital,202 Burns Rd,Carrollton,GA,30117, (770) 214-2552, (770) 832-2476
Carroll County Animal Hospital,635 Columbia Dr,Carrollton,GA,30117, (770) 832-2475, (770) 832-2476
VCA Carrollton Animal Hospital,515 Clifton Ter,Carrollton,GA,30117, (770) 834-6671, (770) 832-8145
Southland Veterinary Svc,2984 Stateline Rd.,Bowdon,GA,30108, (770) 834-2539, (770) 258-9888
Price Creek Animal Hospital,401 Price Creek Rd,Bremen,GA,30110, (770) 537-6705, (770) 824-5811
Southland Veterinary Svc,2984 Stateline Rd,Bowdon,GA,30108, (770) 258-1900, (770) 258-9888
Bremen Animal Hospital,805 Alabama Ave S,Bremen,GA,30110, (770) 537-2357, (770) 537-0579
Bowdon Animal Clinic,145 City Hall Ave,Bowdon,GA,30108, (770) 258-3256, (770) 834-5006
All Pets & Paws Animal Hospital ,175 N Highway 113,Carrollton,GA,30117, (770) 834-7044, (770) 834-5006
Pet Vet Clinic,1163 Burnt Hickory Rd SE # D,Cartersville,GA,30120, (770) 386-5066, (770) 382-8501
Cartersville Animal Hospital,109 E Felton Rd,Cartersville,GA,30120, (770) 382-8570, (770) 382-8501
Bartow & Acworth Animal Hosp,124 S Morningside Dr,Cartersville,GA,30121, (770) 386-2362, (770) 386-2375
