Name,Street Address,Locality,State,Zip code,Telephone,fax
Acupuncture For Animals,2131 Hillsboro Rd,Franklin,TN,37065, (615) 790-9739,
Banfield The Pet Hospital,2784 Wilma Rudolph Blvd,Clarksville,TN,37040, (931) 906-8664, (931) 906-8697
Animal Health Safety & Welfare,873 Belton Dr,Nashville,TN,37205, (615) 353-6393, (615) 661-5898
All About Animals Veterinary Care,4414 Eagleville Pike,Chapel Hill,TN,37034, (931) 364-2305,
Blue Pearl Veterinary Partners - Brentwood,1668 Mallory Ln,Brentwood,TN,37027, (615) 333-1212, (615) 661-9883
Hillside Veterinary Clinic,4930 Marion Rd,Cunningham,TN,37052, (931) 387-4900, (931) 387-4988
Veterinary Services,123 S Horton Pkwy,Chapel Hill,TN,37034, (931) 364-7799, (931) 364-3034
West Meade Veterinary Clinic,990 Davidson Dr,Nashville,TN,37205, (615) 356-1152, (615) 690-9398
St Bethlehem Animal Clinic,400 Warfield Blvd. Ct.,Clarksville,TN,37043, (931) 645-4111, (931) 645-4161
Rolling Hills Equine Clinic,615 Coop Rd,Bell Buckle,TN,37020, (931) 437-2236,
Trousdale County Veterinary Services,700 E McMurry Blvd E,Hartsville,TN,37074, (615) 374-0330, (615) 374-9999
Sycamore Animal Hospital,5420 Highway 41a,Joelton,TN,37080, (615) 746-6000, (615) 746-6060
VCA Companion Animal Hospital,121 Two Mile Pike,Goodlettsville,TN,37072, (615) 851-0833, (615) 859-0192
Value Vet,4602 Gallatin Pike,Nashville,TN,37216, (615) 226-3000, (615) 851-7588
Leipers Fork Veterinary Svc,5920 Parham Rd,Franklin,TN,37064, (615) 595-8544, (615) 298-2928
House Kennel Farm Call Clinic,1996 Old Hillsboro Rd,Franklin,TN,37064, (615) 794-2660, (615) 298-2928
Harpeth Valley Animal Hospital,8252 Collins Rd,Nashville,TN,37221, (615) 673-0100, (615) 673-0195
Natchez Trace Veterinary Services - Franklin,3813 New Highway 96 W,Franklin,TN,37064, (615) 790-8100, (615) 790-8177
Low Cost Spay & Neuter,7098 Old Harding Rd,Nashville,TN,37221, (615) 646-7724, (615) 599-1208
Harpeth Hills Animal Hospital,329 Clofton Dr,Nashville,TN,37221, (615) 646-7387, (615) 662-8059
Goose Creek Pet Hospital,4400 Franklin South Ct,Franklin,TN,37064, (615) 628-8664, (615) 628-8850
White County Veterinarian Clnc,578 N Spring St,Sparta,TN,38583, (931) 836-3707, (931) 836-3911
Dixon Animal Hospital,5400 Western Ave,Knoxville,TN,37921, (865) 584-4141, (865) 584-7128
Cross Roads Animal Clinic,7426 Maynardville Pike,Knoxville,TN,37938, (865) 922-7749, (865) 922-4639
Halls Animal Hospital,7126 Maynardville Hwy,Knoxville,TN,37918, (865) 922-3003, (865) 922-1024
Fountain City Animal Hospital,5630 N Broadway St,Knoxville,TN,37918, (865) 688-0776, (865) 688-9896
Emory Animal Hospital,2311 W Emory Rd,Powell,TN,37849, (865) 947-0437, (865) 947-8943
East River Animal Clinic,6400 Asheville Hwy,Knoxville,TN,37924, (865) 637-7000, (865) 584-7128
Crossings Animal Hosp & Laser,8705 Asheville Hwy,Knoxville,TN,37924, (865) 933-5011, (865) 933-5007
Clinton Highway Veterinary,7215 Clinton Highway,Powell,TN,37849, (865) 938-3313, (865) 938-3316
Pet Doctor,7009 Asheville Hwy,Knoxville,TN,37924, (865) 329-0003, (865) 523-2617
Northside Animal Clinic,Quarry Rd,Knoxville,TN,37938, (865) 922-8300, (865) 689-8606
University Of Tn Veterinary,"2407 River Dr, Room B 206",Knoxville,TN,37996, (865) 974-8387, (865) 974-0174
Tazewell Animal Clinic Inc,7408 Tazewell Pike,Corryton,TN,37721, (865) 281-2502, (865) 281-2504
Powell Animal Hospital,205 Star Mountain Way,Powell,TN,37849, (865) 938-1884, (865) 381-2191
North KNOX Veterinary Clinic,4700 Central Avenue Pike,Knoxville,TN,37912, (865) 687-2515, (865) 689-8606
Norwood Veterinary Hospital,2828 Merchant Drive,Knoxville,TN,37912, (865) 523-2611, (865) 523-2617
Magnolia Animal Clinic,2817 E Magnolia Ave,Knoxville,TN,37917, (865) 522-6753, (865) 554-4791
Washington Pike Veterinary,3400 Mill Rd,Knoxville,TN,37924, (865) 523-6886, (865) 637-8084
VCA Companion Animal Hospital,2930 Tazewell Pike,Knoxville,TN,37918, (865) 689-2719, (865) 689-7496
Veterinary Medical Ctr,5009 Clinton Hwy,Knoxville,TN,37912, (865) 689-5000, (865) 689-5866
Knoxville Pet Emergency Clinic,1819 Ailor Ave,Knoxville,TN,37921, (865) 637-0114, (865) 554-4791
Karn's Animal Clinic,7752 Oak Ridge Hwy,Knoxville,TN,37921, (865) 690-1282, (865) 694-4694
Just for Pets Animal Clinic,"5034 N Broadway Street, Ste 255",Knoxville,TN,37918, (865) 357-1838, (865) 922-1024
Central Veterinary Hospital NE,3314 Mill Rd,Knoxville,TN,37924, (865) 523-6866, (865) 637-6488
Central Veterinary Hospital,1212 W Clinch Ave,Knoxville,TN,37916, (865) 525-1167, (865) 637-6488
Callahan Drive Animal Hospital,6800 Barger Pond Way,Knoxville,TN,37912, (865) 938-0243, (865) 689-0621
Broadway Veterinary Clinic,4207 N Broadway St,Knoxville,TN,37917, (865) 687-2651, (865) 689-0621
Asheville Highway Animal Clnc,4516 Asheville Hwy,Knoxville,TN,37914, (865) 523-8434, (865) 546-8623
Beaverbrook Animal Hospital,1509 E Emory Rd,Knoxville,TN,37938, (865) 688-2921, (865) 546-8623
Animal Medical Ctr,2436 E Magnolia Ave,Knoxville,TN,37917, (865) 546-2204, (865) 522-6237
All Paws Veterinary Clinic,6450 Western Ave,Knoxville,TN,37921, (865) 584-7297,
Williamson County Animal Shelter,106 Claude Yates Drive,Franklin,TN,37064, (615) 790-5590, (615) 794-9695
Animal Medical Clinic,486 N Spring St,Sparta,TN,38583, (931) 836-8187,
Fitzgerald Animal Clinic,208 Highway 52 Byp E,Lafayette,TN,37083, (615) 666-4297, (615) 666-4297
Macon County Veterinary Hospital,2586 Highway 52 W,Lafayette,TN,37083, (615) 666-8063, (615) 666-8832
Williamson County Animal Hospital,1126 Murfreesboro Rd,Franklin,TN,37064, (615) 794-7113, (615) 794-9695
Value Vet Bellevue,224 Old Hickory Blvd,Nashville,TN,37221, (615) 915-5540, (615) 778-8838
Bellevue Animal Hospital,7098 Old Harding Rd,Nashville,TN,37221, (615) 646-4545, (615) 646-5085
Evetts Animal Clinic,730 Highway 52 Byp W,Lafayette,TN,37083, (615) 666-7350, (615) 666-6494
Belle Forest Animal Hospital,154 Belle Forest Cir,Nashville,TN,37221, (615) 662-1700, (615) 646-5502
Tennessee Veterinary Specialists,4410 Peytonsville Rd.,Franklin,TN,37064, (615) 778-0288, (615) 778-8838
South Franklin Animal Hospital,137 Alpha Drive,Franklin,TN,37064, (615) 595-2337, (615) 356-0643
Caring Hands Animal Hospital,1410 Columbia Ave,Franklin,TN,37064, (615) 791-9366, (615) 591-1920
Banfield Pet Hospital,1010 Murfreesboro Rd Ste 162,Franklin ,TN,37064, (615) 591-6986, (615) 591-6989
Sabra Dog Training - Associate Certified Applied Animal Behaviorist,,Madison,TN,37115, (615) 450-0358, (615) 851-7588
Animalia Health and Wellness for Animals,1973 Highway 96 West,Franklin,TN,37064, (615) 595-7100, (615) 567-6721
Root Animal Clinic,111 Hollywood St,Goodlettsville,TN,37072, (615) 851-6868, (615) 851-7588
Rivergate Pet Emergency Clinic,910 Meadowlark Ln,Goodlettsville,TN,37072, (615) 859-3778, (615) 865-8011
Myatt Drive Animal Hospital,1104 Myatt Blvd,Madison,TN,37115, (615) 865-8010, (615) 865-8011
Mobley Veterinary Clinic,4709 Gallatin Pike,Nashville,TN,37216, (615) 262-0415, (615) 226-1545
Animal Health Center-Franklin,400 Eddy Ln,Franklin,TN,37064, (615) 794-5007, (615) 790-5024
Madison Veterinary Clinic,124 Harris St,Madison,TN,37115, (615) 865-4310, (615) 860-2358
Goodlettsville Animal Hospital,603 S Main St,Goodlettsville,TN,37072, (615) 859-1277, (615) 859-9183
Emberton House Call Veterinary,1104 Myatt Blvd,Madison,TN,37115, (615) 327-5011, (615) 227-6266
Caudle Veterinary Clinic,2915 Gallatin Pike,Nashville,TN,37216, (615) 227-6230, (615) 227-6266
Banfield The Pet Hospital,2201 Gallantin Pike N,Nashville,TN,37207, (615) 859-3970, (615) 859-7461
Banfield Pet Hospital,2201 Gallatin Pike N,Madison,TN,37115, (615) 859-1468,
ANIMAL CLINIC OF BELLSHIRE,4021 DICKERSON PIKE,NASHVILLE,TN,37207, (615) 868-0845,
Pleasant View Animal Hospital,2525 Highway 49 E,Pleasant View,TN,37146, (615) 746-4070, (615) 746-5578
Gs Animal Clinic At Joelton,5540 Clarksville Pike,Joelton,TN,37080, (615) 876-1616, (615) 876-1609
Cheatham County Animal Clinic,358 Frey St,Ashland City,TN,37015, (615) 792-4829, (615) 792-1740
Sango Veterinary Hospital,2400 Madison St #3,Clarksville,TN,37043, (931) 368-8050, (931) 219-1870
Pet Calls Mobile Veterinary,PO Box 3670,Clarksville,TN,37043, (931) 647-1240, (615) 386-0109
Family Pet Hospital,530 New South Dr,Clarksville,TN,37043, (931) 358-5855, (931) 648-0456
Eastview Veterinary Clinic,1993 Madison St,Clarksville,TN,37043, (931) 648-8111, (931) 648-0456
Animal Care Group,3387 Highway 41a S,Clarksville,TN,37043, (931) 368-0020, (931) 368-0022
Veterinary Ophthalmology Services,4344 Kenilwood Drive,Nashville,TN,37204, (615) 690-9399, (615) 690-9398
Veterinary Imaging Partners,2000 12th Ave S,Nashville,TN,37204, (615) 292-8355, (877) 240-4543
Rock & Country Veterinarian,6545 Arno Rd,College Grove,TN,37046, (615) 368-7873, (615) 368-7973
Veterinary Behavior Solutions,,Nashville,TN,37204, (877) 203-5973, (877) 240-4543
Tennessee Veterinary Spclst,2934 Sidco Dr,Nashville,TN,37204, (615) 255-5887, (615) 915-0830
Tennessee Veterinary Dentistry & Oral Surgery LLC,1804 Williamson Ct Ste 208,Brentwood,TN,37027, (615) 618-4547, (615) 915-0830
Tiny Town Animal Clinic,1815 Tiny Town Road,Clarksville,TN,37042, (931) 647-2800, (931) 647-2012
The Humane Society,940 Tennesee Ave,Clarksville,TN,37040, (931) 648-8042, (931) 906-4751
The Cats on Commerce,136 Commerce St,Clarksville,TN,37040, (931) 292-2829, (931) 906-4751
Pet Vet Battlewood,2340 Hillsboro Rd,Franklin,TN,37069, (615) 794-3838, (877) 882-0338
Paws & Claws Animal Hospital,4803 Trousdale Dr,Nashville,TN,37220, (615) 833-4423, (615) 833-4826
Fort Campbell  Veterinary Treatment Facility,"Bldg 5289, 8th Street",Fort Campbell,KY,42223, (270) 798-3614, (270) 798-4717
Parker's Paws Animal Hospital,43 Brookwood Terrace,Nashville,TN,37205, (615) 356-0642, (615) 356-0643
Southside Veterinary Clinic,2330 Highway 48,Clarksville,TN,37040, (931) 906-7757, (931) 906-4751
Overwatch Animal Hospital,909 Mcclardy Rd,Clarksville,TN,37042, (931) 551-9898, (931) 553-8989
Oak Grove Animal Hospital,14953 Fort Campbell Blvd.,Oak Grove,KY,42262, (270) 439-6110, (270) 439-4331
Nashville Veterinary Specialists + Animal Emergency- Clarksville,685 Kennedy Lane,Clarksville,TN,37040, (931) 551-2121, (615) 386-0109
Hickman Veterinary Hospital,2830 Highway 100,Centerville,TN,37033, (931) 670-4926, (931) 670-5288
Noah's Ark Animal Hospital,8006 Brooks Chapel Rd,Brentwood,TN,37027, (615) 376-5126, (615) 376-3493
Animal Medical Ctr,120 Kraft St,Clarksville,TN,37040, (931) 648-8818, (931) 648-8819
Natchez Trace Veterinary Services - Nashville,6614 Highway 100,Nashville,TN,37205, (615) 750-2248, (615) 386-0109
Nashville Veterinary Specialists,2971 Sidco Dr,Nashville,TN,37204, (615) 386-0107, (615) 386-0109
Animal House Veterinary Clinic,416 Dover Rd,Clarksville,TN,37042, (931) 645-7757, (931) 645-8121
Animal Hospital,11 Mcclure St,Clarksville,TN,37040, (931) 647-1696, (931) 647-9193
McKays Mill Animal Hospital,"2090 Oxford Glen Drive, Ste 1",Franklin,TN,37067, (615) 599-3783, (615) 599-1208
Little House Animal Hospital,1109 Battlewood St,Franklin,TN,37069, (615) 791-9148, (615) 599-1208
Linda Holste Dvm Dac Vim,1016 Mcewen Dr,Franklin,TN,37067, (615) 778-0288, (615) 298-2928
Hillsboro Animal Hospital,2207 Bandywood Dr,Nashville,TN,37215, (615) 298-2663, (615) 298-2928
Greene Animal Hospital,110 Harding Pl,Nashville,TN,37205, (615) 356-8993, (615) 356-1325
Farmvet.com,1041 Sneed Road West,Franklin,TN,37069, (615) 377-2300, (615) 370-8502
Crossroads Pet Professionals,7115 Crossroads Blvd,Brentwood,TN,37027, (615) 377-9898, (615) 661-6070
Animal Clinic of North Clarksville,1567 Ft. Campbell Blvd.,Clarksville,TN,37042, (931) 645-9890, (931) 645-1938
All God's Creatures Vet Clinic,114 Kraft St # E,Clarksville,TN,37040, (931) 551-9997, (931) 552-7932
Franklin Road Animal Hospital PC,1434 Franklin Rd,Brentwood,TN,37027, (615) 377-6457, (615) 377-6456
Cool Springs Animal Hospital,7103 Crossroads Blvd,Brentwood,TN,37027, (615) 377-4959, (615) 377-4608
Concord Road Animal Hospital & Pet Spa,6688 Niclensville Pike Suit 101,Brentwood,TN,37027, (615) 283-9040, (615) 371-9660
Carothers Parkway Veterinary Clinic,"1736 Carothers Pkwy., Ste. 300",Brentwood,TN,37027, (615) 371-1535, (615) 371-9660
Brentwood Veterinary Clinic,5009 Harpeth Dr,Brentwood,TN,37027, (615) 373-4777, (615) 377-2526
Bradford Animal Hospital,208 Wilson Pike Cir,Brentwood,TN,37027, (615) 373-3485, (615) 376-5866
BluePearl Veterinary Partners - Nashville,2000 12th Ave S,Nashville,TN,37204, (615) 383-2600, (615) 383-5666
Berry Farms Animal Hospital,"5021 Hughes Crossing, Suite 150",Franklin,TN,37067, (615) 224-7776, (615) 435-3016
Belmont Animal Hospital,3206 Belmont Blvd.,Nashville,TN,37212, (615) 383-1000, (615) 383-1224
Blue Pearl Veterinary Partners - Franklin,3020 Mallory Lane,Franklin,TN,37067, (615) 333-1212, (615) 661-9883
Berry Hill Animal Hospital,2211 8th Ave S,Nashville,TN,37204, (615) 292-3332, (615) 396-8279
Belle Meade Animal Hospital,5121 Harding Pike,Nashville,TN,37205, (615) 352-4370, (615) 352-5659
Beauchamp Animal Hospital,1110 Battlewood St,Franklin,TN,37069, (615) 794-5685, (615) 791-0207
Battleground Hospital-Animals,225 Royal Oaks Blvd,Franklin,TN,37067, (615) 261-7500, (615) 261-7503
Banfield The Pet Hospital,719 Thompson Ln,Nashville,TN,37204, (615) 385-9034, (615) 385-7229
Banfield The Pet Hospital,8105 Moores Ln # 1300,Brentwood,TN,37027, (615) 373-4444, (615) 373-4893
Banfield Pet Hospital,4900 Thoroughbred Ln,Brentwood,TN,37027, (615) 661-9931, (615) 373-7399
Animal Care Ctr Of Brentwood,"283 Wilson Pike Cir,",Brentwood,TN,37027, (615) 371-1242, (615) 661-5898
Animal Ark Animal Hospital,1016 Mcewen Dr,Franklin,TN,37067, (615) 778-0880, (615) 778-0984
Affiliated Veterinary Specialists,1668 Mallory Ln.,Brentwood,TN,37027, (615) 333-1212, (615) 661-9883
VCA Ragland & Riley Animal Hospital,3207 Cookeville Hwy,Livingston,TN,38570, (931) 498-3153, (931) 858-7828
Dogwood Animal Hospital,1024 Old Highway 127 S,Jamestown,TN,38556, (931) 879-1111, (931) 879-1087
Best Friends Veterinary Hospital,225 Sparta Highway,Crossville,TN,38572, (931) 459-2006, (931) 459-2018
Upchurch Animal Clinic,725 Allardt Hwy,Jamestown,TN,38556, (931) 879-7357, (931) 879-7033
Animal Wellness Ctr,259 Jmz Dr,Gordonsville,TN,38563, (615) 683-6600, (615) 683-6629
Animal Hospital,55 Bob Tollett Loop,Crossville,TN,38555, (931) 484-5521, (303) 776-3795
Animal Medical Clinic,1325 Crescent Dr,Cookeville,TN,38501, (931) 528-5885, (931) 372-0140
Cumberland River Vet Svc,113 Donaldson Ave,Celina,TN,38551, (931) 243-2181, (931) 243-6435
Little Veterinary Svc,766 River Bluff Rd,Clarkrange,TN,38553, (931) 863-5944, (931) 863-4115
Plateau Animal Hospital,2314 Miller Ave,Crossville,TN,38555, (931) 484-8060, (800) 861-4595
Highland Veterinary Clinic,119 W Adams St,Crossville,TN,38555, (931) 484-2614, (303) 776-3795
Best Friends Veterinary Hospital,225 Sparta Highway,Crossville,TN,38555, (931) 813-4227, (303) 776-3795
Tri County Animal Clinic,415 Waynesboro Hwy,Waynesboro,TN,38485, (931) 722-9240, (931) 724-7328
Giles County Animal Hospital,16654 W College St,Pulaski,TN,38478, (931) 363-7971, (931) 363-7973
Northside Animal Hospital,2750 Highway 43 N,Lawrenceburg,TN,38464, (931) 829-3496, (931) 829-3490
Pulaski Veterinary Clinic,1191 W College St,Pulaski,TN,38478, (931) 363-7575, (931) 363-9274
Greenview Veterinary Hospital,796 Columbia Hwy,Hohenwald,TN,38462, (931) 796-5550,
Shoal Creek Animal Hospital,1401 Old Waynesboro Hwy,Lawrenceburg,TN,38464, (931) 762-7294, (931) 766-5086
Lawrenceburg Animal Hospital,2155 Waynesboro Hwy,Lawrenceburg,TN,38464, (931) 762-3908, (931) 762-8892
All Animals Veterinary Hosp,818 N Military St,Loretto,TN,38469, (931) 853-7127,
Agape Pet Hospital LLC,2045 Wall Street,Spring Hill,TN,37174, (615) 302-4555, (615) 302-3111
Hohenwald Hospital For Animals,106 Volunteer Dr,Hohenwald,TN,38462, (931) 796-4178, (931) 796-1984
Berry Animal Hospital,28940 Elkwood Section Rd,Ardmore,AL,35739, (256) 423-6111, (256) 423-6112
Columbia Hospital For Animals,1502 Highway 31 N,Columbia,TN,38401, (931) 388-7756, (931) 388-0191
Animal Emergency Clinic,1900 Shady Brook St # B,Columbia,TN,38401, (931) 380-1929, (931) 451-5018
Veterinary Wellness Clinic of Spring Hill,4926 Port Royal Rd Suite B,Spring Hill,TN,37174, (615) 730-3046, (931) 548-2524
Veterinary Wellness Clinic of Columbia,1412 Trotwood Ave Suite 18,Columbia,TN,38401, (931) 548-2523, (931) 548-2524
Eastside Animal Hospital,236 E James Campbell Blvd,Columbia,TN,38401, (931) 381-1888, (931) 381-5464
Animal Medical Clinic,701 Lion Pkwy,Columbia,TN,38401, (931) 388-6215, (931) 381-7384
Maury County Veterinary Hosp,1118 W 7th St,Columbia,TN,38401, (931) 388-4750, (931) 388-7387
Healthy Petz Veterinary Hospital,3809 Jim Warren Rd.,Spring Hill,TN,37174, (931) 486-0077, (931) 486-0704
Animal Care Center of Carters Creek,2690 Spring Meade Blvd,Columbia,TN,38401, (931) 489-9333, (931) 451-5018
All Pets Health Center,"4825 Main St., Ste. 3",Spring Hill,TN,37174, (615) 790-8250, (615) 790-8930
Ardmore Companion Animal Hospital,26889 Main St,Ardmore,TN,38449, (931) 427-8383,
Animal Clinic,617 W Poplar St,Pulaski,TN,38478, (931) 363-4581, (931) 572-5152
Mt Pleasant Animal Hospital,1156 N Main St,Mt Pleasant,TN,38474, (931) 379-3831,
House Call Veterinarian,320 W Broad St # 3,Cookeville,TN,38501, (931) 267-2298, (931) 528-7030
Flatt Veterinary Clinic,804 S. Willow Ave,Cookeville,TN,38501, (931) 528-6421, (931) 528-7030
Copeland Veterinary Hospital,821 E 10th St,Cookeville,TN,38501, (931) 528-1111, (931) 528-7030
Cookeville Veterinary Clinic,1180 E Spring St,Cookeville,TN,38501, (931) 528-7868, (931) 528-5604
Boyd Veterinary Clinic,1900 E Spring St,Cookeville,TN,38506, (931) 528-8805, (931) 528-5604
Maxwell Veterinary Office,204 S Union St,Gainesboro,TN,38562, (931) 268-6676,
Livingston Veterinary Clinic,515 Monterey Hwy,Livingston,TN,38570, (931) 403-5553, (931) 403-5556
Village Veterinary Clinic,"5267 Peavine Rd., Ste 101",Crossville,TN,38571, (931) 456-9800, (931) 484-9254
Upper Cumberland Vet Clinic,4635 Highway 127 N,Crossville,TN,38571, (931) 484-9059, (931) 484-9254
White Oak Animal Hospital,1341 Fairview Blvd,Fairview,TN,37062, (615) 799-7981, (615) 799-7983
White Bluff Animal Clinic,4535 Highway 70 E,White Bluff,TN,37187, (615) 797-9125, (615) 797-5454
Mobile Veterinary Clinic,7425 Les Hughes Rd,Fairview,TN,37062, (615) 799-0616, (615) 799-8678
Hardin County Veterinary Hosp,395 Wayne Rd,Savannah,TN,38372, (731) 925-1462, (731) 925-1504
East Side Animal Clinic,1975 Pickwick St,Savannah,TN,38372, (731) 925-3998,
Animal Hospital,1950 Pickwick St,Savannah,TN,38372, (731) 925-8120,
Moore Veterinary Clinic,3052 Main St,Bethel Springs,TN,38315, (731) 934-4355, (731) 934-7600
Animal Care Clinic,89 Central Ln,Parsons,TN,38363, (731) 847-9650, (731) 847-4670
Trenton Animal Clinic,2011 US Highway 45 Byp S,Trenton,TN,38382, (731) 855-9081, (731) 855-9845
Animal Hospital Of Milan,14075 S 1st St,Milan,TN,38358, (731) 686-2243, (731) 686-1159
Tri-City Small Animal Clinic,727 N Trenton St,Rutherford,TN,38369, (731) 665-6718, (731) 665-7896
Decatur County Animal Clinic,2190 Highway 641 S,Parsons,TN,38363, (731) 847-6339, (731) 847-3991
Lambert Animal Clinic,4106 W Van Hook St,Milan,TN,38358, (731) 686-9782, (731) 686-8876
The Animal Doctor of Selmer,825 E Poplar Ave,Selmer,TN,38375, (731) 645-7333, (731) 646-9446
Beach Lake Animal Hospital,573 W Church St,Lexington,TN,38351, (731) 967-0090, (731) 967-1097
Huntingdon Animal Clinic,280 Veterans Dr N,Huntingdon,TN,38344, (731) 986-3693, (731) 986-8774
Henderson Animal Clinic,952 W Main St,Henderson,TN,38340, (731) 989-2418, (731) 989-2491
Lexington Animal Hospital,490 W Church St,Lexington,TN,38351, (731) 968-2531, (731) 968-1111
Three Way Animal Clinic,301 Dogwood Trl,Humboldt,TN,38343, (731) 784-1212, (731) 784-1992
Henderson County Animal Clinic,525 S Broad St,Lexington,TN,38351, (731) 968-4424, (731) 968-1111
Carlton Animal Clinic,101 State St,Jackson,TN,38301, (731) 424-4400, (731) 424-4401
Camden Animal Clinic,1245 Highway 70 W,Camden,TN,38320, (731) 584-6475, (731) 584-6477
Jackson Animal Clinic,2281 N Highland Ave,Jackson,TN,38305, (731) 668-1440, (731) 668-2757
Airways Animal Clinic,416 Airways Blvd,Jackson,TN,38301, (731) 424-4411,
Pet Care Ctr Of Jackson South,2278 S Highland Ave,Jackson,TN,38301, (731) 935-0080, (731) 421-1668
University Parkway Animal Hosp,84 E University Pkwy,Jackson,TN,38305, (731) 661-0711, (731) 661-9884
Stonehaven Park Veterinary,19 Stonecreek Cir,Jackson,TN,38305, (731) 668-6929, (731) 661-9884
Parkway Animal Hospital,788 N Parkway,Jackson,TN,38305, (731) 661-0888, (731) 661-9884
North Madison Animal Hospital,243 Oil Well Rd,Jackson,TN,38305, (731) 664-6200, (731) 664-9355
Pet Wellness Clinic,2787 North Highland Ave,Jackson,TN,38305, (731) 256-1455, (731) 661-9884
Northside Animal Clinic,3327 N Highland Ave,Jackson,TN,38305, (731) 668-9350, (731) 668-9353
Jackson Pet Emergency Clinic,2815-D N. Highland Ave,Jackson,TN,38305, (731) 660-4343, (731) 660-4546
Fairview Animal Clinic,1597 Fairview Blvd,Fairview,TN,37062, (615) 799-2118, (615) 799-8678
Animal Medical Hospital,1200 Highway 96,Burns,TN,37029, (615) 446-1606, (615) 446-7080
Reelfoot Animal Hospital,402 W Reelfoot Ave,Union City,TN,38261, (731) 885-1943, (731) 885-1423
Paris Veterinary Clinic,2101 E Wood St,Paris,TN,38242, (731) 642-2263, (731) 642-2270
Weakley County Animal Clinic,110 Weldon Dr,Martin,TN,38237, (731) 587-5319, (731) 587-5313
Mineral Wells Animal Clinic,1116 Volunteer Dr,Paris,TN,38242, (731) 642-5699, (731) 642-2228
Veterinary Home Health Care,105 Haygood Rd,Martin,TN,38237, (731) 514-0797, (731) 587-3875
Lakeway Animal Clinic,2701 E Wood St,Paris,TN,38242, (731) 644-9933, (731) 644-9939
Hooks Pet Clinic,296 Highway 431,Martin,TN,38237, (731) 587-3817, (731) 587-3875
Northwest Tennessee Veterinary,9840 Highway 22,Dresden,TN,38225, (731) 364-3115, (731) 364-3427
Animal Doctor,224 Memorial Dr,Paris,TN,38242, (731) 642-3123,
Tri County Animal Clinic,40 Connie Allen Rd,Mc Kenzie,TN,38201, (731) 352-6000, (731) 352-0000
Mc Kenzie Veterinary Clinic,1710 Cedar St,Mc Kenzie,TN,38201, (731) 352-5383, (731) 352-5300
Angel Care Cancer Clinic,6923 Stage Rd,Bartlett,TN,38133, (901) 385-9172,
All Creatures Pet Hospital,2050 W. Poplar #106,Collierville,TN,38017, (901) 853-4220, (901) 854-7822
Animal Hosp Raleigh Bartlett,4318 Stage Rd,Memphis,TN,38128, (901) 377-3006, (901) 372-0567
Arlington Animal Clinic,11891 Highway 70,Arlington,TN,38002, (901) 867-8717, (901) 867-0042
Banfield The Pet Hospital,7941 Winchester Rd,Memphis,TN,38125, (901) 756-1315, (901) 756-9795
BrownDog Lodge Veterinary Clinic,9765 US Highway 64,Arlington,TN,38002, (901) 460-2600, (901) 382-0338
Berryhill Animal Hospital Pet,1850 Berryhill Rd,Cordova,TN,38016, (901) 309-6969, (901) 867-7388
Dog & Cat Clinic,2474 Summer Ave,Memphis,TN,38112, (901) 452-4886, (901) 753-1482
Germantown Farmington Animal,1975 Exeter Rd,Germantown,TN,38138, (901) 754-4870, (901) 309-9920
Fox Ridge Animal Hospital,3260 Hickory Hill Rd,Memphis,TN,38115, (901) 362-6688, (901) 362-7835
Germantown Animal Hospital,2185 S Germantown Rd,Germantown,TN,38138, (901) 754-4940, (901) 755-3891
Central Animal Hospital,2192 Central Ave,Memphis,TN,38104, (901) 274-1444, (901) 274-1469
Big Creek Animal Hospital,6543 Navy Rd,Millington,TN,38053, (901) 872-2281, (901) 872-3944
Hickory Hill Animal Hospital,6001 Knight Arnold Road Ext,Memphis,TN,38115, (901) 795-7387, (901) 869-4620
Germanwood Animal Hospital,7245 Winchester Rd,Memphis,TN,38125, (901) 757-5813, (901) 757-5098
Akin Equine Veterinary Svc,6740 Center Hill Rd,Olive Branch,MS,38654, (662) 893-2546,
PetMed Emergency Clinic,555 Trinity Creek Cove,Cordova,TN,38108, (901) 624-9002, (901) 624-9014
Millington Animal Hospital,4637 Navy Road,Millington,TN,38053, (901) 872-0157, (901) 323-0946
All Animal Hospital,5850 Goodman Rd,Olive Branch,MS,38654, (662) 895-4004, (662) 893-7824
Akin Equine Veterinary Svc,6740 Center Hill Rd.,Olive Branch,MS,38654, (901) 854-6773, (901) 890-5764
Utopia Animal Hospital,1157 Madison Avenue,Memphis,TN,38104, (901) 746-8758, (901) 746-8757
The Pet Hospitals-Midtown,2651 Union Ave Extended,Memphis,TN,38112, (901) 457-2995, (901) 853-9531
The Pet Hospitals-Downtown,660 Jefferson Ave,Memphis,TN,38105, (901) 577-9801, (901) 853-9531
Rosemark Veterinary Svc,8780 Gragg Rd,Millington,TN,38053, (901) 829-3467, (901) 372-0567
Southern Crossing Animal Hospital,3545 Southern Ave,Memphis,TN,38111, (901) 452-3171, (901) 452-3622
Walnut Grove Animal Clinic,2959 Walnut Grove Rd,Memphis,TN,38111, (901) 323-1177, (901) 327-1112
US Army Veterinary Service,"5907 Savitz Dr., Bldg S-937",Millington,TN,38054, (901) 874-5420, (901) 874-5422
Walnut Grove Animal Clinic,2959 WALNUT GROVE RD,MEMPHIS,TN,38111, (901) 323-1177, (901) 327-1112
North Shelby Animal Hospital,5074 Easley St,Millington,TN,38053, (901) 873-3291, (901) 873-4493
Center Hill Animal Clinic,14910 Goodman Road,Olive Branch,MS,38654, (662) 895-8387, (901) 756-9795
Cat & Cow Veterinary Clinic,3091 Bethel Road,Olive Branch,MS,38654, (662) 895-3626, (901) 756-9795
Oak Tree Animal Clinic LLC,8550 Bethel Road,Olive Branch,MS,38654, (662) 893-0880, (901) 375-4113
Olive Branch Animal Clinic,10368 Goodman Rd,Olive Branch,MS,38654, (662) 895-5509, (662) 893-4217
Petvax Complete Care Centers - Midtown Memphis,1680 Union Ave.  Suite 101-102,Memphis,TN,38104, (901) 244-6195, (901) 624-9014
Park Avenue Animal Hospital,3734 Park Ave,Memphis,TN,38111, (901) 458-0863, (901) 452-3595
VCA Companion Animal Hospital,306 Poplar View Pkwy,Collierville,TN,38017, (901) 854-9700, (901) 854-0110
Your Pet Dentist of Memphis,555 Trinity Creek Cove,Memphis,TN,38018, (901) 833-8476, (901) 382-7877
Yale Road Animal Hospital,4418 Yale Rd,Memphis,TN,38128, (901) 372-2414, (901) 382-7877
Wolfchase Animal Hospital,3015 N Germantown Rd,Memphis,TN,38133, (901) 371-9653, (901) 371-9686
Walnut Trace Animal Clinic,12 Timber Creek Dr,Cordova,TN,38018, (901) 756-4664, (901) 756-4665
Vet Pets Animal Hospital and Pet Store,"1890 N. Germantown Pkwy, #103",Cordova,TN,38016, (901) 756-5556, (901) 761-9427
Petvax Complete Care Centers - East Memphis,4862 Poplar Ave Ste 102,Memphis,TN,38117, (901) 207-5879, (901) 207-6438
Pet Care Professionals Inc,2651 Union Avenue Ext,Memphis,TN,38112, (901) 324-0202, (901) 324-3333
NORTHGATE ANIMAL HOSPITAL,3200 MILLINGTON RD,MEMPHIS,TN,38127, (901) 358-9111, (901) 624-9014
Memphis Animal Emergency,2192 Central Ave,Memphis,TN,38104, (901) 278-3333, (901) 274-1469
Memphis Animal Clinic,733 East Parkway S,Memphis,TN,38104, (901) 272-7411, (901) 272-1815
Mid-South Spay & Neuter Services,854 Goodman St.,Memphis,TN,38111, (901) 324-3202, (901) 324-3969
Memphis Veterinary Specialists,555 Trinity Creek Cove,Cordova,TN,38108, (901) 624-9002, (901) 624-9014
The Pet Hospitals-Collierville,18 S Byhalia Rd,Collierville,TN,38017, (901) 853-7330, (901) 853-9531
Southwind Animal Hospital,7910 Winchester Rd,Memphis,TN,38125, (901) 362-8321, (901) 795-9127
The Pet Hospitals/Cat Hospital Of Memphis - Dr. O'Brien,1017 Oakhaven Rd.,Memphis,TN,38119, (901) 761-3488, (901) 761-9427
The Pet Hospitals-Lakeland,"2961 Canada Rd, Suite 101",Lakeland,TN,38002, (901) 399-7400, (901) 853-9531
The Pet Hospitals-Houston Levee,1144 North Houston Levee #111,Cordova,TN,38018, (901) 755-0570, (901) 853-9531
The Pet Hospitals-Germantown,"9947 Wolf River Boulevard, Suite #104",Germantown,TN,38139, (901) 850-7330, (901) 853-9531
The Pet Hospitals Poplar at Massey,6300 Poplar Ave Ste 106,Memphis,TN,38119, (901) 457-2995, (901) 853-9531
Grace Animal Hospital,668 South Main St.,Memphis,TN,38103, (901) 590-1230, (901) 523-9539
Getwell Animal Hospital,1262 Getwell Rd,Memphis,TN,38111, (901) 743-6515, (901) 757-5098
Pope Animal Clinic,6920 Winchester Rd,Memphis,TN,38115, (901) 365-1979, (901) 360-8692
Parkway Village Animal Hosp,3855 S Perkins Rd,Memphis,TN,38118, (901) 363-4077, (901) 363-0200
Petvax Complete Care Centers - Raines Road,6515 E Raines Rd,Memphis,TN,38115, (901) 362-2393, (901) 654-3121
PetVax Complete Care Center Germantown,3650 Southwind Park Cove,Memphis,TN,38125, (901) 654-3110, (901) 654-3121
Summer Avenue Animal Hospital,4450 Summer Ave,Memphis,TN,38122, (901) 682-2791, (901) 761-7598
Stage Road Animal Hospital,4359 Stage Rd,Memphis,TN,38128, (901) 382-1950, (901) 382-1958
Animal Health Ctr,2418 State Highway 77,Marion,AR,72364, (870) 739-3382, (870) 739-3804
Shelby Center Hospital for Animals,6923 US Highway 64,Memphis,TN,38133, (901) 372-2215, (901) 377-5876
Raleigh Bartlett Animal Hosp,4318 Stage Rd,Memphis,TN,38128, (901) 388-9550, (901) 372-0567
Petvax Cpmplete Care Center Cordova,830 N. Germantown Pkwy STE 102,Cordova,TN,38018, (901) 512-4597, (901) 512-4692
Mc Gehee Clinic For Animals,712 Mount Moriah Rd,Memphis,TN,38117, (901) 682-5684, (901) 682-5685
Mt Moriah Animal Hospital,5650 Mount Moriah Rd,Memphis,TN,38115, (901) 360-9005, (901) 375-4113
Kelsey Canine Medical Center,"875 West Poplar, Suite 24",Collierville,TN,38017, (901) 861-2275, (901) 861-2274
PetVax Complete Care Centers Bartlett,6963 Highway 70,Bartlett,TN,38133, (901) 373-9496, (901) 373-9537
Pet Fit Animal Rehabilitation & Fitness,1000 Reddoch Cove,Memphis,TN,38119, (901) 405-5385, (844) 273-2950
MobileVet Memphis,1532 Kirby Parkway,Memphis,TN,38120, (901) 569-3683, (901) 435-6748
Mid-South Veterinary Spec,3767 Summer Ave,Memphis,TN,38122, (901) 323-4563, (901) 323-0946
Memphis Veterinary Specialists- Ophthalmology,555 Trinity Creek Cove,Cordova,TN,38018, (901) 323-5203, (901) 624-9014
Humane Society of Memphis & Shelby County,935 Farm Rd.,Memphis,TN,38134, (901) 937-3900, (901) 377-3236
Hillcrest Animal Hospital,6207 Stage Rd,Memphis,TN,38134, (901) 676-7297, (901) 377-3236
Goforth Animal Hospital,7820 Poplar Ave # 4,Germantown,TN,38138, (901) 753-4618, (901) 869-4620
Germantown Parkway Animal Hosp,886 Cordova Station Ave,Cordova,TN,38018, (901) 757-5093, (901) 757-5098
Eastgate Animal Clinic,5082 Park Ave,Memphis,TN,38117, (901) 683-6339, (901) 767-4483
Frayser Raleigh Animal Hosp,3147 Frayser Raleigh Rd,Memphis,TN,38128, (901) 353-9452, (901) 353-9470
Family Veterinary Practice,5712 Stage Rd,Bartlett,TN,38134, (901) 385-8387, (901) 380-4185
Eastwood Animal Clinic & Kidney Clinic,1010 S Yates Rd,Memphis,TN,38119, (901) 761-0930, (901) 767-4483
East Memphis Pet Hospital,492 Perkins Extended,Memphis,TN,38117, (901) 317-4414, (901) 684-0632
Gentle Care Animal Hospital,2958 Covington Pike,Memphis,TN,38128, (901) 273-2273, (901) 273-2274
Bluff City Veterinary Specialists,2651 Union Avenue Extended,Memphis,TN,38112, (901) 498-9661, (901) 867-7388
Forest Hill Animal Hospital,3133 Forest Hill Irene Rd #102,Germantown,TN,38138, (901) 754-5007, (901) 754-5948
Day and Night Animal Hospital,4670 Summer Ave,Memphis,TN,38122, (901) 500-7556, (901) 753-1482
Berclair Animal Hospital,5169 Wheelis Dr,Memphis,TN,38117, (901) 685-8204, (901) 683-5179
Collierville Animal Clinic,474 US Highway 72 W,Collierville,TN,38017, (901) 853-8519, (901) 853-4087
Bowling Animal Clinic,672 Commerce Pkwy.,Collierville,TN,38017, (901) 853-2846, (901) 867-7388
Covington Pike Animal Hospital,5070 Raleigh Lagrange Rd,Memphis,TN,38134, (901) 388-3562, (901) 753-1482
Cordova Station Animal Hosp,989 N Germantown Pkwy,Cordova,TN,38018, (901) 753-3540, (901) 753-1482
Cordova Animal Hospital,7995 Fischer Steel Rd,Cordova,TN,38018, (901) 756-5977, (901) 377-2344
Community Pet Hospital,6552 Summer Ave,Bartlett,TN,38134, (901) 377-2330, (901) 377-2344
Barks and Medication,968 Reddoch Cove,Memphis,TN,38119, (901) 746-8234, (901) 266-5279
Cloverleaf Animal Clinic,749 N White Station Rd,Memphis,TN,38122, (901) 682-5681, (901) 754-6242
Banfield Pet Hospital,2805 Wolfcreek Parkway,Memphis,TN,38133, (901) 266-5044, (901) 266-5279
At Home Pet Vet,7373 Laurel Ridge Cv,Germantown,TN,38138, (901) 755-3639, (901) 317-4402
Arlington Pet Hospital,11065 Highway 70,Arlington,TN,38002, (901) 317-4412, (901) 317-4402
Animal Emergency Center,3767 SUMMER AVE,MEMPHIS,TN,38122, (901) 323-4564, (901) 624-9014
Animal Clinic-Sycamore View,1646 Sycamore View Rd,Memphis,TN,38134, (901) 382-3472, (901) 372-2365
De Soto County Animal Clinic,8330 Highway 51 N,Southaven,MS,38671, (662) 342-4899, (662) 342-4622
Brooks Road Animal Hospital,860 E Brooks Rd,Memphis,TN,38116, (901) 332-4550, (901) 332-4441
Greenbrook Animal Hospital,8928 Swinnea Rd,Southaven,MS,38671, (662) 342-6100, (662) 342-5041
Elmore Road Veterinary Clinic,6145 Elmore Road,Southaven,MS,38671, (662) 253-0274, (662) 253-0276
Horn Lake Animal Hospital,3390 Goodman Rd W,Horn Lake,MS,38637, (662) 393-1116, (662) 393-8426
Animal Care Hospital,8565 US Highway 64,Somerville,TN,38068, (901) 466-9224, (901) 466-3005
Gehring Veterinary Hospital,403 Graham St,West Memphis,AR,72301, (870) 735-5795, (870) 633-7719
Munford Animal Clinic,523 Corbitt Dr,Munford,TN,38058, (901) 837-0101, (901) 837-0103
English Veterinary Care,138 Commercial Drive,Atoka,TN,38004, (901) 837-8413, (901) 837-8414
Animal Care Hospital,1991 Saint John Ave,Dyersburg,TN,38024, (731) 285-6270, (731) 285-8852
Stateline Animal Clinic,100 Guthrie Dr,Southaven,MS,38671, (662) 393-4280, (662) 342-1920
Southaven Animal Hospital,8840 Highway 51 North,Southaven,MS,38671, (662) 393-2417, (901) 346-7585
Snowden Grove Animal Hospital,5165 Getwell Rd,Southaven,MS,38671, (662) 536-1916, (901) 346-7585
Covington Animal Clinic,1281 Highway 51 S,Covington,TN,38019, (901) 476-2026, (901) 476-2022
Gordon Veterinary Clinic,104 Star Shopping Ctr St,Covington,TN,38019, (901) 476-2550, (901) 476-2560
Dyer County Animal Hospital,410 US Highway 51 Byp W,Dyersburg,TN,38024, (731) 285-2043, (731) 287-1923
Walls Animal Hospital,7110 Highway 161,Walls,MS,38680, (662) 781-3536, (662) 781-3521
Raines Road Animal Hospital,1127 E Raines Rd,Memphis,TN,38116, (901) 396-7641, (901) 346-7585
Lauderdale County Veterinary,647 S Washington St,Ripley,TN,38063, (731) 635-9341, (731) 635-5227
Animal Care Hospital,436 Highway 51 N,Ripley,TN,38063, (731) 635-5200, (731) 635-5227
Somerville Animal Hospital,119 W Court Square,Somerville,TN,38068, (901) 465-5322, (901) 466-3005
Old Hatchie Veterinary Clinic,1017 N Main St,Bolivar,TN,38008, (731) 658-3555, (731) 658-3557
Bells Animal Clinic,6077 Highway 412 S,Bells,TN,38006, (731) 663-3476, (731) 663-3473
Haywood Animal Hospital,2538 N Washington Ave,Brownsville,TN,38012, (731) 772-3101, (731) 772-3111
Brownsville Veterinary Clinic,1218 Anderson Ave,Brownsville,TN,38012, (731) 772-0456, (731) 772-1433
VCA Eads Animal Hospital,3210 Cypress Ridge Dr,Eads,TN,38028, (901) 867-7387, (901) 867-7388
Open Arms Animal Hospital,6760 Hurt Rd,Horn Lake,MS,38637, (662) 393-8872, (662) 393-8873
Pet Doctor,10215 Highway 193,Williston,TN,38076, (901) 490-3914, (901) 466-3005
Precious Paws Animal Hospital,3949 Getwell Rd,Southaven,MS,38672, (662) 996-4545, (662) 298-3645
Animal Hospital,310 S Woods St,West Memphis,AR,72301, (870) 735-4186, (870) 735-5386
Bearden Hill Veterinary Clinic,6439 Deane Hill Dr,Knoxville,TN,37919, (865) 588-9547, (865) 584-3256
Farragut Animal Clinic,10226 Kingston Pike,Knoxville,TN,37922, (865) 693-0401, (865) 693-9604
Blackford Veterinary Surgery,1505 Bob Kirby Rd,Knoxville,TN,37931, (865) 670-9185, (865) 531-7149
Countryside Veterinary Svc,2930 Little Dug Gap Rd,Louisville,TN,37777, (865) 983-3155, (865) 983-7871
Forest Park Clinic-Cats & Dogs,318 N Forest Park Blvd,Knoxville,TN,37919, (865) 584-4600, (865) 584-4633
Dogwood Animal Hospital,5900 Chapman Hwy,Knoxville,TN,37920, (865) 577-0344, (865) 577-8210
Lange Animal Hospital PC,10405 Kingston Pike,Knoxville,TN,37922, (865) 690-6481, (865) 690-0238
Governor John Sevier Animal Clinic,3202 W Gov John Sevier Hwy,Knoxville,TN,37920, (865) 579-1090, (865) 573-6037
Four Winds Holistic Animal Services,5312 Homberg Drive,Knoxville,TN,37919, (865) 789-6153, (865) 688-9896
Holistic Veterinary Care,1111 Sevier Ave,Knoxville,TN,37920, (856) 622-8377, (865) 922-1024
Middlebrook Animal Clinic,9229 Middlebrook Pike,Knoxville,TN,37931, (865) 691-8577, (865) 691-8599
Boyd's Creek Animal Hospital,11612 Chapman Hwy,Seymour,TN,37865, (865) 577-2738, (865) 577-5738
Blount Veterinary Clinic,1123 E Broadway Ave,Maryville,TN,37804, (865) 983-4020, (865) 546-8623
PetWellClinic,7329 Kingston Pike,Knoxville ,TN,37919, (865) 272-9491, (865) 523-2617
Knoxville Animal Clinic,5312 Homberg Dr,Knoxville,TN,37919, (865) 584-1588, (865) 584-1580
Animal Hospital of Anderson County,286 S Charles G Seivers Blvd,Clinton,TN,37716, (865) 457-5626, (865) 690-6109
Veterinary Internal Med Rfrrl,215 Center Park Dr,Knoxville,TN,37922, (865) 777-9231, (865) 671-6676
Banfield Pet Hospital,219 Hamilton Crossing Dr,Alcoa,TN,37701, (865) 379-1104, (865) 379-1184
The Veterinary Referral Center,11249 Kingston Pike,Knoxville,TN,37934, (865) 671-6677, (865) 671-6676
Cedarwood Veterinary Hospital,1111 E. Highway 25 70,Newport,TN,37821, (423) 623-4362, (423) 623-8665
Appalachian Veterinary Hosp,231 W Broadway,Newport,TN,37821, (423) 625-1616, (423) 625-0698
White Pine Veterinary Practice,3122 Circle Dr,White Pine,TN,37890, (865) 674-7393, (865) 674-7114
Morristown Animal Hospital,936 Dr Martin Luther King Jr,Morristown,TN,37813, (423) 586-2740, (423) 586-0285
Five Rivers Pet Emergency Clinic,6057 West Andrew Johnson Highway,Talbot,TN,37877, (423) 581-9492, (423) 623-8665
Five Rivers Mobile Veterinary,3010 Neblett Rd,Morristown,TN,37813, (423) 587-4738, (423) 623-8665
Jinks Veterinary Services,4012 Samuel Circle,Maryville,TN,37804, (865) 804-5299, (865) 573-6037
Upper Cumberland Veterinary,102 Main St,Wartburg,TN,37887, (423) 346-3977,
Smoky Mountain Animal Clinic,120 Baldwin Way ,Seymour,TN,37865, (865) 577-4861, (865) 577-4333
Seymour Veterinary Clinic,318 Overlook Dr,Seymour,TN,37865, (865) 577-8056, (865) 573-2086
Midland Pet Emergency Ctr Inc,235 S Calderwood St,Alcoa,TN,37701, (865) 982-1007, (865) 691-8599
Mountain Highway Vet Hospital,2216 E Lamar Alexander Pkwy,Maryville,TN,37804, (865) 982-5554, (865) 982-1441
Clinton Animal Hospital,730 N Charles G Seivers Blvd,Clinton,TN,37716, (865) 457-5007, (865) 463-7252
Mc Arthur Animal Hospital,2190 Oak Ridge Tpke,Oak Ridge,TN,37830, (865) 482-1797, (865) 482-1765
Young Williams Spay/Neuter Solutions,6400 Kingston Pike,Knoxville,TN,37919, (865) 215-6677, (865) 357-1268
Jackson Square Animal Clinic,201 W Tyrone Rd,Oak Ridge,TN,37830, (865) 483-5994, (865) 483-2744
Village Veterinary Hospital,2207 E Broadway Ave,Maryville,TN,37804, (865) 984-6660, (865) 681-4615
Southwind Animal Hospital,2726 East lamar Alexander Parkway,Maryville,TN,37804, (865) 724-1040, (865) 577-4333
My Pet's Animal Hospital,3075 Lois Ln,Alcoa,TN,37701, (865) 984-5620, (866) 764-5981
Oak Ridge Veterinary Hospital,513 Oak Ridge Tpke,Oak Ridge,TN,37830, (865) 483-6614, (865) 769-8807
Ideal Veterinary Hospital,244 Brisbane Rd,Oak Ridge,TN,37830, (865) 483-1334, (865) 483-6686
Fix-A-Pet,10421 Chapman Hwy,Seymour,TN,37865, (865) 579-6738, (865) 577-8210
Morgan County Animal Hospital,1951 Knoxville Hwy,Wartburg,TN,37887, (423) 346-8387,
West Hills Animal Hospital,921 Piney Grove Church Rd,Knoxville,TN,37909, (865) 357-1270, (865) 357-1268
Volunteer Veterinary Hospital,3039 Alcoa Hwy,Knoxville,TN,37920, (865) 609-0311, (865) 609-2933
Tellico Bay Animal Hospital,1240 Highway 411,Vonore,TN,37885, (423) 884-3646, (423) 884-3648
Appalachian Animal Hospital,4285 E Morris Blvd,Morristown,TN,37813, (423) 587-4393, (423) 587-4397
The Visiting Vet,8614 Neubert Springs Rd,Knoxville,TN,37920, (865) 661-1570, (865) 690-8871
Rocky Hill Animal Hospital,7656 S Northshore Dr,Knoxville,TN,37919, (865) 691-8826, (865) 690-8871
West Bearden Veterinary Hosp,8706 Unicorn Dr,Knoxville,TN,37923, (865) 690-4141, (865) 690-1421
Village Veterinary Medical Center,11301 Kingston Pike,Farragut,TN,37934, (865) 966-8900, (865) 675-4297
The Itch Clinic at pet Wellness Center,2833 Louisville Rd,Louisville,TN,37777, (800) 621-1370, (800) 621-1370
Animal Works,3377 Regal Drive,Alcoa,TN,37701, (865) 379-2227, (865) 522-6237
My Pet's Animal Hospital,9450 S. Northshore Dr. #105,Knoxville,TN,37922, (865) 560-0480, (866) 764-5981
Anderson County Animal Hospital - Norris Location,2822 Andersonville Hwy #61,Clinton,TN,37716, (865) 494-8696, (865) 494-7976
Pet Wellness Center,2833 Louisville Road,Louisville,TN,37777, (865) 621-7703, (865) 690-0074
Pellissippi Veterinary Hosp,1727 Schaeffer Rd.,Knoxville,TN,37932, (865) 691-8387, (865) 690-0074
Northshore Animal Hospital,9315 S Northshore Dr,Knoxville,TN,37922, (865) 769-8800, (865) 769-8807
Lovell Animal Hospital,1305 Lovell Rd.,Knoxville,TN,37932, (865) 777-1221, (865) 816-1012
Loudon County Animal Hospital,1201 West Broadway St,Lenoir City,TN,37771, (865) 986-9075, (865) 816-1012
Lentz Veterinary Clinic,11418 Kingston Pike # A,Knoxville,TN,37934, (865) 675-7387, (865) 675-7383
Lenoir City Animal Clinic,601 Highway 321 N,Lenoir City,TN,37771, (865) 986-5450, (865) 986-0651
Cedar Bluff Animal Clinic,9049 Middlebrook Pike,Knoxville,TN,37923, (865) 693-8212, (865) 531-1451
"Butler Veterinary Services, PLLC",10801 Sam Lee Rd,Knoxville,TN,37932, (865) 951-0787, (865) 531-1088
Lake Loudon Large Animal,700 Mashburn Dr,Lenoir City,TN,37772, (865) 986-5086, (865) 539-6810
Hardin Valley Animal Hospital,10017 Hardin Valley Rd,Knoxville,TN,37932, (865) 539-6811, (865) 539-6810
Concord Veterinary Hospital,11904 Kingston Pike,Knoxville,TN,37934, (865) 966-4135, (865) 966-3383
Banfield The Pet Hospital,214 Morrell Rd,Knoxville,TN,37919, (865) 769-7969, (865) 769-7353
Butler Animal Clinic,7545 Oak Ridge Hwy,Knoxville,TN,37931, (865) 531-7311, (865) 531-1088
Cat Clinic,110 Perimeter Park Rd # A,Knoxville,TN,37922, (865) 531-2287, (865) 693-8083
Bluegrass Animal Hospital,9049 Middlebrook Pike,Knoxville,TN,37923, (865) 694-8387, (865) 769-4351
Bluegrass Animal Hospital,1439 Ebenezer Rd,Knoxville,TN,37922, (865) 694-8387, (865) 769-4351
Banfield The Pet Hospital,11134 Parkside Dr,Knoxville,TN,37934, (865) 675-4726, (865) 675-4856
Appalachian Veterinary Speclst,215 Center Park Dr,Concord Farragut,TN,37922, (865) 966-9166, (865) 988-3302
Animal Medical Clinic-Loudon,507 E Broadway St,Lenoir City,TN,37771, (865) 988-7387, (865) 988-3302
Animal Emergency Svc West,1727 Schaeffer Rd,Knoxville,TN,37932, (865) 691-8387, (865) 690-6109
Animal Emergency,10213 Kingston Pike,Knoxville,TN,37922, (865) 693-4440, (865) 690-6109
Banfield Pet Hospital,11134 Parkside Drive,Knoxville,TN,37922, (865) 675-4726, (865) 675-4856
After Hours Pet Emergency Clnc,215 Center Park Dr,Knoxville,TN,37922, (865) 966-3888, (865) 675-1858
Admiral Veterinary Hospital,204 N Watt Rd,Knoxville,TN,37934, (865) 675-1833, (865) 675-1858
Townsend Animal Clinic,7522 E Lamar Alxdr Pkwy ,Townsend,TN,37882, (865) 448-0013, (865) 448-0015
Notchey Creek Veterinary,1255 Ballplay Rd,Madisonville,TN,37354, (423) 442-8524, (423) 337-2566
Animal Clinic,503 Maple Ln,Pigeon Forge,TN,37863, (865) 428-8381,
Sweetwater Veterinary Hospital,1270 Murrays Chapel Rd,Sweetwater,TN,37874, (423) 351-7122, (423) 351-7124
Animal Hospital,1130 W Main St,Morristown,TN,37814, (423) 586-0311, (423) 586-9969
Monroe County Animal Clinic,116 Sands Rd,Sweetwater,TN,37874, (423) 337-7432, (423) 337-2566
Creekside Animal Hospital,1209 Highway 68,Sweetwater,TN,37874, (423) 337-5453, (423) 337-2566
Seelhorst Veterinary Hospital,1510 N Broad St,Tazewell,TN,37879, (423) 626-6343, (423) 869-5011
Lincoln Memorial University,6965 Cumberland Gap Pkwy,Harrogate,TN,37752, (423) 869-3611, (423) 869-5546
Animal Medical & Surgery Ctr,587 Fall Creek Rd,Rockwood,TN,37854, (865) 354-8095,
Russell Veterinary Services,142 Westmoreland St,Harrogate,TN,37752, (423) 869-5040, (423) 869-5011
Animal Medical Ctr Of Rockwood,208 S Chamberlain Ave,Rockwood,TN,37854, (865) 354-8095,
Whisper Ridge Veterinary Hosp,7138 Highway 11w,Rogersville,TN,37857, (423) 921-9600, (423) 921-0043
Tri-county Small Animal Hospital,1054 East Tri-county Bvld,Oliver Springs,TN,37840, (865) 435-1374, (865) 482-1765
Cumberland Animal Clinic,21652 Alberta St,Oneida,TN,37841, (423) 569-5243, (423) 569-8139
Rogersville Veterinary Clinic ,650 W. Broadway St ,Rogersville,TN,37857, (423) 272-7320, (423) 546-4103
Rowland Veterinary Services Inc,1210 Hwy 33 S,New Tazwell,TN,37825, (423) 626-3311,
Dr. B's Healthy Pet LLC,5276 Hwy 11 W,Rogersville,TN,37857, (423) 293-0199, (423) 546-4103
Dog and Cat Depot,318 Farside Dr,Rogersville,TN,37857, (423) 347-2000,
Town & Country Animal Hospital,701 W Highway 11e,Jefferson City,TN,37760, (865) 475-2000, (865) 828-8470
Rutledge Animal Clinic,244 Cherry St,Rutledge,TN,37861, (865) 828-4610, (865) 828-8470
Ridgefield Animal Hospital,5791 W Andrew Johnson Hwy,Morristown,TN,37814, (423) 581-3955, (423) 581-3955
Blue Ridge Veterinary Service,PO Box 59,Bybee,TN,37713, (423) 613-9757, (423) 613-9779
Harrogate Hospital For Animals,6664 Cumberland Gap Pkwy,Harrogate,TN,37752, (423) 869-3666, (423) 869-5546
Moyers Veterinary Clinic East,3411 W Andrew Johnson Hwy,Morristown,TN,37814, (423) 581-9101, (423) 581-3060
Sevier County Animal Clinic,803 Mize Ln,Sevierville,TN,37862, (865) 453-1221, (865) 453-1194
Parkway Animal Hospital,104 South Blvd,Sevierville,TN,37862, (865) 428-0190, (865) 428-3449
Lakeway Animal Hospital,851 E Broadway Blvd,Jefferson City,TN,37760, (865) 475-4786, (865) 471-0676
Tri-County Veterinary Clinic,1935 Boyds Creek Hwy,Sevierville,TN,37876, (865) 577-2866, (865) 249-3470
Moyers Veterinary Hospital,2309 W Andrew Johnson Hwy,Morristown,TN,37814, (423) 586-3544, (423) 586-3824
Mountain Home Veterinary Clinic,302 Middle Creek Rd,Sevierville,TN,37862, (865) 453-9346, (865) 428-4963
Lee Animal Clinic,1408 Old Newport Hwy,Sevierville,TN,37864, (865) 453-3236, (865) 453-3607
Coley Veterinary Svc,903 W Highway 11e,New Market,TN,37820, (865) 475-5121, (865) 475-5176
Tri-County Animal Clinic,465 Broadway Dr,Bean Station,TN,37708, (865) 993-3370, (423) 581-3955
Mason's Veterinary Care,230 Lovin Rd,Mooresburg,TN,37811, (423) 272-0444, (423) 272-6921
Crossroads Animal Clinic,3425 Maynardville Hwy,Maynardville,TN,37807, (865) 922-7387,
Union County Animal Hospital,596 John Deere Drive,Maynardville,TN,37807, (865) 992-7181, (865) 992-7182
Veterinary Centre Of Greenback,6856 Highway 411 S,Greenback,TN,37742, (865) 856-7600, (865) 856-7729
Ppaw Spay/Neuter Clinic,6869 Morganton Rd,Greenback,TN,37742, (865) 856-7729, (865) 856-7729
Tellico Village Animal Clinic,330 Lakeside Plz,Loudon,TN,37774, (865) 408-9500, (865) 986-0651
Maryville Small Animal Medical Center,1919 W Broadway Ave,Maryville,TN,37801, (865) 982-2270, (865) 233-0963
Animal Hospital-Campbell Cnty,2301 Jacksboro Pike # 1,La Follette,TN,37766, (423) 566-8388, (423) 566-8384
LA Follette Veterinary Svc,1621 E Central Ave,La Follette,TN,37766, (423) 562-0060, (423) 562-0069
Maryville Animal Hospital,735 W Lamar Alexander Pkwy,Maryville,TN,37801, (865) 681-0456, (865) 681-6348
Bridlewood Veterinary Svc,315 Highway 113,Dandridge,TN,37725, (865) 397-5060,
Roane Veterinary Hospital,3000 Roane State Hwy,Kingston,TN,37763, (865) 882-6327, (865) 882-0104
Town & Country Animal Hospital,866 Highway 92 S,Dandridge,TN,37725, (865) 397-0200, (865) 475-6127
Stonegate Companion Animal,623 E Meeting St,Dandridge,TN,37725, (865) 397-4060, (865) 397-2559
Kingston Animal Hospital,410 E Race St,Kingston,TN,37763, (865) 376-1100, (865) 882-0104
Animal Medical Ctr,1000 Ladd Landing Blvd,Kingston,TN,37763, (865) 717-3530, (865) 882-0104
Jacksboro Veterinary Svc,168 Indian Mound Cir,Jacksboro,TN,37757, (423) 563-0042, (423) 566-8384
Eastside Veterinary Svc,1515 Industrial Rd,Greeneville,TN,37745, (423) 620-3701, (423) 638-3950
Greene County Veterinary Med,247 Baileyton Rd,Greeneville,TN,37745, (423) 639-1621, (423) 639-4881
Vet Care Animal Hospital,710 Professional Plaza Dr,Greeneville,TN,37745, (423) 638-2273, (423) 787-9708
Rocky Top Veterinary Hospital,5415 Andrew Johnson Highway,Afton,TN,37616, (423) 525-5699, (423) 639-4881
Animal Medical Center of Greenville,370 Morgan Road,Greenville,TN,37745, (423) 639-6777, (423) 639-0743
East Tennesse Vet Hosp,521 N Main St,Greeneville,TN,37745, (423) 638-9600, (423) 638-3950
Stonehill Equine Clinic,7115 Newport Hwy,Greeneville,TN,37743, (423) 639-9200, (423) 798-9476
Duckworth Animal Hospital,103 Mccall Ave,Greeneville,TN,37744, (423) 638-5382, (423) 638-3950
Crestview Animal Hospital,1543 Industrial Rd,Greeneville,TN,37745, (423) 639-1421, (423) 639-5113
Brookfield Animal Hospital,735 W Andrew Johnson Hwy,Greeneville,TN,37745, (423) 639-9594, (423) 639-9392
Animal Medical Center-Roane County,104 1/2 Cardiff Dr,Harriman,TN,37748, (865) 882-0818, (865) 882-0104
Foothills Veterinary Hospital,1720 W Lamar Alexander Pkwy,Maryville,TN,37801, (865) 984-0404, (865) 984-0491
Chilhowee Veterinary Clinic,821 Montvale Rd,Maryville,TN,37803, (865) 977-6958, (865) 977-6971
"Big Springs Veterinary Hospital, PLLC",820 Ross Dr,Maryville,TN,37801, (865) 984-0404, (865) 984-0491
Fairview Animal Hospital,2648 US Highway 411 S,Maryville,TN,37801, (865) 379-8833, (865) 379-6074
Gatlinburg Animal Hospital,4545 E Parkway,Gatlinburg,TN,37738, (865) 436-5113,
Veterinary Ophthalmology Svc,7339 Nolensville Rd,Nolensville,TN,37135, (615) 776-2019, (813) 754-1670
Uppereast Veterinary Clinic,131 1st Ave,Hampton,TN,37658, (423) 725-2743, (423) 772-4272
Veterinary Medical Ctr,205 Princeton Rd,Johnson City,TN,37601, (423) 282-4113, (423) 282-4125
Andes-Straley Veterinary Hosp,3407 Memorial Blvd,Kingsport,TN,37664, (423) 378-4443, (423) 378-4012
Roan Mountain Animal Hospital,8651 Highway 19 E,Roan Mountain,TN,37687, (423) 772-4124, (423) 772-4272
Young's Animal Hospital,1802 W Market St,Johnson City,TN,37604, (423) 926-3878, (423) 928-0241
Blue Ridge Animal Hospital,3741 West Market Street Suite 1,Johnson City,TN,37604, (423) 753-7387, (423) 323-7840
Roark Small Animal Clinic,1205 N. Wilcox Dr. ,Kingsport,TN,37660, (423) 732-7105, (423) 732-7107
Mount Carmel Pet Hospital,204 Main St,Mount Carmel,TN,37645, (423) 357-4221, (423) 357-8669
Kingsport Veterinary Hospital,524 W Center St,Kingsport,TN,37660, (423) 246-8561, (423) 245-8331
Indian Ridge Animal Hospital,1100 Indian Trail Dr,Kingsport,TN,37660, (423) 378-4753, (423) 378-3156
Sycamore Shoals Animal Hosp,851 W Elk Ave,Elizabethton,TN,37643, (423) 542-3368, (423) 542-4847
Tri County Veterinary Hospital,4389 Hwy 11E,Bluff City,TN,37618, (423) 391-0303, (423) 542-4847
Unicoi Hospital For Animals,2210 N Main Ave,Erwin,TN,37650, (423) 743-9172, (423) 743-5920
Elizabethton Veterinary Clinic,1261 19e Byp,Elizabethton,TN,37643, (423) 543-1271, (423) 975-6342
Cherry Point Animal Hospital,101 Island Rd,Kingsport,TN,37664, (423) 279-9996, (423) 279-0983
Animal Medical Clinic,2012 W State St,Bristol,TN,37620, (423) 764-2428, (423) 764-9070
Church Hill Vet Hospital,170 S Central Ave,Church Hill,TN,37642, (423) 256-2882, (423) 246-1677
Allandale Animal Hospital,208 Lewis Ln,Kingsport,TN,37662, (423) 246-3041, (423) 246-1677
Paws of Hope Animal Wellness,231 Hwy 19 E,Bluff City,TN,37618, (423) 391-0224, (423) 975-6342
Robinson Animal Hospital NJC,3026 Peoples St,Johnson City,TN,37604, (423) 218-1305, (423) 631-0115
Robinson Animal Hospital,119 Foy Fitch Lane,Gray,TN,37615, (423) 477-0810, (423) 477-2964
Robinson Animal Hospital,202 W Watauga Ave,Johnson City,TN,37604, (423) 928-1616, (423) 975-6342
Ferguson Animal Hospital,316 7th Street,Bristol,TN,37620, (423) 764-8335, (423) 764-9884
The Itch Clinic,109 Butler Drive,Bristol,TN,37620, (423) 844-0525, (423) 968-1859
Volunteer Animal Clinic,2515 Volunteer Pkwy,Bristol,TN,37620, (423) 968-7543, (423) 968-1859
Jones Animal Hospital,603 Volunteer Pkwy,Bristol,TN,37620, (423) 968-7011, (423) 968-1859
Bristol Animal Clinic,930 Commonwealth Ave,Bristol,VA,24201, (276) 466-4113, (276) 466-0128
Pinecrest Veterinary Clinic,1264 Milligan Hwy,Johnson City,TN,37601, (423) 926-6091, (423) 926-4348
Northridge Veterinary Clinic,3125 Bristol Hwy,Johnson City,TN,37601, (423) 282-2691, (423) 282-1025
Mountain Empire Small Animal,4340 N Roan St,Johnson City,TN,37615, (423) 282-3771, (423) 282-1025
Mountain Empire Large Animal,4340 N Roan St,Johnson City,TN,37615, (423) 282-6194, (423) 282-3428
Taylor Animal Clinic,2062 Highway 67 W,Mountain City,TN,37683, (423) 727-6203, (423) 727-6203
Good News Spay & Neuter Clinic,1355 Milligan Hwy,Johnson City,TN,37601, (423) 926-4853, (423) 928-4853
Fort Henry Animal Hospital,3786 Fort Henry Dr,Kingsport,TN,37663, (423) 239-6711, (423) 239-0433
Family Pet Veterinary Hospital,4399 Highway 11 W # 2,Blountville,TN,37617, (423) 279-1738, (423) 239-3801
Companion Animal Hospital,3315 Roller Dr,Kingsport,TN,37663, (423) 239-3921, (423) 239-3801
Colonial Heights Animal Hosp,209 Colonial Heights Rd,Kingsport,TN,37663, (423) 239-5116, (423) 239-3801
Cherokee Hospital For Animals,708 Cherokee Rd,Johnson City,TN,37604, (423) 928-7272, (423) 928-4011
Boones Creek Animal Hospital,1750 Old Gray Station,Johnson City,TN,37615, (423) 282-1827, (423) 282-4109
Boones Creek Animal Hospital,1750 Old Gray Station,Johnson City,TN,37615, (423) 282-1827, (423) 282-4109
Blountville Veterinary Hosp,3030 Highway 126,Blountville,TN,37617, (423) 323-4153, (423) 323-7840
Banfield The Pet Hospital,3211 Peoples St,Johnson City,TN,37604, (423) 283-9077, (423) 283-0790
Airport Pet Emergency Clinic,2436 Highway 75,Blountville,TN,37617, (423) 279-0574, (423) 279-0858
Appalachian Animal Hospital,5462 Highway 11 E,Piney Flats,TN,37686, (423) 538-8119, (423) 538-0459
Sanders Animal Hospital,1614 Boones Creek Rd.,Jonesborough,TN,37659, (423) 788-0194, (423) 753-2347
Town & Country Animal Hospital,45 Ponderosa Ln,Telford,TN,37690, (423) 913-2737, (423) 913-2836
Jonesborough Animal Hospital,1398 W Jackson Blvd,Jonesborough,TN,37659, (423) 753-5868, (423) 753-2347
Value Vet Nolensville,2509 Nolensville Pike #B,Nashville,TN,37211, (615) 244-3040, (813) 754-1670
Two Rivers Veterinary Hospital,2614 Old Lebanon Pike,Nashville,TN,37214, (615) 884-0394, (813) 754-1670
Value Vet Hermitage,3423 Lebanon Pike,Hermitage,TN,37076, (615) 874-2255, (813) 754-1670
Southside Animal Hospital,5837 Nolensville Pike,Nashville,TN,37211, (615) 333-3655, (615) 831-9128
Priest Lake Veterinary Hosp,2445 Morris Gentry Blvd,Antioch,TN,37013, (615) 361-4646, (615) 360-1055
Premier Vetcare,13197 Old Nashville Hwy,Smyrna,TN,37167, (615) 459-0802, (615) 459-0806
Smyrna Animal Clinic,1207 Hazelwood Dr,Smyrna,TN,37167, (615) 459-5652, (615) 459-5655
Southern Veterinary Ctr LLC,111 Mayfield Dr,Smyrna,TN,37167, (615) 459-0073, (615) 459-9494
Vetco,234 Parkway Dr,Fort Oglethorpe,GA,30742, (877) 838-7468, (423) 296-4386
Pet Med,1120 Bell Rd,Antioch,TN,37013, (615) 731-8074, (615) 731-5491
Pets R Us Vet,1850 Almaville Rd,Smyrna,TN,37167, (615) 768-5551, (615) 731-5491
Pet Bliss Mobile Veterinary Services,,Nashville,TN,37211, (615) 829-0222, (877) 882-0338
VCA Companion Animal Hospital,6724 E Brainerd Rd,Chattanooga,TN,37421, (423) 892-6851, (423) 296-4386
Standifer Gap Pet Hospital,8116 Standifer Gap Rd,Chattanooga,TN,37421, (423) 855-5602, (423) 296-4386
Shallowford Animal Hospital,6200 Shallowford Rd,Chattanooga,TN,37421, (423) 892-6671, (423) 899-2683
Northgate Animal Hospital,1600 Hamill Rd,Hixson,TN,37343, (423) 875-9033, (423) 875-9064
Signal Mountain Veterinary,903 Ladder Trl,Signal Mountain,TN,37377, (423) 886-1747, (423) 886-7303
Regional Institute for Veterinary Emergencies & Referrals (R.I.V.E.R.),2132 Amnicola Hwy,Chattanooga,TN,37406, (423) 698-4612, (423) 622-8145
Wolftever Pet Hospital,6225 Highway 58,Harrison,TN,37341, (423) 344-1913, (423) 344-7071
Red Bank Animal Hospital,4416 Dayton Blvd,Chattanooga,TN,37415, (423) 877-8174, (423) 877-5402
Ooltewah Animal Clinic,5617 Main St,Ooltewah,TN,37363, (423) 238-5087, (423) 238-3940
Lee Parkway Veterinary Clinic,116 Lee Parkway Dr,Chattanooga,TN,37421, (423) 892-2219, (423) 894-5114
Pet Medical Ctr,100 Mitchell Blvd,Tullahoma,TN,37388, (931) 393-2707, (931) 393-2702
Nisbett's Animal Hospital,614 E Carroll St,Tullahoma,TN,37388, (931) 455-4468, (931) 454-9720
Animal Clinic Of Tullahoma,2230 N Jackson St,Tullahoma,TN,37388, (931) 455-8157, (931) 454-9720
Crownover Animal Clinic,811 N Atlantic St,Tullahoma,TN,37388, (931) 455-6886, (931) 454-9720
Tyree Veterinary Svc,12131 Prism Trl,Harrison,TN,37341, (423) 326-1000, (423) 296-4386
VIP Petcare,5756 Hwy 152,Chattanooga,TN,37343, (800) 427-7973, (423) 803-4073
Vet2Go Housecalls,PO Box 2005,Hixson,TN,37343, (423) 400-0356, (423) 296-4386
Middle Valley Animal Hospital,6310 Hixson Pike,Hixson,TN,37343, (423) 842-6758, (423) 843-3753
Town & Country Veterinary Hosp,44 Aedc Rd,Winchester,TN,37398, (931) 967-3666, (931) 967-3698
Midtown Veterinarian,505 S Jefferson Street,Winchester,TN,37398, (931) 962-3411, (931) 967-7128
Animal Care Center,1626 Sharp Springs Rd,Winchester,TN,37398, (931) 967-6345, (931) 967-7128
Animal Hospital Of Signal Mtn,1801 Taft Hwy,Signal Mountain,TN,37377, (423) 886-7387, (423) 886-0007
Hixson Pet Wellness Center,"5510 Hyw 153, Suite 199",Hixson,TN,37343, (423) 390-0768, (423) 390-8939
Banfield The Pet Hospital,5591 Highway 153,Hixson,TN,37343, (423) 874-0138, (423) 499-9648
James T Ray DVM,155 Unaka St,Red Bank,TN,37415, (423) 877-9966, (423) 870-9282
Highway 58 Animal Hospital,4933 Highway 58,Chattanooga,TN,37416, (423) 892-8539, (423) 892-9868
Fort Oglethorpe Veterinary,2055 Lafayette Rd,Fort Oglethorpe,GA,30742, (706) 866-4785, (423) 622-7856
East Ridge Animal Hospital,3702 Ringgold Rd,Chattanooga,TN,37412, (423) 622-2209, (423) 622-7856
Veterinary Care & Specialty Group,3201 Broad Street,Chattanooga,TN,37408, (423) 591-0270, (423) 803-4073
East Brainerd Animal Hospital,8488 E Brainerd Rd,Chattanooga,TN,37421, (423) 894-0028, (423) 892-2125
Claws & Paws Mobile Vet Service,,Chattanooga,TN,37415, (423) 779-7467, (423) 648-9209
Chattanooga Veterinary Center,6146 Lee Highway,Chattanooga,TN,37421, (423) 648-9000, (423) 648-9209
Signal View Animal Clinic,305 Signal Mountain Rd,Chattanooga,TN,37405, (423) 265-7667, (423) 265-8118
Riverview Animal Hospital,641 North Market St,Chattanooga,TN,37405, (423) 756-6011, (423) 756-9306
Northshore Veterinary Clinic,525 Cherokee Blvd,Chattanooga,TN,37405, (423) 756-6882, (423) 305-0807
Mountain Hospital For Animals,128 N Watauga Ln,Lookout Mountain,TN,37350, (423) 821-8000, (423) 821-9726
Chattaneuter Spay /Neuter Clinic,5950 Brainerd Rd ,Chattanooga,TN,37421, (423) 531-7729, (423) 892-7387
Brainerd Hills Veterinary Hospital,6724 East Brainerd Road,Chattanooga,TN,37421, (423) 894-8554, (423) 892-7387
Main St Pet Wellness,1132 East Main Street,Chattanooga,TN,37408, (423) 254-5370, (423) 825-1486
Cat Clinic of Chattanooga,310 Cherokee Blvd.,Chattanooga,TN,37405, (423) 752-0737, (423) 648-5864
Banfield The Pet Hospital,2130 Gunbarrel Rd,Chattanooga,TN,37421, (423) 499-9040, (423) 499-9648
Brainerd Animal Hospital,5950 Brainerd Rd,Chattanooga,TN,37421, (423) 892-5141, (423) 499-9648
Ashland Terrace Animal Hosp,907 Ashland Ter,Chattanooga,TN,37415, (423) 877-4576, (423) 877-5419
Lookout Valley Pet Hospital,320 Browns Ferry Rd,Chattanooga,TN,37419, (423) 825-1484, (423) 825-1486
Chattanooga Holistic Animal Institute ,918 E. Main St,Chattanooga,TN,37408, (423) 531-8899, (423) 485-3069
Applebrook Animal Hospital,9504 Lee Hwy,Ooltewah,TN,37363, (423) 238-7387, (423) 238-4060
Animal Medical Professionals of Ooltewah,5620 Main St,Ooltewah,TN,37363, (423) 238-5870, (423) 238-4060
Animal Medical Ctr,1673 Battlefield Parkway,Fort Oglethorpe,GA,30742, (706) 861-0873, (706) 858-1846
Animal Medical Ctr,1673 Battlefield Pkwy,Fort Oglethorpe,GA,30742, (706) 861-0873, (706) 858-1846
Animal Emergency & Specialty Center of Chattanooga,6393 Lee Highway,Chattanooga,TN,37421, (423) 822-8304, (423) 709-8227
Animal Clinic-Twenty Third St,2223 E 23rd St,Chattanooga,TN,37407, (423) 698-2401, (423) 698-3056
Animal Clinic East,1414 Gunbarrel Rd,Chattanooga,TN,37421, (423) 894-8495, (423) 894-0175
Nolensville Veterinary Hospital,7204 Nolensville Rd,Nolensville,TN,37135, (615) 776-5499, (615) 776-2144
Nippers Corner Pet Medical Ctr,5714 Edmondson Pike,Nashville,TN,37211, (615) 833-7387, (615) 361-2844
Nashboro Animal Hospital PC,2115 Murfreesboro Pike,Nashville,TN,37217, (615) 360-9222, (615) 360-9291
Nashville Cat Clinic,432 Bell Rd,Nashville,TN,37217, (615) 361-1844, (615) 361-2844
Metro Animal Care and Control,5125 Harding Place,Nashville,TN,37211, (615) 862-7928, (615) 883-0097
Mill Creek Animal Hospital,7240 Nolensville Road Ste 305,Nolensville,TN,37135, (615) 819-2634, (615) 883-0097
Mc Cormick Animal Clinic,3252 Blackwood Dr,Nashville,TN,37214, (615) 883-8280, (615) 883-0097
Cumberland Veterinary Clinic,PO Box 878,Tracy City,TN,37387, (931) 592-5522,
Little Urban Vet Clinic ,64 Hermitage Ave,Nashville,TN,37210, (615) 942-7020, (615) 885-5014
Lebanon Road Animal Hospital,3444 Lebanon Pike,Hermitage,TN,37076, (615) 883-3261, (615) 885-5014
Monroe County Animal Clinic,177 Bank St # 4,Tellico Plains,TN,37385, (423) 253-7050,
KIRK Veterinary Clinic,Highway 41,Jasper,TN,37347, (423) 837-5560, (423) 837-4068
KIRK Veterinary Clinic,1960 Main St,Jasper,TN,37347, (423) 942-5522, (423) 837-4068
Sequatchie Valley Animal Hosp,6963 Highway 41,Jasper,TN,37347, (423) 942-5435, (423) 942-5434
Pet Clinic,1121 Willow Ave,South Pittsburg,TN,37380, (423) 837-5551, (423) 837-4068
Soddy-Daisy Animal Clinic,8851 Dayton Pike,Soddy Daisy,TN,37379, (423) 332-2829, (423) 332-6707
Maxwell Animal Clinic,857 Main St,Pikeville,TN,37367, (423) 447-2944,
Pet Clinic,111 New Englewood Rd,Athens,TN,37303, (423) 745-8107, (423) 745-6561
Union Hill Veterinary Hospital,1405 Highway 30 E,Athens,TN,37303, (423) 744-7049, (423) 745-6561
Offutt Veterinary Svc,101 New Englewood Rd,Athens,TN,37303, (423) 745-6564, (423) 745-6561
Home-Vet,401 County Road 709,Riceville,TN,37370, (423) 745-4872, (423) 336-2887
Bradley Mc Minn Pet Emergency,9017 Hiwassee St NW,Charleston,TN,37310, (423) 336-2822, (423) 336-2887
Animal Clinic,828 Rocky Mount Rd,Athens,TN,37303, (423) 745-7436, (423) 745-1433
Hackett Animal Clinic,2027 Mcarthur St,Manchester,TN,37355, (931) 728-7580, (931) 728-7590
All Creatures Veterinary Clnc,1567 Mcminnville Hwy,Manchester,TN,37355, (931) 723-0551, (931) 728-0552
Coffee Veterinary Hospital,184 Interstate Dr,Manchester,TN,37355, (931) 728-1430, (931) 728-6400
Sequoyah Animal Hospital,222 Sequoyah Access Road,Soddy Daisy,TN,37379, (423) 332-0979, (423) 875-9064
Animal Health Clinic,1722 Hillsboro Blvd,Manchester,TN,37355, (931) 728-6633, (931) 728-6639
Animal Aid,213 Tellico Avenue,Athens,TN,37303, (423) 453-5149,
Lavergne Veterinary Clinic,5046 Murfreesboro Rd,La Vergne,TN,37086, (615) 793-5333, (615) 793-5394
Lakeside Animal Hospital,3954 Dodson Chapel Rd.,Hermitage,TN,37076, (615) 761-9448, (615) 401-9177
Hickory Plaza Veterinary Clnc,5710 Hickory Plz,Nashville,TN,37211, (615) 833-3945, (615) 331-6669
Hermitage Animal Clinic,4231 Lebanon Pike,Hermitage,TN,37076, (615) 889-9150, (615) 889-1273
Grassmere Animal Hospital,3926 Nolensville Pike,Nashville,TN,37211, (615) 832-6535, (615) 781-6367
Elm Hill Veterinary Clinic,2733 Old Elm Hill Pike,Nashville,TN,37214, (615) 885-0813, (615) 885-7670
Donelson Animal Hospital,2518 Lebanon Pike,Nashville,TN,37214, (615) 883-3236, (615) 883-3205
Creature Comforts,536 Paragon Mills Rd,Nashville,TN,37211, (615) 833-4078, (615) 315-9599
Banfield the Pet Hospital,807 Industrial Blvd.,Smyrna,TN,37167, (615) 220-3600, (615) 220-0029
Blue Springs Vet Svc,5574 Hillsboro Hwy,Hillsboro,TN,37342, (931) 596-3565, (931) 596-3805
Banfield Pet Hospital,4642 Lebanon Pike,Hermitage,TN,37076, (615) 872-5282, (615) 834-8913
Starr Mountain Animal Clinic,1231 Lillard Memorial Hwy,Etowah,TN,37331, (423) 263-2155,
Mecca Pike Animal Hospital,467 Highway 310,Etowah,TN,37331, (423) 263-1704,
Park City Veterinary Clinic,2694 Huntsville Hwy,Fayetteville,TN,37334, (931) 240-4001, (931) 291-9091
Highland Rim Animal Clinic,2907 Huntsville Hwy,Fayetteville,TN,37334, (931) 433-2078, (931) 433-2045
Animal Medical Ctr,3350 Henderson Ave NW,Cleveland,TN,37312, (423) 479-4744, (423) 479-2677
Animal Hospital,9961 Rhea County Hwy,Dayton,TN,37321, (423) 775-1058, (423) 775-9408
Community Animal Hospital,2845 Westside Dr. NW,Cleveland,TN,37312, (423) 472-3252, (423) 472-3253
Cleveland Animal Hospital,2260 S Lee Hwy,Cleveland,TN,37311, (423) 472-6031, (423) 472-6031
Animal Hospital Of Decatur,16442 State Highway 58 S,Decatur,TN,37322, (423) 334-2738, (423) 334-2788
Wilson Veterinary Clinic,665 Urbane Rd NE,Cleveland,TN,37312, (423) 559-9690, (423) 559-8492
Visiting Pet Vet,349 New Hope Road,Cleveland ,TN,37323, (423) 421-4559, (423) 339-3142
South Rhea Animal Hospital,865 Rhea County Hwy,Dayton,TN,37321, (423) 775-5619, (423) 570-0581
Rhea Pet Medical Center,2040 Hiwassee Highway,Dayton,TN,37321, (423) 428-9393, (423) 428-9396
Taylor Animal Hospital,2840 Keith St NW,Cleveland,TN,37312, (423) 476-6551, (423) 339-3142
Mountainstone Veterinary Hosp,1626 Stuart Rd NE,Cleveland,TN,37312, (423) 559-9911, (423) 476-9423
Bishop Animal Hospital,141 George Bates Rd,Benton,TN,37307, (423) 338-5077, (423) 338-5202
Keith Street Animal Clinic,1990 Keith St NW,Cleveland,TN,37320, (423) 476-1804, (423) 476-9423
Dixie's Day Spay,182 Airport Rd,Cleveland,TN,37312, (423) 476-7122, (423) 472-3253
Bradley Veterinary Hospital,5527 Georgetown Rd NW,Cleveland,TN,37312, (423) 479-2051, (423) 479-8964
Appalachian Animal Clinic,2160 Spring Place Rd SE,Cleveland,TN,37323, (423) 479-4760, (423) 476-2094
Valley Animal Clinic,16 Main St S,Dunlap,TN,37327, (423) 949-2253, (423) 949-5202
Fayetteville Animal Clinic,1920 Wilson Pkwy,Fayetteville,TN,37334, (931) 433-1202, (931) 433-1459
Apache Trail Animal Hospital,3925 Apache Trail,Antioch,TN,37013, (615) 833-7474, (615) 834-8913
Antioch Pike Veterinary Hosp,2631 Una Antioch Pike,Antioch,TN,37013, (615) 333-1144, (615) 834-8913
Animal House Veterinary Clinic,223 Largo Dr,Nashville,TN,37211, (615) 834-6441, (615) 834-8913
Animal Allergy & Dermatology,5837 Nolensville Pike,Nashville,TN,37211, (615) 831-2898, (615) 831-9128
Airport Animal Clinic,217 Pineway Dr,Nashville,TN,37217, (615) 367-9319, (615) 360-8718
Banfield the Pet Hospital,"6622 Charlotte Pike, Ste 108",Nashville,TN,37209, (615) 353-3800,
VCA Murphy Road Animal Hospital PC,4408 Murphy Rd,Nashville,TN,37209, (615) 383-4241, (615) 383-9096
Richland Animal Clinic,6109 Charlotte Pike,Nashville,TN,37209, (615) 356-6534, (615) 353-0868
Family & Friends Veterinary Care,3838 Old Hickory Blvd Ste B,Old Hickory,TN,37138, (615) 357-0289, (615) 357-0385
Volunteer Veterinary Clinic,160 New Shackle Island Rd,Hendersonville,TN,37077, (615) 824-8411, (615) 822-7902
Value Vet Main Street,938 Main Street,Nashville,TN,37206, (615) 915-5525, (615) 369-3075
Value Vet,938 Main Street,Nashville,TN,37206, (615) 244-3040, (615) 369-3075
Pet Center,14415 Lebanon Rd,Old Hickory,TN,37138, (615) 758-5843, (615) 386-0109
Dr Tobe Singleton Personalized Mobile Veterinary Services,,Nashville,TN,37203, (615) 347-2332, (615) 883-3205
City Pets Animal Care,1016 Jefferson Street,Nashville,TN,37208, (615) 678-8013, (615) 928-6116
5 Points Animal Hospital,1103 Woodland St.,Nashville,TN,37206, (615) 750-2377, (615) 750-5864
Harris Veterinary Clinic,6410 Charlotte Pike # 109,Nashville,TN,37209, (615) 356-7939, (615) 356-7958
Cannon County Animal Clinic,124 Masey Dr,Woodbury,TN,37190, (615) 563-4022, (615) 563-5022
Woodbury Veterinary Clinic,102 N Dillon St,Woodbury,TN,37190, (615) 563-8387, (615) 563-9388
Kinard Animal Hospital,1062 Middle Tennessee Blvd,Murfreesboro,TN,37129, (615) 849-7387, (615) 217-8116
Orchard Park Animal Hospital,3838 Cross Plains Rd,White House,TN,37188, (615) 672-4200, (615) 672-4250
White House Animal Hospital,2950 Highway 31 W,White House,TN,37188, (615) 672-0357, (615) 672-8708
East Brook Animal Clinic,2695 Highway 70 E,Waverly,TN,37185, (931) 296-9900, (931) 296-9925
Kingston Springs Animal Hosp,170 Luyben Hills Rd,Kingston Springs,TN,37082, (615) 952-4556, (615) 952-5035
Cascade Veterinary Hospital,2849 Fairfield Pike,Wartrace,TN,37183, (931) 389-0449, (931) 389-9295
Murfreesboro Pet Emergency,2223 Northwest Broad St,Murfreesboro,TN,37129, (615) 890-1259, (615) 893-7367
Murfreesboro Animal Clinic,1616 Memorial Blvd,Murfreesboro,TN,37129, (615) 893-0825, (615) 893-7367
Avenue Animal Hospital,1725 N Mt. Juliet Rd,Mt Juliet,TN,37122, (615) 553-4855, (615) 591-1235
Animal Clinic,580 W Main St,Hendersonville,TN,37075, (615) 824-0580, (615) 683-6629
Veterinary Associates,2114 N Thompson Ln,Murfreesboro,TN,37129, (615) 895-1240, (615) 849-8633
Stones River Veterinary Hospital,3164 Memorial Boulevard,Murfreesboro,TN,37129, (615) 410-7091, (855) 852-6930
Countryside Animal Hospital,49 Nonaville Road,Mount Juliet,TN,37122, (615) 758-6406, (615) 758-6324
Black Fox Veterinary Hospital,1741 S Rutherford Blvd # P,Murfreesboro,TN,37130, (615) 907-8387, (615) 907-8344
Village Veterinary Clinic,3578 N Mount Juliet Rd,Mt Juliet,TN,37121, (615) 754-2040, (615) 288-2178
VCA Animal Care Center of Mt. Juliet,2701 N MOUNT JULIET RD,MOUNT JULIET,TN,37122, (615) 754-7387, (615) 758-8430
"Vet Med Animal Health, PLLC",105 Industrial Drive Suite 1,Mount Juliet,TN,37122, (615) 553-4156, (615) 553-4161
Mobile Pet vet of Wilson County,P.O. Box 1824,Mount Juliet,TN,37121, (615) 773-0678, (615) 758-6324
Noah's Friends,4648 E Jefferson Pike,Lascassas,TN,37085, (615) 890-8140, (615) 217-9091
Savannah's Crossing Veterinary Hospital,2395 New Salem Rd ,Murfreesboro,TN,37128, (615) 410-7697, (615) 459-0806
Town & Country Animal Hospital,2331 S Chancery St,Mc Minnville,TN,37110, (931) 668-5151, (931) 668-5205
Providence Animal Hospital & Pet Resort,113 Belinda Parkway,Mt. Juliet,TN,37122, (615) 553-2221, (615) 553-2225
New Shackle Island Veterinary,538 New Shackle Island Rd,Hendersonville,TN,37075, (615) 826-0014, (615) 264-6662
Sparta Road Veterinary Clinic,4021 Sparta Hwy,Mc Minnville,TN,37110, (931) 668-2393, (931) 815-3119
Mc Minnville Animal Clinic,57 Campen Ln,Mc Minnville,TN,37110, (931) 473-4129, (931) 473-4129
Mc Minnville Animal Care,615 Red Rd,Mc Minnville,TN,37110, (931) 473-2533, (931) 473-2533
Indian Hills Animal Hospital,2838 S Church St,Murfreesboro,TN,37127, (615) 217-9292, (615) 217-9091
Indian Lake Animal Clinic,105 Indian Lake Rd,Hendersonville,TN,37075, (615) 824-6700, (615) 264-9157
South Church Animal Hospital,1014 S Church St,Murfreesboro,TN,37130, (615) 895-4850, (615) 849-1351
CreekWood Veterinary Hospital,4520 Veterans Parkway,Murfreesboro,TN,37128, (615) 956-2525, (615) 956-2526
KAT & Dog Housecalls,3002 Penny Ln,Murfreesboro,TN,37130, (615) 217-9599, (615) 217-9091
Beesley Animal Spay-Neuter,2215 Keenland Commercial Blvd,Murfreesboro,TN,37127, (615) 890-6878, (615) 890-6195
Williams Animal Hospital,198 Chaffin Pl,Murfreesboro,TN,37129, (615) 895-0650, (615) 895-6958
Veterinary Services,1806 Memorial Blvd # C,Murfreesboro,TN,37129, (615) 896-9524, (615) 867-0333
Warren Animal Hospital,3461 Memorial Blvd,Murfreesboro,TN,37129, (615) 895-8126, (615) 895-8126
Barfield Animal Hospital,3155 S Church St,Murfreesboro,TN,37127, (615) 217-8484, (615) 396-8279
"Hendersonville Animal Hospital, LLC",698 East Main Street,Hendersonville,TN,37075, (615) 822-1700, (615) 822-0990
Graham Animal Hospital,125 Walton Ferry Rd,Hendersonville,TN,37075, (615) 824-1883, (615) 824-3434
Animal Medical Ctr LLC,234 River Rock Blvd,Murfreesboro,TN,37128, (615) 867-7575, (615) 867-7028
Animal Care Veterinary Hosp,2750 New Salem Rd.,Murfreesboro,TN,37128, (615) 896-3434, (615) 896-9503
Banfield The Pet Hospital,401 S Mount Juliet Rd,Mt Juliet,TN,37122, (615) 773-2299, (615) 773-3511
Affordable Veterinary Care,11314 Lebanon Rd,Mount Juliet,TN,37122, (615) 788-8008, (615) 750-5864
Shelbyville Animal Hospital,628 N Main St,Shelbyville,TN,37160, (931) 684-8088, (931) 684-8828
Rollins Hills Equine Clinic,3909 Highway 231 N,Shelbyville,TN,37160, (615) 233-5502, (931) 684-8828
Northpoint Animal Hospital,2422 HWY 231 N,Shelbyville,TN,37160, (931) 684-1180, (931) 684-8828
Mullins Equine Veterinary Svc,418 Sandusky Rd,Shelbyville,TN,37160, (931) 680-4459, (931) 437-2466
Equine Services LLC,3515 US-231,Shelbyville,TN,37160, (931) 437-2463, (931) 437-2466
Baum Equine Clinic & Svc,1220 Union St,Shelbyville,TN,37160, (931) 685-4382,
Wheeler Veterinary Clinic,690 N Congress Blvd,Smithville,TN,37166, (615) 597-3770, (615) 597-2838
Brogli Lane Weaver & Brogli,1807 NW Broad St,Murfreesboro,TN,37129, (615) 893-1728, (615) 898-0503
Banfield Pet Hospital,1734 Old Fort Pkwy,Murfreesboro,TN,37129, (615) 890-5490, (615) 890-4113
Portland Animal Hospital,1105 S Broadway,Portland,TN,37148, (615) 325-6453, (615) 325-1548
Robertson County Animal Clinic,800 5th Ave E,Springfield,TN,37172, (615) 384-5393, (615) 384-8904
De Kalb Animal Clinic,1020 W Broad St,Smithville,TN,37166, (615) 597-1950, (615) 597-2838
Animal Clinic Of Smithville,440 E Broad St,Smithville,TN,37166, (615) 597-1726, (615) 597-7398
Greenbrier-Springfield Animal,3332 Highway 41 S,Springfield,TN,37172, (615) 643-7931, (615) 643-6882
Waverly Animal Clinic,652 Clydeton Rd,Waverly,TN,37185, (931) 296-4900, (931) 296-4905
Meredith-Warner Animal Clinic,1370 Nashville Hwy,Lewisburg,TN,37091, (931) 359-3945, (931) 359-4177
Lewisburg Animal Clinic,1113 E Commerce St,Lewisburg,TN,37091, (931) 359-5945, (931) 359-7845
Kinslow Veterinary Clinic,109 Southside Park Dr,Lebanon,TN,37090, (615) 444-9424, (615) 444-9362
Tennessee Veterinary Care,105 W End Hts,Lebanon,TN,37087, (615) 443-4000, (615) 443-0880
McAteer Animal Hospital,417 Baddour Pkwy,Lebanon,TN,37087, (615) 443-0031, (615) 443-0276
Lebanon Animal Hospital,1613 W Main St,Lebanon,TN,37087, (615) 444-4422, (615) 444-1198
Cumberland Animal Hospital,1975 Lebanon Road,Lebanon,TN,37087, (615) 444-1232, (615) 444-9882
Lap Of Love Vet Hospice and In-Home Euthanasia,PO Box # 68541,Lebanon,TN,37088, (615) 988-6828, (615) 444-9362
Farmington Equine Svc,2043 Highway 64,Lewisburg,TN,37091, (931) 359-7393, (931) 359-8686
Companion Animal Hospital,1340 S Ellington Pkwy,Lewisburg,TN,37091, (724) 359-6376, (931) 359-0255
Countryside Veterinary Hosp,1386 Scottsville Pike,Gallatin,TN,37066, (615) 452-4678,
South Water Animal Hospital,301 S Water Ave,Gallatin,TN,37066, (615) 452-8870, (615) 451-0582
Mc Millan Veterinary Clinic,426 Maple St,Gallatin,TN,37066, (615) 451-0522, (615) 451-0582
Lovell Equine Clinic,1035 Liberty Ln,Gallatin,TN,37066, (615) 452-7789, (615) 989-1509
Grassland Animal Clinic,978 Grassland Place,Gallatin,TN,37066, (615) 451-3414, (615) 989-1509
Critter Clinic,522 W Main St,Gallatin,TN,37066, (615) 452-1477,
Gallatin Animal Hospital,338 Summer Hall Dr,Gallatin,TN,37066, (615) 206-0145, (615) 989-1509
Gallatin Animal Hospital,338 Summer Hall Dr,Gallatin,TN,37066, (615) 206-0145, (615) 989-1509
Enoch Veterinary Clinic,1112 Hartsville Pike,Gallatin,TN,37066, (615) 452-1438, (615) 452-1439
North Stewart Veterinary Clnc,1613 Highway 79,Dover,TN,37058, (931) 232-9900, (931) 232-9912
Animal Clinic-Stewart County,533 Highway 79,Dover,TN,37058, (931) 232-7868,
Houston County Animal Clinic,801 W Main St,Erin,TN,37061, (931) 289-4138, (931) 289-5990
All Animals Veterinary Hosp,2163 Highway 48 N,Dickson,TN,37055, (615) 446-7991, (615) 446-8991
Dickson Veterinary Clinic,721 Highway 46 S,Dickson,TN,37055, (615) 446-5044, (615) 446-5097
Cornerstone Animal Hospital,1110 Highway 70 E,Dickson,TN,37055, (615) 446-9071, (615) 446-9072
Dickson Animal Clinic,2043 Highway 70 W,Dickson,TN,37055, (615) 446-2328, (615) 446-9072
